<?xml version="1.0" encoding="UTF-8"?>
<gpx version="1.1" creator="CityPaths" xmlns="http://www.topografix.com/GPX/1/1">
  <trk>
    <name>National Garden Stroll</name>
    <trkseg>
      <trkpt lat="37.974344" lon="23.736659"><time>2026-08-04T10:38:02.594Z</time></trkpt>
      <trkpt lat="37.974344" lon="23.736659"><time>2026-08-04T10:38:02.594Z</time></trkpt>
      <trkpt lat="37.974338" lon="23.736649"><time>2026-08-04T10:38:02.751Z</time></trkpt>
      <trkpt lat="37.974338" lon="23.736649"><time>2026-08-04T10:38:08.751Z</time></trkpt>
      <trkpt lat="37.974332" lon="23.736639"><time>2026-08-04T10:38:08.908Z</time></trkpt>
      <trkpt lat="37.974325" lon="23.73663"><time>2026-08-04T10:38:09.067Z</time></trkpt>
      <trkpt lat="37.974317" lon="23.73662"><time>2026-08-04T10:38:09.245Z</time></trkpt>
      <trkpt lat="37.974309" lon="23.73661"><time>2026-08-04T10:38:09.423Z</time></trkpt>
      <trkpt lat="37.974301" lon="23.7366"><time>2026-08-04T10:38:09.602Z</time></trkpt>
      <trkpt lat="37.974292" lon="23.73659"><time>2026-08-04T10:38:09.792Z</time></trkpt>
      <trkpt lat="37.974283" lon="23.73658"><time>2026-08-04T10:38:09.982Z</time></trkpt>
      <trkpt lat="37.974274" lon="23.73657"><time>2026-08-04T10:38:10.172Z</time></trkpt>
      <trkpt lat="37.974264" lon="23.73656"><time>2026-08-04T10:38:10.374Z</time></trkpt>
      <trkpt lat="37.974253" lon="23.73655"><time>2026-08-04T10:38:10.589Z</time></trkpt>
      <trkpt lat="37.974242" lon="23.73654"><time>2026-08-04T10:38:10.804Z</time></trkpt>
      <trkpt lat="37.974231" lon="23.736529"><time>2026-08-04T10:38:11.027Z</time></trkpt>
      <trkpt lat="37.974219" lon="23.736519"><time>2026-08-04T10:38:11.255Z</time></trkpt>
      <trkpt lat="37.974207" lon="23.736508"><time>2026-08-04T10:38:11.490Z</time></trkpt>
      <trkpt lat="37.974195" lon="23.736498"><time>2026-08-04T10:38:11.718Z</time></trkpt>
      <trkpt lat="37.974183" lon="23.736488"><time>2026-08-04T10:38:11.946Z</time></trkpt>
      <trkpt lat="37.974171" lon="23.736478"><time>2026-08-04T10:38:12.174Z</time></trkpt>
      <trkpt lat="37.974158" lon="23.736469"><time>2026-08-04T10:38:12.409Z</time></trkpt>
      <trkpt lat="37.974146" lon="23.736461"><time>2026-08-04T10:38:12.625Z</time></trkpt>
      <trkpt lat="37.974133" lon="23.736452"><time>2026-08-04T10:38:12.860Z</time></trkpt>
      <trkpt lat="37.974121" lon="23.736444"><time>2026-08-04T10:38:13.075Z</time></trkpt>
      <trkpt lat="37.974109" lon="23.736436"><time>2026-08-04T10:38:13.291Z</time></trkpt>
      <trkpt lat="37.974097" lon="23.736429"><time>2026-08-04T10:38:13.500Z</time></trkpt>
      <trkpt lat="37.974085" lon="23.736422"><time>2026-08-04T10:38:13.710Z</time></trkpt>
      <trkpt lat="37.974074" lon="23.736416"><time>2026-08-04T10:38:13.900Z</time></trkpt>
      <trkpt lat="37.974062" lon="23.736409"><time>2026-08-04T10:38:14.110Z</time></trkpt>
      <trkpt lat="37.974052" lon="23.736403"><time>2026-08-04T10:38:14.286Z</time></trkpt>
      <trkpt lat="37.974041" lon="23.736398"><time>2026-08-04T10:38:14.472Z</time></trkpt>
      <trkpt lat="37.974031" lon="23.736393"><time>2026-08-04T10:38:14.642Z</time></trkpt>
      <trkpt lat="37.974021" lon="23.736388"><time>2026-08-04T10:38:14.813Z</time></trkpt>
      <trkpt lat="37.974012" lon="23.736384"><time>2026-08-04T10:38:14.965Z</time></trkpt>
      <trkpt lat="37.974003" lon="23.73638"><time>2026-08-04T10:38:15.116Z</time></trkpt>
      <trkpt lat="37.973995" lon="23.736376"><time>2026-08-04T10:38:15.253Z</time></trkpt>
      <trkpt lat="37.973987" lon="23.736373"><time>2026-08-04T10:38:15.385Z</time></trkpt>
      <trkpt lat="37.973979" lon="23.736369"><time>2026-08-04T10:38:15.522Z</time></trkpt>
      <trkpt lat="37.973971" lon="23.736366"><time>2026-08-04T10:38:15.654Z</time></trkpt>
      <trkpt lat="37.973964" lon="23.736362"><time>2026-08-04T10:38:15.776Z</time></trkpt>
      <trkpt lat="37.973956" lon="23.736358"><time>2026-08-04T10:38:15.913Z</time></trkpt>
      <trkpt lat="37.973949" lon="23.736354"><time>2026-08-04T10:38:16.035Z</time></trkpt>
      <trkpt lat="37.973942" lon="23.73635"><time>2026-08-04T10:38:16.157Z</time></trkpt>
      <trkpt lat="37.973935" lon="23.736346"><time>2026-08-04T10:38:16.279Z</time></trkpt>
      <trkpt lat="37.973928" lon="23.736343"><time>2026-08-04T10:38:16.396Z</time></trkpt>
      <trkpt lat="37.973922" lon="23.736339"><time>2026-08-04T10:38:16.504Z</time></trkpt>
      <trkpt lat="37.973916" lon="23.736336"><time>2026-08-04T10:38:16.606Z</time></trkpt>
      <trkpt lat="37.97391" lon="23.736332"><time>2026-08-04T10:38:16.714Z</time></trkpt>
      <trkpt lat="37.973905" lon="23.73633"><time>2026-08-04T10:38:16.797Z</time></trkpt>
      <trkpt lat="37.973901" lon="23.736327"><time>2026-08-04T10:38:16.871Z</time></trkpt>
      <trkpt lat="37.973897" lon="23.736325"><time>2026-08-04T10:38:16.939Z</time></trkpt>
      <trkpt lat="37.973894" lon="23.736323"><time>2026-08-04T10:38:16.993Z</time></trkpt>
      <trkpt lat="37.973891" lon="23.736321"><time>2026-08-04T10:38:17.047Z</time></trkpt>
      <trkpt lat="37.973889" lon="23.73632"><time>2026-08-04T10:38:17.081Z</time></trkpt>
      <trkpt lat="37.973888" lon="23.736319"><time>2026-08-04T10:38:17.101Z</time></trkpt>
      <trkpt lat="37.9739045" lon="23.736178000000002"><time>2026-08-04T10:38:18.886Z</time></trkpt>
      <trkpt lat="37.973921" lon="23.736037"><time>2026-08-04T10:38:20.671Z</time></trkpt>
      <trkpt lat="37.973830799999995" lon="23.7359896"><time>2026-08-04T10:38:22.222Z</time></trkpt>
      <trkpt lat="37.9737406" lon="23.7359422"><time>2026-08-04T10:38:23.773Z</time></trkpt>
      <trkpt lat="37.9736504" lon="23.7358948"><time>2026-08-04T10:38:25.324Z</time></trkpt>
      <trkpt lat="37.9735602" lon="23.7358474"><time>2026-08-04T10:38:26.875Z</time></trkpt>
      <trkpt lat="37.97347" lon="23.7358"><time>2026-08-04T10:38:28.426Z</time></trkpt>
      <trkpt lat="37.97344" lon="23.735792"><time>2026-08-04T10:38:28.913Z</time></trkpt>
      <trkpt lat="37.973353499999995" lon="23.735745"><time>2026-08-04T10:38:30.407Z</time></trkpt>
      <trkpt lat="37.973267" lon="23.735698"><time>2026-08-04T10:38:31.902Z</time></trkpt>
      <trkpt lat="37.9731805" lon="23.735651"><time>2026-08-04T10:38:33.397Z</time></trkpt>
      <trkpt lat="37.973094" lon="23.735604000000002"><time>2026-08-04T10:38:34.892Z</time></trkpt>
      <trkpt lat="37.9730075" lon="23.735557"><time>2026-08-04T10:38:36.387Z</time></trkpt>
      <trkpt lat="37.972921" lon="23.73551"><time>2026-08-04T10:38:37.881Z</time></trkpt>
      <trkpt lat="37.972834500000005" lon="23.735463"><time>2026-08-04T10:38:39.376Z</time></trkpt>
      <trkpt lat="37.972748" lon="23.735416"><time>2026-08-04T10:38:40.871Z</time></trkpt>
      <trkpt lat="37.972698" lon="23.735389"><time>2026-08-04T10:38:41.734Z</time></trkpt>
      <trkpt lat="37.972692" lon="23.735394"><time>2026-08-04T10:38:41.848Z</time></trkpt>
      <trkpt lat="37.972683" lon="23.735403"><time>2026-08-04T10:38:42.030Z</time></trkpt>
      <trkpt lat="37.972663" lon="23.73539"><time>2026-08-04T10:38:42.387Z</time></trkpt>
      <trkpt lat="37.972643" lon="23.735377"><time>2026-08-04T10:38:42.744Z</time></trkpt>
      <trkpt lat="37.972623" lon="23.735365"><time>2026-08-04T10:38:43.096Z</time></trkpt>
      <trkpt lat="37.972603" lon="23.735353"><time>2026-08-04T10:38:43.447Z</time></trkpt>
      <trkpt lat="37.972583" lon="23.735342"><time>2026-08-04T10:38:43.793Z</time></trkpt>
      <trkpt lat="37.972564" lon="23.735332"><time>2026-08-04T10:38:44.120Z</time></trkpt>
      <trkpt lat="37.972545" lon="23.735323"><time>2026-08-04T10:38:44.442Z</time></trkpt>
      <trkpt lat="37.972527" lon="23.735314"><time>2026-08-04T10:38:44.750Z</time></trkpt>
      <trkpt lat="37.97251" lon="23.735305"><time>2026-08-04T10:38:45.042Z</time></trkpt>
      <trkpt lat="37.972493" lon="23.735298"><time>2026-08-04T10:38:45.326Z</time></trkpt>
      <trkpt lat="37.972478" lon="23.735291"><time>2026-08-04T10:38:45.580Z</time></trkpt>
      <trkpt lat="37.972417" lon="23.73526"><time>2026-08-04T10:38:46.624Z</time></trkpt>
      <trkpt lat="37.9723455" lon="23.735235"><time>2026-08-04T10:38:47.802Z</time></trkpt>
      <trkpt lat="37.972274" lon="23.73521"><time>2026-08-04T10:38:48.980Z</time></trkpt>
      <trkpt lat="37.972272" lon="23.735109"><time>2026-08-04T10:38:50.245Z</time></trkpt>
      <trkpt lat="37.972249" lon="23.735009"><time>2026-08-04T10:38:51.550Z</time></trkpt>
      <trkpt lat="37.972209" lon="23.734851"><time>2026-08-04T10:38:53.628Z</time></trkpt>
      <trkpt lat="37.972177" lon="23.734764499999997"><time>2026-08-04T10:38:54.824Z</time></trkpt>
      <trkpt lat="37.972145" lon="23.734678"><time>2026-08-04T10:38:56.021Z</time></trkpt>
      <trkpt lat="37.9720965" lon="23.734578499999998"><time>2026-08-04T10:38:57.486Z</time></trkpt>
      <trkpt lat="37.972048" lon="23.734479"><time>2026-08-04T10:38:58.951Z</time></trkpt>
      <trkpt lat="37.971994" lon="23.734378"><time>2026-08-04T10:39:00.479Z</time></trkpt>
      <trkpt lat="37.97194533333334" lon="23.734466666666666"><time>2026-08-04T10:39:01.832Z</time></trkpt>
      <trkpt lat="37.971896666666666" lon="23.734555333333333"><time>2026-08-04T10:39:03.185Z</time></trkpt>
      <trkpt lat="37.971848" lon="23.734644"><time>2026-08-04T10:39:04.538Z</time></trkpt>
      <trkpt lat="37.971759500000005" lon="23.7346665"><time>2026-08-04T10:39:05.971Z</time></trkpt>
      <trkpt lat="37.971671" lon="23.734689"><time>2026-08-04T10:39:07.405Z</time></trkpt>
      <trkpt lat="37.971578" lon="23.734703"><time>2026-08-04T10:39:08.893Z</time></trkpt>
      <trkpt lat="37.971491" lon="23.734749"><time>2026-08-04T10:39:10.390Z</time></trkpt>
      <trkpt lat="37.971404" lon="23.734795"><time>2026-08-04T10:39:11.887Z</time></trkpt>
      <trkpt lat="37.971317" lon="23.734841"><time>2026-08-04T10:39:13.385Z</time></trkpt>
      <trkpt lat="37.9712485" lon="23.7348715"><time>2026-08-04T10:39:14.538Z</time></trkpt>
      <trkpt lat="37.97118" lon="23.734902"><time>2026-08-04T10:39:15.691Z</time></trkpt>
      <trkpt lat="37.971093999999994" lon="23.7349505"><time>2026-08-04T10:39:17.186Z</time></trkpt>
      <trkpt lat="37.971008" lon="23.734999"><time>2026-08-04T10:39:18.681Z</time></trkpt>
      <trkpt lat="37.970968" lon="23.735042"><time>2026-08-04T10:39:19.514Z</time></trkpt>
      <trkpt lat="37.970948" lon="23.735078"><time>2026-08-04T10:39:20.065Z</time></trkpt>
      <trkpt lat="37.970925" lon="23.735119"><time>2026-08-04T10:39:20.696Z</time></trkpt>
      <trkpt lat="37.970926" lon="23.735184"><time>2026-08-04T10:39:21.510Z</time></trkpt>
      <trkpt lat="37.970874" lon="23.735193"><time>2026-08-04T10:39:22.343Z</time></trkpt>
      <trkpt lat="37.970788999999996" lon="23.735221"><time>2026-08-04T10:39:23.738Z</time></trkpt>
      <trkpt lat="37.970704" lon="23.735249"><time>2026-08-04T10:39:25.133Z</time></trkpt>
      <trkpt lat="37.970696" lon="23.735237"><time>2026-08-04T10:39:25.330Z</time></trkpt>
      <trkpt lat="37.970679" lon="23.735216"><time>2026-08-04T10:39:25.707Z</time></trkpt>
      <trkpt lat="37.970662" lon="23.735195"><time>2026-08-04T10:39:26.084Z</time></trkpt>
      <trkpt lat="37.970643" lon="23.735176"><time>2026-08-04T10:39:26.468Z</time></trkpt>
      <trkpt lat="37.970623" lon="23.735156"><time>2026-08-04T10:39:26.873Z</time></trkpt>
      <trkpt lat="37.970601" lon="23.735138"><time>2026-08-04T10:39:27.289Z</time></trkpt>
      <trkpt lat="37.970579" lon="23.735121"><time>2026-08-04T10:39:27.698Z</time></trkpt>
      <trkpt lat="37.970555" lon="23.735105"><time>2026-08-04T10:39:28.129Z</time></trkpt>
      <trkpt lat="37.970531" lon="23.735091"><time>2026-08-04T10:39:28.548Z</time></trkpt>
      <trkpt lat="37.970507" lon="23.735078"><time>2026-08-04T10:39:28.963Z</time></trkpt>
      <trkpt lat="37.970482" lon="23.735067"><time>2026-08-04T10:39:29.383Z</time></trkpt>
      <trkpt lat="37.970458" lon="23.735058"><time>2026-08-04T10:39:29.781Z</time></trkpt>
      <trkpt lat="37.970434" lon="23.73505"><time>2026-08-04T10:39:30.175Z</time></trkpt>
      <trkpt lat="37.970411" lon="23.735044"><time>2026-08-04T10:39:30.548Z</time></trkpt>
      <trkpt lat="37.970394" lon="23.735041"><time>2026-08-04T10:39:30.821Z</time></trkpt>
      <trkpt lat="37.970388" lon="23.73504"><time>2026-08-04T10:39:30.917Z</time></trkpt>
      <trkpt lat="37.970366" lon="23.735038"><time>2026-08-04T10:39:31.267Z</time></trkpt>
      <trkpt lat="37.970344" lon="23.735037"><time>2026-08-04T10:39:31.617Z</time></trkpt>
      <trkpt lat="37.970323" lon="23.735039"><time>2026-08-04T10:39:31.951Z</time></trkpt>
      <trkpt lat="37.970302" lon="23.735041"><time>2026-08-04T10:39:32.286Z</time></trkpt>
      <trkpt lat="37.970283" lon="23.735046"><time>2026-08-04T10:39:32.594Z</time></trkpt>
      <trkpt lat="37.970265" lon="23.735052"><time>2026-08-04T10:39:32.890Z</time></trkpt>
      <trkpt lat="37.970248" lon="23.73506"><time>2026-08-04T10:39:33.178Z</time></trkpt>
      <trkpt lat="37.970232" lon="23.73507"><time>2026-08-04T10:39:33.461Z</time></trkpt>
      <trkpt lat="37.970217" lon="23.735081"><time>2026-08-04T10:39:33.736Z</time></trkpt>
      <trkpt lat="37.970204" lon="23.735094"><time>2026-08-04T10:39:33.999Z</time></trkpt>
      <trkpt lat="37.970193" lon="23.735108"><time>2026-08-04T10:39:34.247Z</time></trkpt>
      <trkpt lat="37.970183" lon="23.735124"><time>2026-08-04T10:39:34.502Z</time></trkpt>
      <trkpt lat="37.970175" lon="23.735142"><time>2026-08-04T10:39:34.761Z</time></trkpt>
      <trkpt lat="37.970168" lon="23.735161"><time>2026-08-04T10:39:35.024Z</time></trkpt>
      <trkpt lat="37.970164" lon="23.73518"><time>2026-08-04T10:39:35.270Z</time></trkpt>
      <trkpt lat="37.970162" lon="23.735201"><time>2026-08-04T10:39:35.535Z</time></trkpt>
      <trkpt lat="37.970161" lon="23.735222"><time>2026-08-04T10:39:35.798Z</time></trkpt>
      <trkpt lat="37.970163" lon="23.735243"><time>2026-08-04T10:39:36.063Z</time></trkpt>
      <trkpt lat="37.970166" lon="23.735265"><time>2026-08-04T10:39:36.343Z</time></trkpt>
      <trkpt lat="37.970172" lon="23.735287"><time>2026-08-04T10:39:36.634Z</time></trkpt>
      <trkpt lat="37.970179" lon="23.735309"><time>2026-08-04T10:39:36.932Z</time></trkpt>
      <trkpt lat="37.970187" lon="23.735332"><time>2026-08-04T10:39:37.246Z</time></trkpt>
      <trkpt lat="37.970197" lon="23.735354"><time>2026-08-04T10:39:37.564Z</time></trkpt>
      <trkpt lat="37.970197" lon="23.735354"><time>2026-08-04T10:39:43.564Z</time></trkpt>
      <trkpt lat="37.970197" lon="23.735354"><time>2026-08-04T10:39:43.564Z</time></trkpt>
    </trkseg>
  </trk>
</gpx>
