<?xml version="1.0" encoding="UTF-8"?>
<gpx version="1.1" creator="CityPaths" xmlns="http://www.topografix.com/GPX/1/1">
  <trk>
    <name>Acropolis & Surroundings</name>
    <trkseg>
      <trkpt lat="37.971356" lon="23.725627"><time>2026-08-04T10:38:02.769Z</time></trkpt>
      <trkpt lat="37.971356" lon="23.725627"><time>2026-08-04T10:38:08.769Z</time></trkpt>
      <trkpt lat="37.971391" lon="23.7255155"><time>2026-08-04T10:38:10.271Z</time></trkpt>
      <trkpt lat="37.971426" lon="23.725404"><time>2026-08-04T10:38:11.774Z</time></trkpt>
      <trkpt lat="37.971441" lon="23.725378"><time>2026-08-04T10:38:12.178Z</time></trkpt>
      <trkpt lat="37.971466" lon="23.725375"><time>2026-08-04T10:38:12.577Z</time></trkpt>
      <trkpt lat="37.971523" lon="23.725411"><time>2026-08-04T10:38:13.588Z</time></trkpt>
      <trkpt lat="37.971571" lon="23.7254745"><time>2026-08-04T10:38:14.690Z</time></trkpt>
      <trkpt lat="37.971619" lon="23.725538"><time>2026-08-04T10:38:15.791Z</time></trkpt>
      <trkpt lat="37.971655" lon="23.725577"><time>2026-08-04T10:38:16.543Z</time></trkpt>
      <trkpt lat="37.971695" lon="23.725599"><time>2026-08-04T10:38:17.236Z</time></trkpt>
      <trkpt lat="37.971705" lon="23.725545"><time>2026-08-04T10:38:17.931Z</time></trkpt>
      <trkpt lat="37.971725" lon="23.725446"><time>2026-08-04T10:38:19.210Z</time></trkpt>
      <trkpt lat="37.971716" lon="23.725444"><time>2026-08-04T10:38:19.356Z</time></trkpt>
      <trkpt lat="37.97174" lon="23.725325"><time>2026-08-04T10:38:20.894Z</time></trkpt>
      <trkpt lat="37.971735" lon="23.725299"><time>2026-08-04T10:38:21.229Z</time></trkpt>
      <trkpt lat="37.971711" lon="23.725164"><time>2026-08-04T10:38:22.962Z</time></trkpt>
      <trkpt lat="37.971704" lon="23.725122"><time>2026-08-04T10:38:23.499Z</time></trkpt>
      <trkpt lat="37.971702" lon="23.725111"><time>2026-08-04T10:38:23.641Z</time></trkpt>
      <trkpt lat="37.971697" lon="23.725081"><time>2026-08-04T10:38:24.025Z</time></trkpt>
      <trkpt lat="37.971696" lon="23.725077"><time>2026-08-04T10:38:24.077Z</time></trkpt>
      <trkpt lat="37.971691" lon="23.725052"><time>2026-08-04T10:38:24.400Z</time></trkpt>
      <trkpt lat="37.971689" lon="23.725042"><time>2026-08-04T10:38:24.529Z</time></trkpt>
      <trkpt lat="37.971687" lon="23.725026"><time>2026-08-04T10:38:24.732Z</time></trkpt>
      <trkpt lat="37.971682" lon="23.724993"><time>2026-08-04T10:38:25.153Z</time></trkpt>
      <trkpt lat="37.971688" lon="23.724982"><time>2026-08-04T10:38:25.321Z</time></trkpt>
      <trkpt lat="37.971613" lon="23.724982"><time>2026-08-04T10:38:26.512Z</time></trkpt>
      <trkpt lat="37.971607" lon="23.72496"><time>2026-08-04T10:38:26.803Z</time></trkpt>
      <trkpt lat="37.971672999999996" lon="23.724912500000002"><time>2026-08-04T10:38:28.009Z</time></trkpt>
      <trkpt lat="37.971739" lon="23.724865"><time>2026-08-04T10:38:29.214Z</time></trkpt>
      <trkpt lat="37.971737" lon="23.724849"><time>2026-08-04T10:38:29.417Z</time></trkpt>
      <trkpt lat="37.971613" lon="23.724883"><time>2026-08-04T10:38:31.432Z</time></trkpt>
      <trkpt lat="37.971611" lon="23.72487"><time>2026-08-04T10:38:31.598Z</time></trkpt>
      <trkpt lat="37.971602" lon="23.724785"><time>2026-08-04T10:38:32.672Z</time></trkpt>
      <trkpt lat="37.9716" lon="23.724769"><time>2026-08-04T10:38:32.875Z</time></trkpt>
      <trkpt lat="37.971568" lon="23.724752"><time>2026-08-04T10:38:33.426Z</time></trkpt>
      <trkpt lat="37.971559" lon="23.724691"><time>2026-08-04T10:38:34.203Z</time></trkpt>
      <trkpt lat="37.971555" lon="23.72467"><time>2026-08-04T10:38:34.474Z</time></trkpt>
      <trkpt lat="37.97156" lon="23.724652"><time>2026-08-04T10:38:34.713Z</time></trkpt>
      <trkpt lat="37.971586" lon="23.724644"><time>2026-08-04T10:38:35.138Z</time></trkpt>
      <trkpt lat="37.971613" lon="23.724638"><time>2026-08-04T10:38:35.573Z</time></trkpt>
      <trkpt lat="37.971628" lon="23.724634"><time>2026-08-04T10:38:35.817Z</time></trkpt>
      <trkpt lat="37.971625" lon="23.724617"><time>2026-08-04T10:38:36.035Z</time></trkpt>
      <trkpt lat="37.971623" lon="23.724609"><time>2026-08-04T10:38:36.140Z</time></trkpt>
      <trkpt lat="37.971619" lon="23.72458"><time>2026-08-04T10:38:36.509Z</time></trkpt>
      <trkpt lat="37.97161" lon="23.724523"><time>2026-08-04T10:38:37.237Z</time></trkpt>
      <trkpt lat="37.971565" lon="23.724517"><time>2026-08-04T10:38:37.955Z</time></trkpt>
      <trkpt lat="37.971481" lon="23.724488"><time>2026-08-04T10:38:39.338Z</time></trkpt>
      <trkpt lat="37.971432" lon="23.72447"><time>2026-08-04T10:38:40.148Z</time></trkpt>
      <trkpt lat="37.971343" lon="23.724407"><time>2026-08-04T10:38:41.767Z</time></trkpt>
      <trkpt lat="37.971276" lon="23.724351"><time>2026-08-04T10:38:43.042Z</time></trkpt>
      <trkpt lat="37.971311" lon="23.724216"><time>2026-08-04T10:38:44.822Z</time></trkpt>
      <trkpt lat="37.971294" lon="23.72418"><time>2026-08-04T10:38:45.347Z</time></trkpt>
      <trkpt lat="37.971197" lon="23.724076"><time>2026-08-04T10:38:47.365Z</time></trkpt>
      <trkpt lat="37.971189" lon="23.724038"><time>2026-08-04T10:38:47.857Z</time></trkpt>
      <trkpt lat="37.971206" lon="23.723941"><time>2026-08-04T10:38:49.101Z</time></trkpt>
      <trkpt lat="37.971223" lon="23.723844"><time>2026-08-04T10:38:50.346Z</time></trkpt>
      <trkpt lat="37.971229" lon="23.723762"><time>2026-08-04T10:38:51.377Z</time></trkpt>
      <trkpt lat="37.971231" lon="23.72373"><time>2026-08-04T10:38:51.779Z</time></trkpt>
      <trkpt lat="37.971219" lon="23.723751"><time>2026-08-04T10:38:52.104Z</time></trkpt>
      <trkpt lat="37.971171" lon="23.723746"><time>2026-08-04T10:38:52.869Z</time></trkpt>
      <trkpt lat="37.971134" lon="23.723748"><time>2026-08-04T10:38:53.457Z</time></trkpt>
      <trkpt lat="37.971091" lon="23.723748"><time>2026-08-04T10:38:54.140Z</time></trkpt>
      <trkpt lat="37.97103" lon="23.723749"><time>2026-08-04T10:38:55.109Z</time></trkpt>
      <trkpt lat="37.970953" lon="23.72373"><time>2026-08-04T10:38:56.355Z</time></trkpt>
      <trkpt lat="37.970918" lon="23.723791"><time>2026-08-04T10:38:57.300Z</time></trkpt>
      <trkpt lat="37.970881" lon="23.723837"><time>2026-08-04T10:38:58.123Z</time></trkpt>
      <trkpt lat="37.970855" lon="23.723852"><time>2026-08-04T10:38:58.577Z</time></trkpt>
      <trkpt lat="37.970816" lon="23.723857"><time>2026-08-04T10:38:59.199Z</time></trkpt>
      <trkpt lat="37.970769" lon="23.723847"><time>2026-08-04T10:38:59.957Z</time></trkpt>
      <trkpt lat="37.970738" lon="23.723857"><time>2026-08-04T10:39:00.465Z</time></trkpt>
      <trkpt lat="37.970722" lon="23.723875"><time>2026-08-04T10:39:00.804Z</time></trkpt>
      <trkpt lat="37.970693" lon="23.723894"><time>2026-08-04T10:39:01.323Z</time></trkpt>
      <trkpt lat="37.970662" lon="23.723899"><time>2026-08-04T10:39:01.819Z</time></trkpt>
      <trkpt lat="37.9705885" lon="23.7238995"><time>2026-08-04T10:39:02.987Z</time></trkpt>
      <trkpt lat="37.970515" lon="23.7239"><time>2026-08-04T10:39:04.154Z</time></trkpt>
      <trkpt lat="37.97046" lon="23.723875"><time>2026-08-04T10:39:05.082Z</time></trkpt>
      <trkpt lat="37.970396" lon="23.723818"><time>2026-08-04T10:39:06.325Z</time></trkpt>
      <trkpt lat="37.970306" lon="23.723893"><time>2026-08-04T10:39:08.035Z</time></trkpt>
      <trkpt lat="37.970196" lon="23.723977"><time>2026-08-04T10:39:10.075Z</time></trkpt>
      <trkpt lat="37.9701175" lon="23.7239645"><time>2026-08-04T10:39:11.331Z</time></trkpt>
      <trkpt lat="37.970039" lon="23.723952"><time>2026-08-04T10:39:12.588Z</time></trkpt>
      <trkpt lat="37.970021" lon="23.724088"><time>2026-08-04T10:39:14.315Z</time></trkpt>
      <trkpt lat="37.970011" lon="23.724159"><time>2026-08-04T10:39:15.218Z</time></trkpt>
      <trkpt lat="37.96995733333333" lon="23.724077"><time>2026-08-04T10:39:16.553Z</time></trkpt>
      <trkpt lat="37.96990366666667" lon="23.723995"><time>2026-08-04T10:39:17.888Z</time></trkpt>
      <trkpt lat="37.96985" lon="23.723913"><time>2026-08-04T10:39:19.222Z</time></trkpt>
      <trkpt lat="37.969781499999996" lon="23.723850499999998"><time>2026-08-04T10:39:20.563Z</time></trkpt>
      <trkpt lat="37.969713" lon="23.723788"><time>2026-08-04T10:39:21.903Z</time></trkpt>
      <trkpt lat="37.969674" lon="23.723701"><time>2026-08-04T10:39:23.156Z</time></trkpt>
      <trkpt lat="37.969635" lon="23.723614"><time>2026-08-04T10:39:24.409Z</time></trkpt>
      <trkpt lat="37.969644" lon="23.723551"><time>2026-08-04T10:39:25.211Z</time></trkpt>
      <trkpt lat="37.969581" lon="23.72345"><time>2026-08-04T10:39:26.824Z</time></trkpt>
      <trkpt lat="37.969548" lon="23.723543499999998"><time>2026-08-04T10:39:28.107Z</time></trkpt>
      <trkpt lat="37.969515" lon="23.723637"><time>2026-08-04T10:39:29.390Z</time></trkpt>
      <trkpt lat="37.969445" lon="23.723597"><time>2026-08-04T10:39:30.609Z</time></trkpt>
      <trkpt lat="37.9694" lon="23.7236"><time>2026-08-04T10:39:31.325Z</time></trkpt>
      <trkpt lat="37.969324" lon="23.723606500000002"><time>2026-08-04T10:39:32.535Z</time></trkpt>
      <trkpt lat="37.969248" lon="23.723613"><time>2026-08-04T10:39:33.745Z</time></trkpt>
      <trkpt lat="37.969169" lon="23.723623"><time>2026-08-04T10:39:35.006Z</time></trkpt>
      <trkpt lat="37.96909" lon="23.723633"><time>2026-08-04T10:39:36.267Z</time></trkpt>
      <trkpt lat="37.96900183333334" lon="23.723641166666667"><time>2026-08-04T10:39:37.672Z</time></trkpt>
      <trkpt lat="37.968913666666666" lon="23.723649333333334"><time>2026-08-04T10:39:39.076Z</time></trkpt>
      <trkpt lat="37.9688255" lon="23.7236575"><time>2026-08-04T10:39:40.480Z</time></trkpt>
      <trkpt lat="37.96873733333334" lon="23.723665666666665"><time>2026-08-04T10:39:41.885Z</time></trkpt>
      <trkpt lat="37.968649166666665" lon="23.723673833333333"><time>2026-08-04T10:39:43.289Z</time></trkpt>
      <trkpt lat="37.968561" lon="23.723682"><time>2026-08-04T10:39:44.693Z</time></trkpt>
      <trkpt lat="37.968568" lon="23.723852"><time>2026-08-04T10:39:46.825Z</time></trkpt>
      <trkpt lat="37.968526" lon="23.723899"><time>2026-08-04T10:39:47.714Z</time></trkpt>
      <trkpt lat="37.968472" lon="23.72396"><time>2026-08-04T10:39:48.863Z</time></trkpt>
      <trkpt lat="37.968472" lon="23.72396"><time>2026-08-04T10:39:54.863Z</time></trkpt>
      <trkpt lat="37.968526" lon="23.723899"><time>2026-08-04T10:39:56.012Z</time></trkpt>
      <trkpt lat="37.968568" lon="23.723852"><time>2026-08-04T10:39:56.901Z</time></trkpt>
      <trkpt lat="37.968561" lon="23.723682"><time>2026-08-04T10:39:59.033Z</time></trkpt>
      <trkpt lat="37.968649166666665" lon="23.723673833333333"><time>2026-08-04T10:40:00.437Z</time></trkpt>
      <trkpt lat="37.96873733333334" lon="23.723665666666665"><time>2026-08-04T10:40:01.842Z</time></trkpt>
      <trkpt lat="37.9688255" lon="23.7236575"><time>2026-08-04T10:40:03.246Z</time></trkpt>
      <trkpt lat="37.968913666666666" lon="23.723649333333334"><time>2026-08-04T10:40:04.650Z</time></trkpt>
      <trkpt lat="37.96900183333334" lon="23.723641166666667"><time>2026-08-04T10:40:06.055Z</time></trkpt>
      <trkpt lat="37.96909" lon="23.723633"><time>2026-08-04T10:40:07.459Z</time></trkpt>
      <trkpt lat="37.969169" lon="23.723623"><time>2026-08-04T10:40:08.720Z</time></trkpt>
      <trkpt lat="37.969248" lon="23.723613"><time>2026-08-04T10:40:09.981Z</time></trkpt>
      <trkpt lat="37.969324" lon="23.723606500000002"><time>2026-08-04T10:40:11.191Z</time></trkpt>
      <trkpt lat="37.9694" lon="23.7236"><time>2026-08-04T10:40:12.401Z</time></trkpt>
      <trkpt lat="37.969445" lon="23.723597"><time>2026-08-04T10:40:13.117Z</time></trkpt>
      <trkpt lat="37.969515" lon="23.723637"><time>2026-08-04T10:40:14.336Z</time></trkpt>
      <trkpt lat="37.969548" lon="23.723543499999998"><time>2026-08-04T10:40:15.619Z</time></trkpt>
      <trkpt lat="37.969581" lon="23.72345"><time>2026-08-04T10:40:16.902Z</time></trkpt>
      <trkpt lat="37.969644" lon="23.723551"><time>2026-08-04T10:40:18.515Z</time></trkpt>
      <trkpt lat="37.969635" lon="23.723614"><time>2026-08-04T10:40:19.317Z</time></trkpt>
      <trkpt lat="37.969674" lon="23.723701"><time>2026-08-04T10:40:20.570Z</time></trkpt>
      <trkpt lat="37.969713" lon="23.723788"><time>2026-08-04T10:40:21.823Z</time></trkpt>
      <trkpt lat="37.969781499999996" lon="23.723850499999998"><time>2026-08-04T10:40:23.164Z</time></trkpt>
      <trkpt lat="37.96985" lon="23.723913"><time>2026-08-04T10:40:24.504Z</time></trkpt>
      <trkpt lat="37.96990366666667" lon="23.723995"><time>2026-08-04T10:40:25.839Z</time></trkpt>
      <trkpt lat="37.96995733333333" lon="23.724077"><time>2026-08-04T10:40:27.173Z</time></trkpt>
      <trkpt lat="37.970011" lon="23.724159"><time>2026-08-04T10:40:28.508Z</time></trkpt>
      <trkpt lat="37.970021" lon="23.724088"><time>2026-08-04T10:40:29.411Z</time></trkpt>
      <trkpt lat="37.970039" lon="23.723952"><time>2026-08-04T10:40:31.138Z</time></trkpt>
      <trkpt lat="37.970052333333335" lon="23.723856"><time>2026-08-04T10:40:32.359Z</time></trkpt>
      <trkpt lat="37.97006566666666" lon="23.72376"><time>2026-08-04T10:40:33.579Z</time></trkpt>
      <trkpt lat="37.970079" lon="23.723664"><time>2026-08-04T10:40:34.800Z</time></trkpt>
      <trkpt lat="37.970099" lon="23.723523"><time>2026-08-04T10:40:36.594Z</time></trkpt>
      <trkpt lat="37.970099" lon="23.723523"><time>2026-08-04T10:40:42.594Z</time></trkpt>
    </trkseg>
  </trk>
</gpx>
