<?xml version="1.0" encoding="UTF-8"?>
<gpx version="1.1" creator="CityPaths" xmlns="http://www.topografix.com/GPX/1/1">
  <trk>
    <name>Thissio to Kerameikos</name>
    <trkseg>
      <trkpt lat="37.976962" lon="23.719988"><time>2026-08-04T10:38:02.857Z</time></trkpt>
      <trkpt lat="37.976962" lon="23.719988"><time>2026-08-04T10:38:08.857Z</time></trkpt>
      <trkpt lat="37.976961" lon="23.719992"><time>2026-08-04T10:38:08.909Z</time></trkpt>
      <trkpt lat="37.976958" lon="23.720003"><time>2026-08-04T10:38:09.055Z</time></trkpt>
      <trkpt lat="37.976956" lon="23.720011"><time>2026-08-04T10:38:09.160Z</time></trkpt>
      <trkpt lat="37.976922800000004" lon="23.7201228"><time>2026-08-04T10:38:10.656Z</time></trkpt>
      <trkpt lat="37.9768896" lon="23.720234599999998"><time>2026-08-04T10:38:12.152Z</time></trkpt>
      <trkpt lat="37.9768564" lon="23.7203464"><time>2026-08-04T10:38:13.648Z</time></trkpt>
      <trkpt lat="37.9768232" lon="23.7204582"><time>2026-08-04T10:38:15.144Z</time></trkpt>
      <trkpt lat="37.97679" lon="23.72057"><time>2026-08-04T10:38:16.640Z</time></trkpt>
      <trkpt lat="37.976781" lon="23.720612"><time>2026-08-04T10:38:17.185Z</time></trkpt>
      <trkpt lat="37.976771" lon="23.720604"><time>2026-08-04T10:38:17.372Z</time></trkpt>
      <trkpt lat="37.976766" lon="23.7206"><time>2026-08-04T10:38:17.466Z</time></trkpt>
      <trkpt lat="37.976682" lon="23.720585"><time>2026-08-04T10:38:18.814Z</time></trkpt>
      <trkpt lat="37.976664" lon="23.720581"><time>2026-08-04T10:38:19.104Z</time></trkpt>
      <trkpt lat="37.976617" lon="23.720574"><time>2026-08-04T10:38:19.856Z</time></trkpt>
      <trkpt lat="37.976611" lon="23.720573"><time>2026-08-04T10:38:19.952Z</time></trkpt>
      <trkpt lat="37.976575" lon="23.720567"><time>2026-08-04T10:38:20.529Z</time></trkpt>
      <trkpt lat="37.976528" lon="23.720559"><time>2026-08-04T10:38:21.282Z</time></trkpt>
      <trkpt lat="37.976518" lon="23.720558"><time>2026-08-04T10:38:21.441Z</time></trkpt>
      <trkpt lat="37.976507" lon="23.720556"><time>2026-08-04T10:38:21.618Z</time></trkpt>
      <trkpt lat="37.976466" lon="23.720548"><time>2026-08-04T10:38:22.277Z</time></trkpt>
      <trkpt lat="37.976462" lon="23.720547"><time>2026-08-04T10:38:22.342Z</time></trkpt>
      <trkpt lat="37.976458" lon="23.720545"><time>2026-08-04T10:38:22.410Z</time></trkpt>
      <trkpt lat="37.976455" lon="23.720543"><time>2026-08-04T10:38:22.464Z</time></trkpt>
      <trkpt lat="37.976448" lon="23.720538"><time>2026-08-04T10:38:22.591Z</time></trkpt>
      <trkpt lat="37.976433" lon="23.720526"><time>2026-08-04T10:38:22.873Z</time></trkpt>
      <trkpt lat="37.976483" lon="23.720477"><time>2026-08-04T10:38:23.877Z</time></trkpt>
      <trkpt lat="37.976512" lon="23.720451"><time>2026-08-04T10:38:24.441Z</time></trkpt>
      <trkpt lat="37.976532" lon="23.720427"><time>2026-08-04T10:38:24.878Z</time></trkpt>
      <trkpt lat="37.976546" lon="23.720401"><time>2026-08-04T10:38:25.272Z</time></trkpt>
      <trkpt lat="37.976584333333335" lon="23.720286333333334"><time>2026-08-04T10:38:26.832Z</time></trkpt>
      <trkpt lat="37.976622666666664" lon="23.720171666666666"><time>2026-08-04T10:38:28.391Z</time></trkpt>
      <trkpt lat="37.976661" lon="23.720057"><time>2026-08-04T10:38:29.951Z</time></trkpt>
      <trkpt lat="37.9767025" lon="23.719925500000002"><time>2026-08-04T10:38:31.725Z</time></trkpt>
      <trkpt lat="37.976744" lon="23.719794"><time>2026-08-04T10:38:33.498Z</time></trkpt>
      <trkpt lat="37.976777" lon="23.719697"><time>2026-08-04T10:38:34.821Z</time></trkpt>
      <trkpt lat="37.976817499999996" lon="23.71958"><time>2026-08-04T10:38:36.421Z</time></trkpt>
      <trkpt lat="37.976858" lon="23.719463"><time>2026-08-04T10:38:38.021Z</time></trkpt>
      <trkpt lat="37.976884" lon="23.719384"><time>2026-08-04T10:38:39.093Z</time></trkpt>
      <trkpt lat="37.976901" lon="23.719324"><time>2026-08-04T10:38:39.892Z</time></trkpt>
      <trkpt lat="37.976908" lon="23.719294"><time>2026-08-04T10:38:40.283Z</time></trkpt>
      <trkpt lat="37.976911" lon="23.71926"><time>2026-08-04T10:38:40.712Z</time></trkpt>
      <trkpt lat="37.976907" lon="23.719221"><time>2026-08-04T10:38:41.204Z</time></trkpt>
      <trkpt lat="37.976896" lon="23.71915"><time>2026-08-04T10:38:42.110Z</time></trkpt>
      <trkpt lat="37.976882" lon="23.719094"><time>2026-08-04T10:38:42.846Z</time></trkpt>
      <trkpt lat="37.976866" lon="23.719039"><time>2026-08-04T10:38:43.580Z</time></trkpt>
      <trkpt lat="37.976853" lon="23.719002"><time>2026-08-04T10:38:44.087Z</time></trkpt>
      <trkpt lat="37.976848" lon="23.718987"><time>2026-08-04T10:38:44.291Z</time></trkpt>
      <trkpt lat="37.97683" lon="23.718924"><time>2026-08-04T10:38:45.130Z</time></trkpt>
      <trkpt lat="37.976833" lon="23.718881"><time>2026-08-04T10:38:45.671Z</time></trkpt>
      <trkpt lat="37.976839" lon="23.718822"><time>2026-08-04T10:38:46.416Z</time></trkpt>
      <trkpt lat="37.976856" lon="23.718726"><time>2026-08-04T10:38:47.648Z</time></trkpt>
      <trkpt lat="37.9768751" lon="23.7186202"><time>2026-08-04T10:38:49.007Z</time></trkpt>
      <trkpt lat="37.9768942" lon="23.7185144"><time>2026-08-04T10:38:50.366Z</time></trkpt>
      <trkpt lat="37.9769133" lon="23.7184086"><time>2026-08-04T10:38:51.725Z</time></trkpt>
      <trkpt lat="37.976932399999995" lon="23.7183028"><time>2026-08-04T10:38:53.084Z</time></trkpt>
      <trkpt lat="37.9769515" lon="23.718197"><time>2026-08-04T10:38:54.443Z</time></trkpt>
      <trkpt lat="37.9769706" lon="23.7180912"><time>2026-08-04T10:38:55.802Z</time></trkpt>
      <trkpt lat="37.9769897" lon="23.7179854"><time>2026-08-04T10:38:57.161Z</time></trkpt>
      <trkpt lat="37.9770088" lon="23.7178796"><time>2026-08-04T10:38:58.520Z</time></trkpt>
      <trkpt lat="37.977027899999996" lon="23.7177738"><time>2026-08-04T10:38:59.879Z</time></trkpt>
      <trkpt lat="37.977047" lon="23.717668"><time>2026-08-04T10:39:01.238Z</time></trkpt>
      <trkpt lat="37.977079" lon="23.717527"><time>2026-08-04T10:39:03.076Z</time></trkpt>
      <trkpt lat="37.977117" lon="23.717455"><time>2026-08-04T10:39:04.161Z</time></trkpt>
      <trkpt lat="37.97714" lon="23.71741"><time>2026-08-04T10:39:04.832Z</time></trkpt>
      <trkpt lat="37.977154" lon="23.717371"><time>2026-08-04T10:39:05.369Z</time></trkpt>
      <trkpt lat="37.977163" lon="23.71733"><time>2026-08-04T10:39:05.902Z</time></trkpt>
      <trkpt lat="37.977167" lon="23.717253"><time>2026-08-04T10:39:06.868Z</time></trkpt>
      <trkpt lat="37.977168" lon="23.717174"><time>2026-08-04T10:39:07.857Z</time></trkpt>
      <trkpt lat="37.9771655" lon="23.7170385"><time>2026-08-04T10:39:09.554Z</time></trkpt>
      <trkpt lat="37.977163" lon="23.716903"><time>2026-08-04T10:39:11.251Z</time></trkpt>
      <trkpt lat="37.97715633333333" lon="23.716789666666667"><time>2026-08-04T10:39:12.674Z</time></trkpt>
      <trkpt lat="37.97714966666666" lon="23.716676333333332"><time>2026-08-04T10:39:14.098Z</time></trkpt>
      <trkpt lat="37.977143" lon="23.716563"><time>2026-08-04T10:39:15.521Z</time></trkpt>
      <trkpt lat="37.977131" lon="23.716461"><time>2026-08-04T10:39:16.812Z</time></trkpt>
      <trkpt lat="37.97711" lon="23.716336"><time>2026-08-04T10:39:18.412Z</time></trkpt>
      <trkpt lat="37.977079" lon="23.716211"><time>2026-08-04T10:39:20.053Z</time></trkpt>
      <trkpt lat="37.977047" lon="23.716106"><time>2026-08-04T10:39:21.463Z</time></trkpt>
      <trkpt lat="37.97701266666667" lon="23.7159965"><time>2026-08-04T10:39:22.938Z</time></trkpt>
      <trkpt lat="37.976978333333335" lon="23.715887"><time>2026-08-04T10:39:24.414Z</time></trkpt>
      <trkpt lat="37.976944" lon="23.7157775"><time>2026-08-04T10:39:25.889Z</time></trkpt>
      <trkpt lat="37.976909666666664" lon="23.715668"><time>2026-08-04T10:39:27.365Z</time></trkpt>
      <trkpt lat="37.97687533333333" lon="23.7155585"><time>2026-08-04T10:39:28.841Z</time></trkpt>
      <trkpt lat="37.976841" lon="23.715449"><time>2026-08-04T10:39:30.316Z</time></trkpt>
      <trkpt lat="37.976829" lon="23.715408"><time>2026-08-04T10:39:30.864Z</time></trkpt>
      <trkpt lat="37.9767455" lon="23.7153825"><time>2026-08-04T10:39:32.228Z</time></trkpt>
      <trkpt lat="37.976662" lon="23.715357"><time>2026-08-04T10:39:33.592Z</time></trkpt>
      <trkpt lat="37.976568666666665" lon="23.7153345"><time>2026-08-04T10:39:35.102Z</time></trkpt>
      <trkpt lat="37.97647533333333" lon="23.715312"><time>2026-08-04T10:39:36.611Z</time></trkpt>
      <trkpt lat="37.976382" lon="23.7152895"><time>2026-08-04T10:39:38.120Z</time></trkpt>
      <trkpt lat="37.97628866666666" lon="23.715267"><time>2026-08-04T10:39:39.629Z</time></trkpt>
      <trkpt lat="37.97619533333333" lon="23.7152445"><time>2026-08-04T10:39:41.138Z</time></trkpt>
      <trkpt lat="37.976102" lon="23.715222"><time>2026-08-04T10:39:42.647Z</time></trkpt>
      <trkpt lat="37.976022" lon="23.715203"><time>2026-08-04T10:39:43.940Z</time></trkpt>
      <trkpt lat="37.976023" lon="23.715172"><time>2026-08-04T10:39:44.329Z</time></trkpt>
      <trkpt lat="37.97592783333333" lon="23.715149333333333"><time>2026-08-04T10:39:45.867Z</time></trkpt>
      <trkpt lat="37.97583266666666" lon="23.715126666666666"><time>2026-08-04T10:39:47.405Z</time></trkpt>
      <trkpt lat="37.975737499999994" lon="23.715104"><time>2026-08-04T10:39:48.943Z</time></trkpt>
      <trkpt lat="37.97564233333333" lon="23.715081333333334"><time>2026-08-04T10:39:50.481Z</time></trkpt>
      <trkpt lat="37.975547166666665" lon="23.715058666666668"><time>2026-08-04T10:39:52.019Z</time></trkpt>
      <trkpt lat="37.975452" lon="23.715036"><time>2026-08-04T10:39:53.557Z</time></trkpt>
      <trkpt lat="37.975467" lon="23.714985"><time>2026-08-04T10:39:54.239Z</time></trkpt>
      <trkpt lat="37.975467" lon="23.714985"><time>2026-08-04T10:40:00.239Z</time></trkpt>
      <trkpt lat="37.975467" lon="23.714985"><time>2026-08-04T10:40:00.239Z</time></trkpt>
    </trkseg>
  </trk>
</gpx>
