<?xml version="1.0" encoding="UTF-8"?>
<gpx version="1.1" creator="CityPaths" xmlns="http://www.topografix.com/GPX/1/1">
  <trk>
    <name>Monastiraki & Psyrri</name>
    <trkseg>
      <trkpt lat="37.97624" lon="23.725467"><time>2026-08-04T10:38:02.671Z</time></trkpt>
      <trkpt lat="37.97624" lon="23.725467"><time>2026-08-04T10:38:08.671Z</time></trkpt>
      <trkpt lat="37.976254" lon="23.725634"><time>2026-08-04T10:38:10.773Z</time></trkpt>
      <trkpt lat="37.976258" lon="23.725689"><time>2026-08-04T10:38:11.465Z</time></trkpt>
      <trkpt lat="37.9763255" lon="23.725775"><time>2026-08-04T10:38:12.985Z</time></trkpt>
      <trkpt lat="37.976393" lon="23.725861"><time>2026-08-04T10:38:14.504Z</time></trkpt>
      <trkpt lat="37.97631166666667" lon="23.725829666666666"><time>2026-08-04T10:38:15.855Z</time></trkpt>
      <trkpt lat="37.97623033333333" lon="23.725798333333334"><time>2026-08-04T10:38:17.205Z</time></trkpt>
      <trkpt lat="37.976149" lon="23.725767"><time>2026-08-04T10:38:18.555Z</time></trkpt>
      <trkpt lat="37.9760865" lon="23.725826"><time>2026-08-04T10:38:19.793Z</time></trkpt>
      <trkpt lat="37.976024" lon="23.725885"><time>2026-08-04T10:38:21.030Z</time></trkpt>
      <trkpt lat="37.975997" lon="23.725872"><time>2026-08-04T10:38:21.489Z</time></trkpt>
      <trkpt lat="37.975989" lon="23.725869"><time>2026-08-04T10:38:21.621Z</time></trkpt>
      <trkpt lat="37.975910999999996" lon="23.725838666666665"><time>2026-08-04T10:38:22.917Z</time></trkpt>
      <trkpt lat="37.975833" lon="23.725808333333333"><time>2026-08-04T10:38:24.213Z</time></trkpt>
      <trkpt lat="37.975755" lon="23.725778"><time>2026-08-04T10:38:25.509Z</time></trkpt>
      <trkpt lat="37.9756795" lon="23.7257485"><time>2026-08-04T10:38:26.764Z</time></trkpt>
      <trkpt lat="37.975604" lon="23.725719"><time>2026-08-04T10:38:28.019Z</time></trkpt>
      <trkpt lat="37.975526333333335" lon="23.72567366666667"><time>2026-08-04T10:38:29.377Z</time></trkpt>
      <trkpt lat="37.975448666666665" lon="23.725628333333333"><time>2026-08-04T10:38:30.735Z</time></trkpt>
      <trkpt lat="37.975370999999996" lon="23.725583"><time>2026-08-04T10:38:32.093Z</time></trkpt>
      <trkpt lat="37.97529333333333" lon="23.725537666666668"><time>2026-08-04T10:38:33.451Z</time></trkpt>
      <trkpt lat="37.97521566666667" lon="23.72549233333333"><time>2026-08-04T10:38:34.809Z</time></trkpt>
      <trkpt lat="37.975138" lon="23.725447"><time>2026-08-04T10:38:36.167Z</time></trkpt>
      <trkpt lat="37.975042" lon="23.725384"><time>2026-08-04T10:38:37.884Z</time></trkpt>
      <trkpt lat="37.974951000000004" lon="23.7253394"><time>2026-08-04T10:38:39.434Z</time></trkpt>
      <trkpt lat="37.97486" lon="23.7252948"><time>2026-08-04T10:38:40.984Z</time></trkpt>
      <trkpt lat="37.974769" lon="23.725250199999998"><time>2026-08-04T10:38:42.533Z</time></trkpt>
      <trkpt lat="37.974678" lon="23.7252056"><time>2026-08-04T10:38:44.083Z</time></trkpt>
      <trkpt lat="37.974587" lon="23.725161"><time>2026-08-04T10:38:45.633Z</time></trkpt>
      <trkpt lat="37.974575" lon="23.725292500000002"><time>2026-08-04T10:38:47.290Z</time></trkpt>
      <trkpt lat="37.974563" lon="23.725424"><time>2026-08-04T10:38:48.948Z</time></trkpt>
      <trkpt lat="37.974486" lon="23.725391"><time>2026-08-04T10:38:50.239Z</time></trkpt>
      <trkpt lat="37.974473" lon="23.725388"><time>2026-08-04T10:38:50.449Z</time></trkpt>
      <trkpt lat="37.974465" lon="23.725387"><time>2026-08-04T10:38:50.576Z</time></trkpt>
      <trkpt lat="37.974459" lon="23.725389"><time>2026-08-04T10:38:50.675Z</time></trkpt>
      <trkpt lat="37.974448" lon="23.725395"><time>2026-08-04T10:38:50.865Z</time></trkpt>
      <trkpt lat="37.974437" lon="23.725404"><time>2026-08-04T10:38:51.073Z</time></trkpt>
      <trkpt lat="37.974429" lon="23.725414"><time>2026-08-04T10:38:51.252Z</time></trkpt>
      <trkpt lat="37.974415" lon="23.725435"><time>2026-08-04T10:38:51.596Z</time></trkpt>
      <trkpt lat="37.974407" lon="23.725443"><time>2026-08-04T10:38:51.758Z</time></trkpt>
      <trkpt lat="37.974394" lon="23.725449"><time>2026-08-04T10:38:51.978Z</time></trkpt>
      <trkpt lat="37.974381" lon="23.725453"><time>2026-08-04T10:38:52.190Z</time></trkpt>
      <trkpt lat="37.97437" lon="23.725453"><time>2026-08-04T10:38:52.365Z</time></trkpt>
      <trkpt lat="37.974359" lon="23.72545"><time>2026-08-04T10:38:52.543Z</time></trkpt>
      <trkpt lat="37.974341" lon="23.725443"><time>2026-08-04T10:38:52.843Z</time></trkpt>
      <trkpt lat="37.9742685" lon="23.725408"><time>2026-08-04T10:38:54.075Z</time></trkpt>
      <trkpt lat="37.974196" lon="23.725373"><time>2026-08-04T10:38:55.307Z</time></trkpt>
      <trkpt lat="37.97411266666666" lon="23.725356333333334"><time>2026-08-04T10:38:56.647Z</time></trkpt>
      <trkpt lat="37.974029333333334" lon="23.725339666666667"><time>2026-08-04T10:38:57.987Z</time></trkpt>
      <trkpt lat="37.973946" lon="23.725323"><time>2026-08-04T10:38:59.327Z</time></trkpt>
      <trkpt lat="37.973862999999994" lon="23.72530725"><time>2026-08-04T10:39:00.660Z</time></trkpt>
      <trkpt lat="37.97378" lon="23.725291499999997"><time>2026-08-04T10:39:01.994Z</time></trkpt>
      <trkpt lat="37.973697" lon="23.725275749999998"><time>2026-08-04T10:39:03.327Z</time></trkpt>
      <trkpt lat="37.973614" lon="23.72526"><time>2026-08-04T10:39:04.660Z</time></trkpt>
      <trkpt lat="37.973544" lon="23.725226"><time>2026-08-04T10:39:05.850Z</time></trkpt>
      <trkpt lat="37.973489" lon="23.725178"><time>2026-08-04T10:39:06.911Z</time></trkpt>
      <trkpt lat="37.973491" lon="23.725125"><time>2026-08-04T10:39:07.575Z</time></trkpt>
      <trkpt lat="37.9734235" lon="23.7251215"><time>2026-08-04T10:39:08.648Z</time></trkpt>
      <trkpt lat="37.973356" lon="23.725118"><time>2026-08-04T10:39:09.722Z</time></trkpt>
      <trkpt lat="37.973353" lon="23.725254"><time>2026-08-04T10:39:11.425Z</time></trkpt>
      <trkpt lat="37.9732695" lon="23.72524925"><time>2026-08-04T10:39:12.753Z</time></trkpt>
      <trkpt lat="37.973186" lon="23.725244500000002"><time>2026-08-04T10:39:14.081Z</time></trkpt>
      <trkpt lat="37.9731025" lon="23.72523975"><time>2026-08-04T10:39:15.408Z</time></trkpt>
      <trkpt lat="37.973019" lon="23.725235"><time>2026-08-04T10:39:16.736Z</time></trkpt>
      <trkpt lat="37.972942" lon="23.725232000000002"><time>2026-08-04T10:39:17.960Z</time></trkpt>
      <trkpt lat="37.972865" lon="23.725229"><time>2026-08-04T10:39:19.184Z</time></trkpt>
      <trkpt lat="37.972788" lon="23.725226"><time>2026-08-04T10:39:20.407Z</time></trkpt>
      <trkpt lat="37.972795" lon="23.725263"><time>2026-08-04T10:39:20.884Z</time></trkpt>
      <trkpt lat="37.972783" lon="23.725264"><time>2026-08-04T10:39:21.075Z</time></trkpt>
      <trkpt lat="37.972746666666666" lon="23.725143666666668"><time>2026-08-04T10:39:22.688Z</time></trkpt>
      <trkpt lat="37.97271033333333" lon="23.725023333333333"><time>2026-08-04T10:39:24.302Z</time></trkpt>
      <trkpt lat="37.972674" lon="23.724903"><time>2026-08-04T10:39:25.916Z</time></trkpt>
      <trkpt lat="37.97264" lon="23.724811333333335"><time>2026-08-04T10:39:27.184Z</time></trkpt>
      <trkpt lat="37.972606" lon="23.724719666666665"><time>2026-08-04T10:39:28.453Z</time></trkpt>
      <trkpt lat="37.972572" lon="23.724628"><time>2026-08-04T10:39:29.721Z</time></trkpt>
      <trkpt lat="37.972534" lon="23.724525"><time>2026-08-04T10:39:31.145Z</time></trkpt>
      <trkpt lat="37.972486" lon="23.724411666666665"><time>2026-08-04T10:39:32.756Z</time></trkpt>
      <trkpt lat="37.972438" lon="23.724298333333333"><time>2026-08-04T10:39:34.368Z</time></trkpt>
      <trkpt lat="37.97239" lon="23.724185"><time>2026-08-04T10:39:35.979Z</time></trkpt>
      <trkpt lat="37.972350999999996" lon="23.724101333333333"><time>2026-08-04T10:39:37.196Z</time></trkpt>
      <trkpt lat="37.972312" lon="23.724017666666665"><time>2026-08-04T10:39:38.413Z</time></trkpt>
      <trkpt lat="37.972273" lon="23.723934"><time>2026-08-04T10:39:39.630Z</time></trkpt>
      <trkpt lat="37.972210000000004" lon="23.7238245"><time>2026-08-04T10:39:41.328Z</time></trkpt>
      <trkpt lat="37.972147" lon="23.723715"><time>2026-08-04T10:39:43.025Z</time></trkpt>
      <trkpt lat="37.972057" lon="23.723617"><time>2026-08-04T10:39:44.909Z</time></trkpt>
      <trkpt lat="37.971985" lon="23.723547"><time>2026-08-04T10:39:46.350Z</time></trkpt>
      <trkpt lat="37.971936" lon="23.723497"><time>2026-08-04T10:39:47.349Z</time></trkpt>
      <trkpt lat="37.971865" lon="23.723432"><time>2026-08-04T10:39:48.740Z</time></trkpt>
      <trkpt lat="37.971773" lon="23.723347"><time>2026-08-04T10:39:50.548Z</time></trkpt>
      <trkpt lat="37.971767" lon="23.723341"><time>2026-08-04T10:39:50.669Z</time></trkpt>
      <trkpt lat="37.971694" lon="23.72341"><time>2026-08-04T10:39:52.115Z</time></trkpt>
      <trkpt lat="37.971608" lon="23.723453"><time>2026-08-04T10:39:53.584Z</time></trkpt>
      <trkpt lat="37.971539" lon="23.723439"><time>2026-08-04T10:39:54.694Z</time></trkpt>
      <trkpt lat="37.97147" lon="23.723425"><time>2026-08-04T10:39:55.804Z</time></trkpt>
      <trkpt lat="37.971349" lon="23.723395"><time>2026-08-04T10:39:57.762Z</time></trkpt>
      <trkpt lat="37.971345" lon="23.723395"><time>2026-08-04T10:39:57.826Z</time></trkpt>
      <trkpt lat="37.971316" lon="23.723388"><time>2026-08-04T10:39:58.295Z</time></trkpt>
      <trkpt lat="37.971293" lon="23.723382"><time>2026-08-04T10:39:58.668Z</time></trkpt>
      <trkpt lat="37.9712845" lon="23.723516"><time>2026-08-04T10:40:00.351Z</time></trkpt>
      <trkpt lat="37.971276" lon="23.72365"><time>2026-08-04T10:40:02.035Z</time></trkpt>
      <trkpt lat="37.971231" lon="23.72373"><time>2026-08-04T10:40:03.265Z</time></trkpt>
      <trkpt lat="37.971219" lon="23.723751"><time>2026-08-04T10:40:03.590Z</time></trkpt>
      <trkpt lat="37.971171" lon="23.723746"><time>2026-08-04T10:40:04.355Z</time></trkpt>
      <trkpt lat="37.971134" lon="23.723748"><time>2026-08-04T10:40:04.943Z</time></trkpt>
      <trkpt lat="37.971091" lon="23.723748"><time>2026-08-04T10:40:05.627Z</time></trkpt>
      <trkpt lat="37.97103" lon="23.723749"><time>2026-08-04T10:40:06.596Z</time></trkpt>
      <trkpt lat="37.970953" lon="23.72373"><time>2026-08-04T10:40:07.842Z</time></trkpt>
      <trkpt lat="37.970918" lon="23.723791"><time>2026-08-04T10:40:08.786Z</time></trkpt>
      <trkpt lat="37.970881" lon="23.723837"><time>2026-08-04T10:40:09.609Z</time></trkpt>
      <trkpt lat="37.970855" lon="23.723852"><time>2026-08-04T10:40:10.063Z</time></trkpt>
      <trkpt lat="37.970816" lon="23.723857"><time>2026-08-04T10:40:10.686Z</time></trkpt>
      <trkpt lat="37.970769" lon="23.723847"><time>2026-08-04T10:40:11.443Z</time></trkpt>
      <trkpt lat="37.970738" lon="23.723857"><time>2026-08-04T10:40:11.951Z</time></trkpt>
      <trkpt lat="37.970722" lon="23.723875"><time>2026-08-04T10:40:12.291Z</time></trkpt>
      <trkpt lat="37.970693" lon="23.723894"><time>2026-08-04T10:40:12.809Z</time></trkpt>
      <trkpt lat="37.970662" lon="23.723899"><time>2026-08-04T10:40:13.305Z</time></trkpt>
      <trkpt lat="37.9705885" lon="23.7238995"><time>2026-08-04T10:40:14.473Z</time></trkpt>
      <trkpt lat="37.970515" lon="23.7239"><time>2026-08-04T10:40:15.641Z</time></trkpt>
      <trkpt lat="37.97046" lon="23.723875"><time>2026-08-04T10:40:16.569Z</time></trkpt>
      <trkpt lat="37.970396" lon="23.723818"><time>2026-08-04T10:40:17.811Z</time></trkpt>
      <trkpt lat="37.970318" lon="23.723718"><time>2026-08-04T10:40:19.573Z</time></trkpt>
      <trkpt lat="37.970244" lon="23.723703"><time>2026-08-04T10:40:20.763Z</time></trkpt>
      <trkpt lat="37.97017" lon="23.723688"><time>2026-08-04T10:40:21.953Z</time></trkpt>
      <trkpt lat="37.970079" lon="23.723664"><time>2026-08-04T10:40:23.430Z</time></trkpt>
      <trkpt lat="37.970099" lon="23.723523"><time>2026-08-04T10:40:25.224Z</time></trkpt>
      <trkpt lat="37.970099" lon="23.723523"><time>2026-08-04T10:40:31.224Z</time></trkpt>
    </trkseg>
  </trk>
</gpx>
