<?xml version="1.0" encoding="UTF-8"?>
<gpx version="1.1" creator="CityPaths" xmlns="http://www.topografix.com/GPX/1/1">
  <trk>
    <name>Historic Center Walk</name>
    <trkseg>
      <trkpt lat="37.975509" lon="23.734802"><time>2026-08-04T10:38:02.501Z</time></trkpt>
      <trkpt lat="37.975509" lon="23.734802"><time>2026-08-04T10:38:08.501Z</time></trkpt>
      <trkpt lat="37.975499" lon="23.734877"><time>2026-08-04T10:38:09.453Z</time></trkpt>
      <trkpt lat="37.97541725" lon="23.734862"><time>2026-08-04T10:38:10.765Z</time></trkpt>
      <trkpt lat="37.9753355" lon="23.734847000000002"><time>2026-08-04T10:38:12.077Z</time></trkpt>
      <trkpt lat="37.97525375" lon="23.734832"><time>2026-08-04T10:38:13.389Z</time></trkpt>
      <trkpt lat="37.975172" lon="23.734817"><time>2026-08-04T10:38:14.701Z</time></trkpt>
      <trkpt lat="37.975187500000004" lon="23.734704999999998"><time>2026-08-04T10:38:16.125Z</time></trkpt>
      <trkpt lat="37.975203" lon="23.734593"><time>2026-08-04T10:38:17.549Z</time></trkpt>
      <trkpt lat="37.9752185" lon="23.734481000000002"><time>2026-08-04T10:38:18.973Z</time></trkpt>
      <trkpt lat="37.975234" lon="23.734369"><time>2026-08-04T10:38:20.397Z</time></trkpt>
      <trkpt lat="37.975128" lon="23.734344"><time>2026-08-04T10:38:22.110Z</time></trkpt>
      <trkpt lat="37.975138" lon="23.734265"><time>2026-08-04T10:38:23.112Z</time></trkpt>
      <trkpt lat="37.975072" lon="23.734251"><time>2026-08-04T10:38:24.174Z</time></trkpt>
      <trkpt lat="37.97503" lon="23.734245"><time>2026-08-04T10:38:24.846Z</time></trkpt>
      <trkpt lat="37.97498" lon="23.734232"><time>2026-08-04T10:38:25.657Z</time></trkpt>
      <trkpt lat="37.974997" lon="23.734104"><time>2026-08-04T10:38:27.282Z</time></trkpt>
      <trkpt lat="37.97501" lon="23.734011"><time>2026-08-04T10:38:28.465Z</time></trkpt>
      <trkpt lat="37.974921875" lon="23.733994875"><time>2026-08-04T10:38:29.879Z</time></trkpt>
      <trkpt lat="37.97483375" lon="23.73397875"><time>2026-08-04T10:38:31.293Z</time></trkpt>
      <trkpt lat="37.974745625" lon="23.733962625"><time>2026-08-04T10:38:32.708Z</time></trkpt>
      <trkpt lat="37.9746575" lon="23.733946500000002"><time>2026-08-04T10:38:34.122Z</time></trkpt>
      <trkpt lat="37.974569375" lon="23.733930375"><time>2026-08-04T10:38:35.536Z</time></trkpt>
      <trkpt lat="37.97448125" lon="23.73391425"><time>2026-08-04T10:38:36.951Z</time></trkpt>
      <trkpt lat="37.974393125" lon="23.733898125"><time>2026-08-04T10:38:38.365Z</time></trkpt>
      <trkpt lat="37.974305" lon="23.733882"><time>2026-08-04T10:38:39.780Z</time></trkpt>
      <trkpt lat="37.974289" lon="23.733853"><time>2026-08-04T10:38:40.223Z</time></trkpt>
      <trkpt lat="37.974218" lon="23.733838"><time>2026-08-04T10:38:41.366Z</time></trkpt>
      <trkpt lat="37.974213" lon="23.733839"><time>2026-08-04T10:38:41.447Z</time></trkpt>
      <trkpt lat="37.974203" lon="23.733844"><time>2026-08-04T10:38:41.617Z</time></trkpt>
      <trkpt lat="37.9741155" lon="23.733825500000002"><time>2026-08-04T10:38:43.026Z</time></trkpt>
      <trkpt lat="37.974028000000004" lon="23.733807"><time>2026-08-04T10:38:44.436Z</time></trkpt>
      <trkpt lat="37.973940500000005" lon="23.7337885"><time>2026-08-04T10:38:45.845Z</time></trkpt>
      <trkpt lat="37.973853000000005" lon="23.73377"><time>2026-08-04T10:38:47.254Z</time></trkpt>
      <trkpt lat="37.9737655" lon="23.7337515"><time>2026-08-04T10:38:48.663Z</time></trkpt>
      <trkpt lat="37.973678" lon="23.733733"><time>2026-08-04T10:38:50.072Z</time></trkpt>
      <trkpt lat="37.9735905" lon="23.733714499999998"><time>2026-08-04T10:38:51.481Z</time></trkpt>
      <trkpt lat="37.973503" lon="23.733696"><time>2026-08-04T10:38:52.890Z</time></trkpt>
      <trkpt lat="37.973492" lon="23.733694"><time>2026-08-04T10:38:53.067Z</time></trkpt>
      <trkpt lat="37.973473" lon="23.733691"><time>2026-08-04T10:38:53.371Z</time></trkpt>
      <trkpt lat="37.973477" lon="23.733657"><time>2026-08-04T10:38:53.801Z</time></trkpt>
      <trkpt lat="37.97349225" lon="23.73354975"><time>2026-08-04T10:38:55.166Z</time></trkpt>
      <trkpt lat="37.9735075" lon="23.733442500000002"><time>2026-08-04T10:38:56.531Z</time></trkpt>
      <trkpt lat="37.97352275" lon="23.73333525"><time>2026-08-04T10:38:57.895Z</time></trkpt>
      <trkpt lat="37.973538" lon="23.733228"><time>2026-08-04T10:38:59.260Z</time></trkpt>
      <trkpt lat="37.97355133333333" lon="23.733128666666666"><time>2026-08-04T10:39:00.522Z</time></trkpt>
      <trkpt lat="37.97356466666667" lon="23.733029333333334"><time>2026-08-04T10:39:01.783Z</time></trkpt>
      <trkpt lat="37.973578" lon="23.73293"><time>2026-08-04T10:39:03.045Z</time></trkpt>
      <trkpt lat="37.973584" lon="23.732891"><time>2026-08-04T10:39:03.543Z</time></trkpt>
      <trkpt lat="37.9735535" lon="23.732774"><time>2026-08-04T10:39:05.086Z</time></trkpt>
      <trkpt lat="37.973523" lon="23.732657"><time>2026-08-04T10:39:06.629Z</time></trkpt>
      <trkpt lat="37.973519" lon="23.732645"><time>2026-08-04T10:39:06.792Z</time></trkpt>
      <trkpt lat="37.973517" lon="23.732635"><time>2026-08-04T10:39:06.921Z</time></trkpt>
      <trkpt lat="37.973502" lon="23.7325324"><time>2026-08-04T10:39:08.228Z</time></trkpt>
      <trkpt lat="37.973487" lon="23.7324298"><time>2026-08-04T10:39:09.535Z</time></trkpt>
      <trkpt lat="37.973472" lon="23.7323272"><time>2026-08-04T10:39:10.841Z</time></trkpt>
      <trkpt lat="37.973456999999996" lon="23.7322246"><time>2026-08-04T10:39:12.148Z</time></trkpt>
      <trkpt lat="37.973442" lon="23.732122"><time>2026-08-04T10:39:13.455Z</time></trkpt>
      <trkpt lat="37.97341333333333" lon="23.732028333333332"><time>2026-08-04T10:39:14.713Z</time></trkpt>
      <trkpt lat="37.97338466666667" lon="23.731934666666668"><time>2026-08-04T10:39:15.971Z</time></trkpt>
      <trkpt lat="37.973356" lon="23.731841"><time>2026-08-04T10:39:17.229Z</time></trkpt>
      <trkpt lat="37.973332" lon="23.731786"><time>2026-08-04T10:39:18.017Z</time></trkpt>
      <trkpt lat="37.973279" lon="23.731701"><time>2026-08-04T10:39:19.374Z</time></trkpt>
      <trkpt lat="37.973226" lon="23.731616"><time>2026-08-04T10:39:20.731Z</time></trkpt>
      <trkpt lat="37.973212" lon="23.731608"><time>2026-08-04T10:39:20.975Z</time></trkpt>
      <trkpt lat="37.97316549999999" lon="23.731526000000002"><time>2026-08-04T10:39:22.239Z</time></trkpt>
      <trkpt lat="37.973119" lon="23.731444"><time>2026-08-04T10:39:23.504Z</time></trkpt>
      <trkpt lat="37.9730875" lon="23.7313135"><time>2026-08-04T10:39:25.213Z</time></trkpt>
      <trkpt lat="37.973056" lon="23.731183"><time>2026-08-04T10:39:26.922Z</time></trkpt>
      <trkpt lat="37.9730365" lon="23.731097"><time>2026-08-04T10:39:28.043Z</time></trkpt>
      <trkpt lat="37.973017" lon="23.731011"><time>2026-08-04T10:39:29.164Z</time></trkpt>
      <trkpt lat="37.973004" lon="23.73097"><time>2026-08-04T10:39:29.717Z</time></trkpt>
      <trkpt lat="37.972995" lon="23.730945"><time>2026-08-04T10:39:30.061Z</time></trkpt>
      <trkpt lat="37.972977" lon="23.730896"><time>2026-08-04T10:39:30.738Z</time></trkpt>
      <trkpt lat="37.972916" lon="23.730796"><time>2026-08-04T10:39:32.321Z</time></trkpt>
      <trkpt lat="37.97291" lon="23.730795"><time>2026-08-04T10:39:32.418Z</time></trkpt>
      <trkpt lat="37.972857" lon="23.730726"><time>2026-08-04T10:39:33.624Z</time></trkpt>
      <trkpt lat="37.972802" lon="23.7306655"><time>2026-08-04T10:39:34.780Z</time></trkpt>
      <trkpt lat="37.972747" lon="23.730605"><time>2026-08-04T10:39:35.937Z</time></trkpt>
      <trkpt lat="37.972709" lon="23.730556"><time>2026-08-04T10:39:36.797Z</time></trkpt>
      <trkpt lat="37.972646" lon="23.730456"><time>2026-08-04T10:39:38.400Z</time></trkpt>
      <trkpt lat="37.972619" lon="23.73039"><time>2026-08-04T10:39:39.332Z</time></trkpt>
      <trkpt lat="37.972602" lon="23.730362"><time>2026-08-04T10:39:39.774Z</time></trkpt>
      <trkpt lat="37.97258" lon="23.730366"><time>2026-08-04T10:39:40.127Z</time></trkpt>
      <trkpt lat="37.97256975" lon="23.730245"><time>2026-08-04T10:39:41.651Z</time></trkpt>
      <trkpt lat="37.9725595" lon="23.730124"><time>2026-08-04T10:39:43.175Z</time></trkpt>
      <trkpt lat="37.97254925" lon="23.730003"><time>2026-08-04T10:39:44.699Z</time></trkpt>
      <trkpt lat="37.972539" lon="23.729882"><time>2026-08-04T10:39:46.223Z</time></trkpt>
      <trkpt lat="37.97261" lon="23.729850499999998"><time>2026-08-04T10:39:47.418Z</time></trkpt>
      <trkpt lat="37.972681" lon="23.729819"><time>2026-08-04T10:39:48.612Z</time></trkpt>
      <trkpt lat="37.97271" lon="23.729797"><time>2026-08-04T10:39:49.149Z</time></trkpt>
      <trkpt lat="37.972729" lon="23.729757"><time>2026-08-04T10:39:49.734Z</time></trkpt>
      <trkpt lat="37.97275" lon="23.729744"><time>2026-08-04T10:39:50.105Z</time></trkpt>
      <trkpt lat="37.97270625" lon="23.729661"><time>2026-08-04T10:39:51.355Z</time></trkpt>
      <trkpt lat="37.9726625" lon="23.729578"><time>2026-08-04T10:39:52.606Z</time></trkpt>
      <trkpt lat="37.972618749999995" lon="23.729495"><time>2026-08-04T10:39:53.856Z</time></trkpt>
      <trkpt lat="37.972575" lon="23.729412"><time>2026-08-04T10:39:55.106Z</time></trkpt>
      <trkpt lat="37.972547" lon="23.729436"><time>2026-08-04T10:39:55.643Z</time></trkpt>
      <trkpt lat="37.9725" lon="23.729487"><time>2026-08-04T10:39:56.626Z</time></trkpt>
      <trkpt lat="37.972496" lon="23.729483"><time>2026-08-04T10:39:56.707Z</time></trkpt>
      <trkpt lat="37.972417" lon="23.729406"><time>2026-08-04T10:39:58.289Z</time></trkpt>
      <trkpt lat="37.972397" lon="23.729388"><time>2026-08-04T10:39:58.679Z</time></trkpt>
      <trkpt lat="37.972337" lon="23.729328"><time>2026-08-04T10:39:59.892Z</time></trkpt>
      <trkpt lat="37.972316" lon="23.72931"><time>2026-08-04T10:40:00.295Z</time></trkpt>
      <trkpt lat="37.972261" lon="23.729198"><time>2026-08-04T10:40:01.947Z</time></trkpt>
      <trkpt lat="37.972193" lon="23.729056"><time>2026-08-04T10:40:04.028Z</time></trkpt>
      <trkpt lat="37.972141" lon="23.728941"><time>2026-08-04T10:40:05.688Z</time></trkpt>
      <trkpt lat="37.972055" lon="23.728921"><time>2026-08-04T10:40:07.077Z</time></trkpt>
      <trkpt lat="37.971951" lon="23.728965"><time>2026-08-04T10:40:08.818Z</time></trkpt>
      <trkpt lat="37.971902" lon="23.728847"><time>2026-08-04T10:40:10.488Z</time></trkpt>
      <trkpt lat="37.971965" lon="23.728804"><time>2026-08-04T10:40:11.625Z</time></trkpt>
      <trkpt lat="37.972027" lon="23.728757"><time>2026-08-04T10:40:12.772Z</time></trkpt>
      <trkpt lat="37.971988" lon="23.728695"><time>2026-08-04T10:40:13.765Z</time></trkpt>
      <trkpt lat="37.971961" lon="23.728654"><time>2026-08-04T10:40:14.434Z</time></trkpt>
      <trkpt lat="37.971954" lon="23.728609"><time>2026-08-04T10:40:15.009Z</time></trkpt>
      <trkpt lat="37.971952" lon="23.728606"><time>2026-08-04T10:40:15.058Z</time></trkpt>
      <trkpt lat="37.971962" lon="23.728555"><time>2026-08-04T10:40:15.716Z</time></trkpt>
      <trkpt lat="37.972005" lon="23.728523"><time>2026-08-04T10:40:16.508Z</time></trkpt>
      <trkpt lat="37.972007" lon="23.728522"><time>2026-08-04T10:40:16.542Z</time></trkpt>
      <trkpt lat="37.972007" lon="23.728522"><time>2026-08-04T10:40:22.542Z</time></trkpt>
      <trkpt lat="37.97203" lon="23.72851"><time>2026-08-04T10:40:22.937Z</time></trkpt>
      <trkpt lat="37.972038" lon="23.728504"><time>2026-08-04T10:40:23.085Z</time></trkpt>
      <trkpt lat="37.972017" lon="23.728455"><time>2026-08-04T10:40:23.783Z</time></trkpt>
      <trkpt lat="37.972014" lon="23.728448"><time>2026-08-04T10:40:23.883Z</time></trkpt>
      <trkpt lat="37.972023" lon="23.728441"><time>2026-08-04T10:40:24.051Z</time></trkpt>
      <trkpt lat="37.97201" lon="23.728413"><time>2026-08-04T10:40:24.458Z</time></trkpt>
      <trkpt lat="37.971997" lon="23.728383"><time>2026-08-04T10:40:24.886Z</time></trkpt>
      <trkpt lat="37.971992" lon="23.728375"><time>2026-08-04T10:40:25.014Z</time></trkpt>
      <trkpt lat="37.972016" lon="23.728342"><time>2026-08-04T10:40:25.576Z</time></trkpt>
      <trkpt lat="37.972005" lon="23.72833"><time>2026-08-04T10:40:25.807Z</time></trkpt>
      <trkpt lat="37.97205" lon="23.728259"><time>2026-08-04T10:40:26.948Z</time></trkpt>
      <trkpt lat="37.972096" lon="23.728198"><time>2026-08-04T10:40:28.005Z</time></trkpt>
      <trkpt lat="37.972117" lon="23.728183"><time>2026-08-04T10:40:28.388Z</time></trkpt>
      <trkpt lat="37.972129" lon="23.728174"><time>2026-08-04T10:40:28.609Z</time></trkpt>
      <trkpt lat="37.972164" lon="23.728115"><time>2026-08-04T10:40:29.534Z</time></trkpt>
      <trkpt lat="37.972166" lon="23.728099"><time>2026-08-04T10:40:29.736Z</time></trkpt>
      <trkpt lat="37.972169" lon="23.728092"><time>2026-08-04T10:40:29.836Z</time></trkpt>
      <trkpt lat="37.972141" lon="23.728066"><time>2026-08-04T10:40:30.387Z</time></trkpt>
      <trkpt lat="37.972174" lon="23.728013"><time>2026-08-04T10:40:31.233Z</time></trkpt>
      <trkpt lat="37.972192" lon="23.727993"><time>2026-08-04T10:40:31.613Z</time></trkpt>
      <trkpt lat="37.972215" lon="23.727949"><time>2026-08-04T10:40:32.274Z</time></trkpt>
      <trkpt lat="37.972231" lon="23.727931"><time>2026-08-04T10:40:32.614Z</time></trkpt>
      <trkpt lat="37.972239" lon="23.727928"><time>2026-08-04T10:40:32.747Z</time></trkpt>
      <trkpt lat="37.972273" lon="23.727888"><time>2026-08-04T10:40:33.483Z</time></trkpt>
      <trkpt lat="37.972282" lon="23.727884"><time>2026-08-04T10:40:33.635Z</time></trkpt>
      <trkpt lat="37.972311" lon="23.727853"><time>2026-08-04T10:40:34.237Z</time></trkpt>
      <trkpt lat="37.972365" lon="23.727801"><time>2026-08-04T10:40:35.314Z</time></trkpt>
      <trkpt lat="37.972368" lon="23.727799"><time>2026-08-04T10:40:35.368Z</time></trkpt>
      <trkpt lat="37.972417" lon="23.727764"><time>2026-08-04T10:40:36.261Z</time></trkpt>
      <trkpt lat="37.972421" lon="23.727759"><time>2026-08-04T10:40:36.350Z</time></trkpt>
      <trkpt lat="37.972446500000004" lon="23.7276755"><time>2026-08-04T10:40:37.472Z</time></trkpt>
      <trkpt lat="37.972472" lon="23.727592"><time>2026-08-04T10:40:38.593Z</time></trkpt>
      <trkpt lat="37.972474" lon="23.727589"><time>2026-08-04T10:40:38.642Z</time></trkpt>
      <trkpt lat="37.972512" lon="23.727532"><time>2026-08-04T10:40:39.577Z</time></trkpt>
      <trkpt lat="37.972513" lon="23.72753"><time>2026-08-04T10:40:39.607Z</time></trkpt>
      <trkpt lat="37.972517" lon="23.727523"><time>2026-08-04T10:40:39.715Z</time></trkpt>
      <trkpt lat="37.972555" lon="23.727463"><time>2026-08-04T10:40:40.679Z</time></trkpt>
      <trkpt lat="37.972565" lon="23.727446"><time>2026-08-04T10:40:40.944Z</time></trkpt>
      <trkpt lat="37.972572" lon="23.727434"><time>2026-08-04T10:40:41.131Z</time></trkpt>
      <trkpt lat="37.972623" lon="23.727395"><time>2026-08-04T10:40:42.077Z</time></trkpt>
      <trkpt lat="37.972639" lon="23.727383"><time>2026-08-04T10:40:42.372Z</time></trkpt>
      <trkpt lat="37.972663" lon="23.727364"><time>2026-08-04T10:40:42.822Z</time></trkpt>
      <trkpt lat="37.972707" lon="23.727309"><time>2026-08-04T10:40:43.803Z</time></trkpt>
      <trkpt lat="37.972763666666665" lon="23.727225"><time>2026-08-04T10:40:45.188Z</time></trkpt>
      <trkpt lat="37.97282033333333" lon="23.727141"><time>2026-08-04T10:40:46.572Z</time></trkpt>
      <trkpt lat="37.972877" lon="23.727057"><time>2026-08-04T10:40:47.956Z</time></trkpt>
      <trkpt lat="37.972933" lon="23.727046"><time>2026-08-04T10:40:48.857Z</time></trkpt>
      <trkpt lat="37.972954" lon="23.726920333333336"><time>2026-08-04T10:40:50.465Z</time></trkpt>
      <trkpt lat="37.972975" lon="23.726794666666667"><time>2026-08-04T10:40:52.074Z</time></trkpt>
      <trkpt lat="37.972996" lon="23.726669"><time>2026-08-04T10:40:53.682Z</time></trkpt>
      <trkpt lat="37.9729835" lon="23.7265665"><time>2026-08-04T10:40:54.981Z</time></trkpt>
      <trkpt lat="37.972971" lon="23.726464"><time>2026-08-04T10:40:56.280Z</time></trkpt>
      <trkpt lat="37.97296" lon="23.726441"><time>2026-08-04T10:40:56.617Z</time></trkpt>
      <trkpt lat="37.972918" lon="23.726405"><time>2026-08-04T10:40:57.422Z</time></trkpt>
      <trkpt lat="37.972901" lon="23.72637"><time>2026-08-04T10:40:57.937Z</time></trkpt>
      <trkpt lat="37.972875" lon="23.726289"><time>2026-08-04T10:40:59.032Z</time></trkpt>
      <trkpt lat="37.972849" lon="23.726208"><time>2026-08-04T10:41:00.127Z</time></trkpt>
      <trkpt lat="37.972828" lon="23.726061"><time>2026-08-04T10:41:01.998Z</time></trkpt>
      <trkpt lat="37.972819" lon="23.7259495"><time>2026-08-04T10:41:03.401Z</time></trkpt>
      <trkpt lat="37.97281" lon="23.725838"><time>2026-08-04T10:41:04.805Z</time></trkpt>
      <trkpt lat="37.97282233333333" lon="23.725741666666668"><time>2026-08-04T10:41:06.027Z</time></trkpt>
      <trkpt lat="37.97283466666667" lon="23.725645333333333"><time>2026-08-04T10:41:07.249Z</time></trkpt>
      <trkpt lat="37.972847" lon="23.725549"><time>2026-08-04T10:41:08.471Z</time></trkpt>
      <trkpt lat="37.972823500000004" lon="23.7254495"><time>2026-08-04T10:41:09.772Z</time></trkpt>
      <trkpt lat="37.9728" lon="23.72535"><time>2026-08-04T10:41:11.073Z</time></trkpt>
      <trkpt lat="37.972783" lon="23.725264"><time>2026-08-04T10:41:12.183Z</time></trkpt>
      <trkpt lat="37.972746666666666" lon="23.725143666666668"><time>2026-08-04T10:41:13.796Z</time></trkpt>
      <trkpt lat="37.97271033333333" lon="23.725023333333333"><time>2026-08-04T10:41:15.410Z</time></trkpt>
      <trkpt lat="37.972674" lon="23.724903"><time>2026-08-04T10:41:17.024Z</time></trkpt>
      <trkpt lat="37.97264" lon="23.724811333333335"><time>2026-08-04T10:41:18.292Z</time></trkpt>
      <trkpt lat="37.972606" lon="23.724719666666665"><time>2026-08-04T10:41:19.561Z</time></trkpt>
      <trkpt lat="37.972572" lon="23.724628"><time>2026-08-04T10:41:20.829Z</time></trkpt>
      <trkpt lat="37.972534" lon="23.724525"><time>2026-08-04T10:41:22.253Z</time></trkpt>
      <trkpt lat="37.972486" lon="23.724411666666665"><time>2026-08-04T10:41:23.864Z</time></trkpt>
      <trkpt lat="37.972438" lon="23.724298333333333"><time>2026-08-04T10:41:25.475Z</time></trkpt>
      <trkpt lat="37.97239" lon="23.724185"><time>2026-08-04T10:41:27.087Z</time></trkpt>
      <trkpt lat="37.972350999999996" lon="23.724101333333333"><time>2026-08-04T10:41:28.304Z</time></trkpt>
      <trkpt lat="37.972312" lon="23.724017666666665"><time>2026-08-04T10:41:29.521Z</time></trkpt>
      <trkpt lat="37.972273" lon="23.723934"><time>2026-08-04T10:41:30.738Z</time></trkpt>
      <trkpt lat="37.972210000000004" lon="23.7238245"><time>2026-08-04T10:41:32.436Z</time></trkpt>
      <trkpt lat="37.972147" lon="23.723715"><time>2026-08-04T10:41:34.133Z</time></trkpt>
      <trkpt lat="37.972057" lon="23.723617"><time>2026-08-04T10:41:36.017Z</time></trkpt>
      <trkpt lat="37.971985" lon="23.723547"><time>2026-08-04T10:41:37.458Z</time></trkpt>
      <trkpt lat="37.971936" lon="23.723497"><time>2026-08-04T10:41:38.457Z</time></trkpt>
      <trkpt lat="37.971865" lon="23.723432"><time>2026-08-04T10:41:39.848Z</time></trkpt>
      <trkpt lat="37.971773" lon="23.723347"><time>2026-08-04T10:41:41.656Z</time></trkpt>
      <trkpt lat="37.971767" lon="23.723341"><time>2026-08-04T10:41:41.777Z</time></trkpt>
      <trkpt lat="37.971694" lon="23.72341"><time>2026-08-04T10:41:43.223Z</time></trkpt>
      <trkpt lat="37.971608" lon="23.723453"><time>2026-08-04T10:41:44.692Z</time></trkpt>
      <trkpt lat="37.971539" lon="23.723439"><time>2026-08-04T10:41:45.802Z</time></trkpt>
      <trkpt lat="37.97147" lon="23.723425"><time>2026-08-04T10:41:46.912Z</time></trkpt>
      <trkpt lat="37.971465" lon="23.723509"><time>2026-08-04T10:41:47.967Z</time></trkpt>
      <trkpt lat="37.9714515" lon="23.7236015"><time>2026-08-04T10:41:49.145Z</time></trkpt>
      <trkpt lat="37.971438" lon="23.723694"><time>2026-08-04T10:41:50.323Z</time></trkpt>
      <trkpt lat="37.971414" lon="23.723774"><time>2026-08-04T10:41:51.395Z</time></trkpt>
      <trkpt lat="37.971414" lon="23.723794"><time>2026-08-04T10:41:51.645Z</time></trkpt>
      <trkpt lat="37.971416" lon="23.723841"><time>2026-08-04T10:41:52.234Z</time></trkpt>
      <trkpt lat="37.971416" lon="23.723854"><time>2026-08-04T10:41:52.397Z</time></trkpt>
      <trkpt lat="37.971429" lon="23.723879"><time>2026-08-04T10:41:52.772Z</time></trkpt>
      <trkpt lat="37.971449" lon="23.723878"><time>2026-08-04T10:41:53.090Z</time></trkpt>
      <trkpt lat="37.97147" lon="23.7239745"><time>2026-08-04T10:41:54.344Z</time></trkpt>
      <trkpt lat="37.971491" lon="23.724071000000002"><time>2026-08-04T10:41:55.597Z</time></trkpt>
      <trkpt lat="37.971512000000004" lon="23.7241675"><time>2026-08-04T10:41:56.851Z</time></trkpt>
      <trkpt lat="37.971533" lon="23.724264"><time>2026-08-04T10:41:58.105Z</time></trkpt>
      <trkpt lat="37.97153" lon="23.724284"><time>2026-08-04T10:41:58.360Z</time></trkpt>
      <trkpt lat="37.971515" lon="23.724301"><time>2026-08-04T10:41:58.679Z</time></trkpt>
      <trkpt lat="37.971467" lon="23.724323"><time>2026-08-04T10:41:59.490Z</time></trkpt>
      <trkpt lat="37.971425" lon="23.724352"><time>2026-08-04T10:42:00.249Z</time></trkpt>
      <trkpt lat="37.971379" lon="23.724399"><time>2026-08-04T10:42:01.188Z</time></trkpt>
      <trkpt lat="37.971343" lon="23.724407"><time>2026-08-04T10:42:01.768Z</time></trkpt>
      <trkpt lat="37.971432" lon="23.72447"><time>2026-08-04T10:42:03.387Z</time></trkpt>
      <trkpt lat="37.971481" lon="23.724488"><time>2026-08-04T10:42:04.198Z</time></trkpt>
      <trkpt lat="37.971565" lon="23.724517"><time>2026-08-04T10:42:05.581Z</time></trkpt>
      <trkpt lat="37.97161" lon="23.724523"><time>2026-08-04T10:42:06.299Z</time></trkpt>
      <trkpt lat="37.971619" lon="23.72458"><time>2026-08-04T10:42:07.027Z</time></trkpt>
      <trkpt lat="37.971623" lon="23.724609"><time>2026-08-04T10:42:07.396Z</time></trkpt>
      <trkpt lat="37.971625" lon="23.724617"><time>2026-08-04T10:42:07.501Z</time></trkpt>
      <trkpt lat="37.971628" lon="23.724634"><time>2026-08-04T10:42:07.719Z</time></trkpt>
      <trkpt lat="37.971613" lon="23.724638"><time>2026-08-04T10:42:07.963Z</time></trkpt>
      <trkpt lat="37.971586" lon="23.724644"><time>2026-08-04T10:42:08.398Z</time></trkpt>
      <trkpt lat="37.97156" lon="23.724652"><time>2026-08-04T10:42:08.823Z</time></trkpt>
      <trkpt lat="37.971555" lon="23.72467"><time>2026-08-04T10:42:09.062Z</time></trkpt>
      <trkpt lat="37.971559" lon="23.724691"><time>2026-08-04T10:42:09.333Z</time></trkpt>
      <trkpt lat="37.971568" lon="23.724752"><time>2026-08-04T10:42:10.110Z</time></trkpt>
      <trkpt lat="37.9716" lon="23.724769"><time>2026-08-04T10:42:10.661Z</time></trkpt>
      <trkpt lat="37.971602" lon="23.724785"><time>2026-08-04T10:42:10.864Z</time></trkpt>
      <trkpt lat="37.971611" lon="23.72487"><time>2026-08-04T10:42:11.938Z</time></trkpt>
      <trkpt lat="37.971613" lon="23.724883"><time>2026-08-04T10:42:12.103Z</time></trkpt>
      <trkpt lat="37.971737" lon="23.724849"><time>2026-08-04T10:42:14.119Z</time></trkpt>
      <trkpt lat="37.971739" lon="23.724865"><time>2026-08-04T10:42:14.322Z</time></trkpt>
      <trkpt lat="37.971672999999996" lon="23.724912500000002"><time>2026-08-04T10:42:15.527Z</time></trkpt>
      <trkpt lat="37.971607" lon="23.72496"><time>2026-08-04T10:42:16.732Z</time></trkpt>
      <trkpt lat="37.971613" lon="23.724982"><time>2026-08-04T10:42:17.024Z</time></trkpt>
      <trkpt lat="37.971688" lon="23.724982"><time>2026-08-04T10:42:18.215Z</time></trkpt>
      <trkpt lat="37.971682" lon="23.724993"><time>2026-08-04T10:42:18.383Z</time></trkpt>
      <trkpt lat="37.971687" lon="23.725026"><time>2026-08-04T10:42:18.804Z</time></trkpt>
      <trkpt lat="37.971689" lon="23.725042"><time>2026-08-04T10:42:19.006Z</time></trkpt>
      <trkpt lat="37.971691" lon="23.725052"><time>2026-08-04T10:42:19.136Z</time></trkpt>
      <trkpt lat="37.971696" lon="23.725077"><time>2026-08-04T10:42:19.459Z</time></trkpt>
      <trkpt lat="37.971697" lon="23.725081"><time>2026-08-04T10:42:19.511Z</time></trkpt>
      <trkpt lat="37.971702" lon="23.725111"><time>2026-08-04T10:42:19.895Z</time></trkpt>
      <trkpt lat="37.971704" lon="23.725122"><time>2026-08-04T10:42:20.036Z</time></trkpt>
      <trkpt lat="37.971711" lon="23.725164"><time>2026-08-04T10:42:20.574Z</time></trkpt>
      <trkpt lat="37.971735" lon="23.725299"><time>2026-08-04T10:42:22.307Z</time></trkpt>
      <trkpt lat="37.97174" lon="23.725325"><time>2026-08-04T10:42:22.642Z</time></trkpt>
      <trkpt lat="37.971716" lon="23.725444"><time>2026-08-04T10:42:24.180Z</time></trkpt>
      <trkpt lat="37.971725" lon="23.725446"><time>2026-08-04T10:42:24.325Z</time></trkpt>
      <trkpt lat="37.971705" lon="23.725545"><time>2026-08-04T10:42:25.605Z</time></trkpt>
      <trkpt lat="37.971695" lon="23.725599"><time>2026-08-04T10:42:26.300Z</time></trkpt>
      <trkpt lat="37.971655" lon="23.725577"><time>2026-08-04T10:42:26.992Z</time></trkpt>
      <trkpt lat="37.971619" lon="23.725538"><time>2026-08-04T10:42:27.744Z</time></trkpt>
      <trkpt lat="37.971571" lon="23.7254745"><time>2026-08-04T10:42:28.846Z</time></trkpt>
      <trkpt lat="37.971523" lon="23.725411"><time>2026-08-04T10:42:29.948Z</time></trkpt>
      <trkpt lat="37.971466" lon="23.725375"><time>2026-08-04T10:42:30.959Z</time></trkpt>
      <trkpt lat="37.971441" lon="23.725378"><time>2026-08-04T10:42:31.358Z</time></trkpt>
      <trkpt lat="37.971426" lon="23.725404"><time>2026-08-04T10:42:31.762Z</time></trkpt>
      <trkpt lat="37.971391" lon="23.7255155"><time>2026-08-04T10:42:33.264Z</time></trkpt>
      <trkpt lat="37.971356" lon="23.725627"><time>2026-08-04T10:42:34.767Z</time></trkpt>
      <trkpt lat="37.971356" lon="23.725627"><time>2026-08-04T10:42:40.767Z</time></trkpt>
    </trkseg>
  </trk>
</gpx>
