<?xml version="1.0" encoding="UTF-8"?>
<gpx version="1.1" creator="CityPaths" xmlns="http://www.topografix.com/GPX/1/1">
  <trk>
    <name>Historic Center Walk - checkpoint suggestion demo (play at 1x)</name>
    <trkseg>
      <trkpt lat="37.975509" lon="23.734802"><time>2026-08-14T21:15:48.000Z</time></trkpt>
      <trkpt lat="37.975499" lon="23.734877"><time>2026-08-14T21:15:52.762Z</time></trkpt>
      <trkpt lat="37.975499" lon="23.734877"><time>2026-08-14T21:16:22.762Z</time></trkpt>
      <trkpt lat="37.97541725" lon="23.734862"><time>2026-08-14T21:16:29.322Z</time></trkpt>
      <trkpt lat="37.9753355" lon="23.734847000000002"><time>2026-08-14T21:16:35.883Z</time></trkpt>
      <trkpt lat="37.97525375" lon="23.734832"><time>2026-08-14T21:16:42.444Z</time></trkpt>
      <trkpt lat="37.975172" lon="23.734817"><time>2026-08-14T21:16:49.004Z</time></trkpt>
      <trkpt lat="37.975187500000004" lon="23.734704999999998"><time>2026-08-14T21:16:56.124Z</time></trkpt>
      <trkpt lat="37.975203" lon="23.734593"><time>2026-08-14T21:17:03.243Z</time></trkpt>
      <trkpt lat="37.9752185" lon="23.734481000000002"><time>2026-08-14T21:17:10.362Z</time></trkpt>
      <trkpt lat="37.975234" lon="23.734369"><time>2026-08-14T21:17:17.482Z</time></trkpt>
      <trkpt lat="37.975128" lon="23.734344"><time>2026-08-14T21:17:26.045Z</time></trkpt>
      <trkpt lat="37.975138" lon="23.734265"><time>2026-08-14T21:17:31.055Z</time></trkpt>
      <trkpt lat="37.975072" lon="23.734251"><time>2026-08-14T21:17:36.369Z</time></trkpt>
      <trkpt lat="37.97503" lon="23.734245"><time>2026-08-14T21:17:39.726Z</time></trkpt>
      <trkpt lat="37.97498" lon="23.734232"><time>2026-08-14T21:17:43.780Z</time></trkpt>
      <trkpt lat="37.974997" lon="23.734104"><time>2026-08-14T21:17:51.907Z</time></trkpt>
      <trkpt lat="37.97501" lon="23.734011"><time>2026-08-14T21:17:57.821Z</time></trkpt>
      <trkpt lat="37.974921875" lon="23.733994875"><time>2026-08-14T21:18:04.892Z</time></trkpt>
      <trkpt lat="37.97483375" lon="23.73397875"><time>2026-08-14T21:18:11.964Z</time></trkpt>
      <trkpt lat="37.974745625" lon="23.733962625"><time>2026-08-14T21:18:19.036Z</time></trkpt>
      <trkpt lat="37.9746575" lon="23.733946500000002"><time>2026-08-14T21:18:26.108Z</time></trkpt>
      <trkpt lat="37.974569375" lon="23.733930375"><time>2026-08-14T21:18:33.179Z</time></trkpt>
      <trkpt lat="37.97448125" lon="23.73391425"><time>2026-08-14T21:18:40.251Z</time></trkpt>
      <trkpt lat="37.974393125" lon="23.733898125"><time>2026-08-14T21:18:47.323Z</time></trkpt>
      <trkpt lat="37.974305" lon="23.733882"><time>2026-08-14T21:18:54.395Z</time></trkpt>
      <trkpt lat="37.974289" lon="23.733853"><time>2026-08-14T21:18:56.611Z</time></trkpt>
      <trkpt lat="37.974218" lon="23.733838"><time>2026-08-14T21:19:02.328Z</time></trkpt>
      <trkpt lat="37.974213" lon="23.733839"><time>2026-08-14T21:19:02.730Z</time></trkpt>
      <trkpt lat="37.974203" lon="23.733844"><time>2026-08-14T21:19:03.583Z</time></trkpt>
      <trkpt lat="37.9741155" lon="23.733825500000002"><time>2026-08-14T21:19:10.629Z</time></trkpt>
      <trkpt lat="37.974028000000004" lon="23.733807"><time>2026-08-14T21:19:17.675Z</time></trkpt>
      <trkpt lat="37.973940500000005" lon="23.7337885"><time>2026-08-14T21:19:24.720Z</time></trkpt>
      <trkpt lat="37.973853000000005" lon="23.73377"><time>2026-08-14T21:19:31.766Z</time></trkpt>
      <trkpt lat="37.9737655" lon="23.7337515"><time>2026-08-14T21:19:38.811Z</time></trkpt>
      <trkpt lat="37.973678" lon="23.733733"><time>2026-08-14T21:19:45.857Z</time></trkpt>
      <trkpt lat="37.9735905" lon="23.733714499999998"><time>2026-08-14T21:19:52.902Z</time></trkpt>
      <trkpt lat="37.973503" lon="23.733696"><time>2026-08-14T21:19:59.948Z</time></trkpt>
      <trkpt lat="37.973492" lon="23.733694"><time>2026-08-14T21:20:00.830Z</time></trkpt>
      <trkpt lat="37.973473" lon="23.733691"><time>2026-08-14T21:20:02.351Z</time></trkpt>
      <trkpt lat="37.973477" lon="23.733657"><time>2026-08-14T21:20:04.503Z</time></trkpt>
      <trkpt lat="37.97349225" lon="23.73354975"><time>2026-08-14T21:20:11.327Z</time></trkpt>
      <trkpt lat="37.9735075" lon="23.733442500000002"><time>2026-08-14T21:20:18.150Z</time></trkpt>
      <trkpt lat="37.97352275" lon="23.73333525"><time>2026-08-14T21:20:24.973Z</time></trkpt>
      <trkpt lat="37.973538" lon="23.733228"><time>2026-08-14T21:20:31.797Z</time></trkpt>
      <trkpt lat="37.97355133333333" lon="23.733128666666666"><time>2026-08-14T21:20:38.106Z</time></trkpt>
      <trkpt lat="37.97356466666667" lon="23.733029333333334"><time>2026-08-14T21:20:44.414Z</time></trkpt>
      <trkpt lat="37.973578" lon="23.73293"><time>2026-08-14T21:20:50.723Z</time></trkpt>
      <trkpt lat="37.973584" lon="23.732891"><time>2026-08-14T21:20:53.211Z</time></trkpt>
      <trkpt lat="37.9735535" lon="23.732774"><time>2026-08-14T21:21:00.927Z</time></trkpt>
      <trkpt lat="37.973523" lon="23.732657"><time>2026-08-14T21:21:08.642Z</time></trkpt>
      <trkpt lat="37.973519" lon="23.732645"><time>2026-08-14T21:21:09.458Z</time></trkpt>
      <trkpt lat="37.973517" lon="23.732635"><time>2026-08-14T21:21:10.104Z</time></trkpt>
      <trkpt lat="37.973502" lon="23.7325324"><time>2026-08-14T21:21:16.637Z</time></trkpt>
      <trkpt lat="37.973487" lon="23.7324298"><time>2026-08-14T21:21:23.171Z</time></trkpt>
      <trkpt lat="37.973472" lon="23.7323272"><time>2026-08-14T21:21:29.704Z</time></trkpt>
      <trkpt lat="37.973456999999996" lon="23.7322246"><time>2026-08-14T21:21:36.237Z</time></trkpt>
      <trkpt lat="37.973442" lon="23.732122"><time>2026-08-14T21:21:42.771Z</time></trkpt>
      <trkpt lat="37.97341333333333" lon="23.732028333333332"><time>2026-08-14T21:21:49.062Z</time></trkpt>
      <trkpt lat="37.97341333333333" lon="23.732028333333332"><time>2026-08-14T21:23:04.062Z</time></trkpt>
      <trkpt lat="37.973442" lon="23.732122"><time>2026-08-14T21:23:10.382Z</time></trkpt>
      <trkpt lat="37.9735235" lon="23.7320865"><time>2026-08-14T21:23:17.226Z</time></trkpt>
      <trkpt lat="37.973605" lon="23.732051"><time>2026-08-14T21:23:24.070Z</time></trkpt>
      <trkpt lat="37.973629" lon="23.732047"><time>2026-08-14T21:23:25.992Z</time></trkpt>
      <trkpt lat="37.973649" lon="23.732049"><time>2026-08-14T21:23:27.586Z</time></trkpt>
      <trkpt lat="37.973685" lon="23.732056"><time>2026-08-14T21:23:30.479Z</time></trkpt>
      <trkpt lat="37.973689" lon="23.732027"><time>2026-08-14T21:23:32.322Z</time></trkpt>
      <trkpt lat="37.97370075" lon="23.73191025"><time>2026-08-14T21:23:39.691Z</time></trkpt>
      <trkpt lat="37.973712500000005" lon="23.731793500000002"><time>2026-08-14T21:23:47.060Z</time></trkpt>
      <trkpt lat="37.973724250000004" lon="23.731676750000002"><time>2026-08-14T21:23:54.429Z</time></trkpt>
      <trkpt lat="37.973736" lon="23.73156"><time>2026-08-14T21:24:01.798Z</time></trkpt>
      <trkpt lat="37.9737415" lon="23.731453000000002"><time>2026-08-14T21:24:08.512Z</time></trkpt>
      <trkpt lat="37.973747" lon="23.731346"><time>2026-08-14T21:24:15.225Z</time></trkpt>
      <trkpt lat="37.973744" lon="23.731255"><time>2026-08-14T21:24:20.928Z</time></trkpt>
      <trkpt lat="37.973741" lon="23.73118"><time>2026-08-14T21:24:25.629Z</time></trkpt>
      <trkpt lat="37.9737205" lon="23.731053"><time>2026-08-14T21:24:33.746Z</time></trkpt>
      <trkpt lat="37.9737" lon="23.730926"><time>2026-08-14T21:24:41.862Z</time></trkpt>
      <trkpt lat="37.97368385714286" lon="23.73081414285714"><time>2026-08-14T21:24:48.982Z</time></trkpt>
      <trkpt lat="37.97366771428572" lon="23.730702285714287"><time>2026-08-14T21:24:56.102Z</time></trkpt>
      <trkpt lat="37.973651571428576" lon="23.73059042857143"><time>2026-08-14T21:25:03.222Z</time></trkpt>
      <trkpt lat="37.97363542857143" lon="23.730478571428574"><time>2026-08-14T21:25:10.342Z</time></trkpt>
      <trkpt lat="37.973619285714285" lon="23.730366714285715"><time>2026-08-14T21:25:17.461Z</time></trkpt>
      <trkpt lat="37.973603142857144" lon="23.73025485714286"><time>2026-08-14T21:25:24.581Z</time></trkpt>
      <trkpt lat="37.973587" lon="23.730143"><time>2026-08-14T21:25:31.701Z</time></trkpt>
      <trkpt lat="37.973571" lon="23.730031"><time>2026-08-14T21:25:38.827Z</time></trkpt>
      <trkpt lat="37.973564" lon="23.729978"><time>2026-08-14T21:25:42.192Z</time></trkpt>
      <trkpt lat="37.973556" lon="23.729944"><time>2026-08-14T21:25:44.414Z</time></trkpt>
      <trkpt lat="37.973545" lon="23.729903"><time>2026-08-14T21:25:47.125Z</time></trkpt>
      <trkpt lat="37.973535" lon="23.729872"><time>2026-08-14T21:25:49.222Z</time></trkpt>
      <trkpt lat="37.973518" lon="23.729825"><time>2026-08-14T21:25:52.460Z</time></trkpt>
      <trkpt lat="37.97347466666667" lon="23.729712333333335"><time>2026-08-14T21:26:00.309Z</time></trkpt>
      <trkpt lat="37.97343133333333" lon="23.729599666666665"><time>2026-08-14T21:26:08.158Z</time></trkpt>
      <trkpt lat="37.973388" lon="23.729487"><time>2026-08-14T21:26:16.007Z</time></trkpt>
      <trkpt lat="37.973371" lon="23.729442"><time>2026-08-14T21:26:19.131Z</time></trkpt>
      <trkpt lat="37.97333" lon="23.729343"><time>2026-08-14T21:26:26.133Z</time></trkpt>
      <trkpt lat="37.973289" lon="23.729243999999998"><time>2026-08-14T21:26:33.135Z</time></trkpt>
      <trkpt lat="37.973248" lon="23.729145"><time>2026-08-14T21:26:40.137Z</time></trkpt>
      <trkpt lat="37.973235" lon="23.729119"><time>2026-08-14T21:26:42.064Z</time></trkpt>
      <trkpt lat="37.97322" lon="23.729093"><time>2026-08-14T21:26:44.082Z</time></trkpt>
      <trkpt lat="37.9732575" lon="23.7289995"><time>2026-08-14T21:26:50.650Z</time></trkpt>
      <trkpt lat="37.973295" lon="23.728906"><time>2026-08-14T21:26:57.218Z</time></trkpt>
      <trkpt lat="37.973318" lon="23.728851"><time>2026-08-14T21:27:01.116Z</time></trkpt>
      <trkpt lat="37.973331" lon="23.728819"><time>2026-08-14T21:27:03.370Z</time></trkpt>
      <trkpt lat="37.973347" lon="23.728764"><time>2026-08-14T21:27:07.041Z</time></trkpt>
      <trkpt lat="37.973395" lon="23.728607"><time>2026-08-14T21:27:17.584Z</time></trkpt>
      <trkpt lat="37.973431999999995" lon="23.72848966666667"><time>2026-08-14T21:27:25.496Z</time></trkpt>
      <trkpt lat="37.973469" lon="23.728372333333333"><time>2026-08-14T21:27:33.408Z</time></trkpt>
      <trkpt lat="37.973506" lon="23.728255"><time>2026-08-14T21:27:41.321Z</time></trkpt>
      <trkpt lat="37.973537" lon="23.728165"><time>2026-08-14T21:27:47.470Z</time></trkpt>
      <trkpt lat="37.973573" lon="23.728064500000002"><time>2026-08-14T21:27:54.382Z</time></trkpt>
      <trkpt lat="37.973609" lon="23.727964"><time>2026-08-14T21:28:01.293Z</time></trkpt>
      <trkpt lat="37.973648000000004" lon="23.727856666666668"><time>2026-08-14T21:28:08.693Z</time></trkpt>
      <trkpt lat="37.973687" lon="23.727749333333332"><time>2026-08-14T21:28:16.092Z</time></trkpt>
      <trkpt lat="37.973726" lon="23.727642"><time>2026-08-14T21:28:23.492Z</time></trkpt>
      <trkpt lat="37.9737505" lon="23.7275505"><time>2026-08-14T21:28:29.542Z</time></trkpt>
      <trkpt lat="37.973775" lon="23.727459"><time>2026-08-14T21:28:35.593Z</time></trkpt>
      <trkpt lat="37.9737995" lon="23.727335500000002"><time>2026-08-14T21:28:43.566Z</time></trkpt>
      <trkpt lat="37.973824" lon="23.727212"><time>2026-08-14T21:28:51.540Z</time></trkpt>
      <trkpt lat="37.973832" lon="23.727187"><time>2026-08-14T21:28:53.229Z</time></trkpt>
      <trkpt lat="37.973838" lon="23.727166"><time>2026-08-14T21:28:54.627Z</time></trkpt>
      <trkpt lat="37.973887" lon="23.727012"><time>2026-08-14T21:29:05.025Z</time></trkpt>
      <trkpt lat="37.973887" lon="23.727012"><time>2026-08-14T21:29:35.025Z</time></trkpt>
      <trkpt lat="37.973904" lon="23.726959"><time>2026-08-14T21:29:38.608Z</time></trkpt>
      <trkpt lat="37.973853" lon="23.726923"><time>2026-08-14T21:29:43.243Z</time></trkpt>
      <trkpt lat="37.97377" lon="23.726866666666666"><time>2026-08-14T21:29:50.720Z</time></trkpt>
      <trkpt lat="37.973687" lon="23.726810333333333"><time>2026-08-14T21:29:58.196Z</time></trkpt>
      <trkpt lat="37.973604" lon="23.726754"><time>2026-08-14T21:30:05.673Z</time></trkpt>
      <trkpt lat="37.973576" lon="23.726607"><time>2026-08-14T21:30:15.141Z</time></trkpt>
      <trkpt lat="37.97356666666667" lon="23.726508000000003"><time>2026-08-14T21:30:21.384Z</time></trkpt>
      <trkpt lat="37.97355733333333" lon="23.726409"><time>2026-08-14T21:30:27.626Z</time></trkpt>
      <trkpt lat="37.973548" lon="23.72631"><time>2026-08-14T21:30:33.869Z</time></trkpt>
      <trkpt lat="37.973536" lon="23.7262065"><time>2026-08-14T21:30:40.419Z</time></trkpt>
      <trkpt lat="37.973524" lon="23.726103000000002"><time>2026-08-14T21:30:46.969Z</time></trkpt>
      <trkpt lat="37.973512" lon="23.7259995"><time>2026-08-14T21:30:53.519Z</time></trkpt>
      <trkpt lat="37.9735" lon="23.725896"><time>2026-08-14T21:31:00.069Z</time></trkpt>
      <trkpt lat="37.973453" lon="23.72589"><time>2026-08-14T21:31:03.820Z</time></trkpt>
      <trkpt lat="37.9733555" lon="23.7258725"><time>2026-08-14T21:31:11.641Z</time></trkpt>
      <trkpt lat="37.973258" lon="23.725855"><time>2026-08-14T21:31:19.463Z</time></trkpt>
      <trkpt lat="37.973195" lon="23.725844"><time>2026-08-14T21:31:24.513Z</time></trkpt>
      <trkpt lat="37.973119" lon="23.7258365"><time>2026-08-14T21:31:30.568Z</time></trkpt>
      <trkpt lat="37.973043" lon="23.725829"><time>2026-08-14T21:31:36.623Z</time></trkpt>
      <trkpt lat="37.972965333333335" lon="23.725832"><time>2026-08-14T21:31:42.794Z</time></trkpt>
      <trkpt lat="37.972887666666665" lon="23.725835"><time>2026-08-14T21:31:48.966Z</time></trkpt>
      <trkpt lat="37.97281" lon="23.725838"><time>2026-08-14T21:31:55.137Z</time></trkpt>
      <trkpt lat="37.97282233333333" lon="23.725741666666668"><time>2026-08-14T21:32:01.248Z</time></trkpt>
      <trkpt lat="37.97283466666667" lon="23.725645333333333"><time>2026-08-14T21:32:07.358Z</time></trkpt>
      <trkpt lat="37.972847" lon="23.725549"><time>2026-08-14T21:32:13.469Z</time></trkpt>
      <trkpt lat="37.972823500000004" lon="23.7254495"><time>2026-08-14T21:32:19.972Z</time></trkpt>
      <trkpt lat="37.9728" lon="23.72535"><time>2026-08-14T21:32:26.476Z</time></trkpt>
      <trkpt lat="37.972783" lon="23.725264"><time>2026-08-14T21:32:32.027Z</time></trkpt>
      <trkpt lat="37.972746666666666" lon="23.725143666666668"><time>2026-08-14T21:32:40.095Z</time></trkpt>
      <trkpt lat="37.97271033333333" lon="23.725023333333333"><time>2026-08-14T21:32:48.163Z</time></trkpt>
      <trkpt lat="37.972674" lon="23.724903"><time>2026-08-14T21:32:56.231Z</time></trkpt>
      <trkpt lat="37.97264" lon="23.724811333333335"><time>2026-08-14T21:33:02.574Z</time></trkpt>
      <trkpt lat="37.972606" lon="23.724719666666665"><time>2026-08-14T21:33:08.916Z</time></trkpt>
      <trkpt lat="37.972572" lon="23.724628"><time>2026-08-14T21:33:15.259Z</time></trkpt>
      <trkpt lat="37.972534" lon="23.724525"><time>2026-08-14T21:33:22.380Z</time></trkpt>
      <trkpt lat="37.972486" lon="23.724411666666665"><time>2026-08-14T21:33:30.435Z</time></trkpt>
      <trkpt lat="37.972438" lon="23.724298333333333"><time>2026-08-14T21:33:38.490Z</time></trkpt>
      <trkpt lat="37.97239" lon="23.724185"><time>2026-08-14T21:33:46.545Z</time></trkpt>
      <trkpt lat="37.972350999999996" lon="23.724101333333333"><time>2026-08-14T21:33:52.631Z</time></trkpt>
      <trkpt lat="37.972312" lon="23.724017666666665"><time>2026-08-14T21:33:58.717Z</time></trkpt>
      <trkpt lat="37.972273" lon="23.723934"><time>2026-08-14T21:34:04.803Z</time></trkpt>
      <trkpt lat="37.972210000000004" lon="23.7238245"><time>2026-08-14T21:34:13.290Z</time></trkpt>
      <trkpt lat="37.972147" lon="23.723715"><time>2026-08-14T21:34:21.778Z</time></trkpt>
      <trkpt lat="37.972057" lon="23.723617"><time>2026-08-14T21:34:31.199Z</time></trkpt>
      <trkpt lat="37.971985" lon="23.723547"><time>2026-08-14T21:34:38.404Z</time></trkpt>
      <trkpt lat="37.971936" lon="23.723497"><time>2026-08-14T21:34:43.398Z</time></trkpt>
      <trkpt lat="37.971865" lon="23.723432"><time>2026-08-14T21:34:50.353Z</time></trkpt>
      <trkpt lat="37.971773" lon="23.723347"><time>2026-08-14T21:34:59.392Z</time></trkpt>
      <trkpt lat="37.971767" lon="23.723341"><time>2026-08-14T21:34:59.999Z</time></trkpt>
      <trkpt lat="37.971694" lon="23.72341"><time>2026-08-14T21:35:07.230Z</time></trkpt>
      <trkpt lat="37.971608" lon="23.723453"><time>2026-08-14T21:35:14.572Z</time></trkpt>
      <trkpt lat="37.971539" lon="23.723439"><time>2026-08-14T21:35:20.122Z</time></trkpt>
      <trkpt lat="37.97147" lon="23.723425"><time>2026-08-14T21:35:25.672Z</time></trkpt>
      <trkpt lat="37.971465" lon="23.723509"><time>2026-08-14T21:35:30.946Z</time></trkpt>
      <trkpt lat="37.9714515" lon="23.7236015"><time>2026-08-14T21:35:36.836Z</time></trkpt>
      <trkpt lat="37.971438" lon="23.723694"><time>2026-08-14T21:35:42.726Z</time></trkpt>
      <trkpt lat="37.971414" lon="23.723774"><time>2026-08-14T21:35:48.086Z</time></trkpt>
      <trkpt lat="37.971414" lon="23.723794"><time>2026-08-14T21:35:49.338Z</time></trkpt>
      <trkpt lat="37.971416" lon="23.723841"><time>2026-08-14T21:35:52.285Z</time></trkpt>
      <trkpt lat="37.971416" lon="23.723854"><time>2026-08-14T21:35:53.099Z</time></trkpt>
      <trkpt lat="37.971429" lon="23.723879"><time>2026-08-14T21:35:54.974Z</time></trkpt>
      <trkpt lat="37.971449" lon="23.723878"><time>2026-08-14T21:35:56.564Z</time></trkpt>
      <trkpt lat="37.97147" lon="23.7239745"><time>2026-08-14T21:36:02.832Z</time></trkpt>
      <trkpt lat="37.971491" lon="23.724071000000002"><time>2026-08-14T21:36:09.100Z</time></trkpt>
      <trkpt lat="37.971512000000004" lon="23.7241675"><time>2026-08-14T21:36:15.368Z</time></trkpt>
      <trkpt lat="37.971533" lon="23.724264"><time>2026-08-14T21:36:21.636Z</time></trkpt>
      <trkpt lat="37.97153" lon="23.724284"><time>2026-08-14T21:36:22.911Z</time></trkpt>
      <trkpt lat="37.971515" lon="23.724301"><time>2026-08-14T21:36:24.508Z</time></trkpt>
      <trkpt lat="37.971467" lon="23.724323"><time>2026-08-14T21:36:28.562Z</time></trkpt>
      <trkpt lat="37.971425" lon="23.724352"><time>2026-08-14T21:36:32.360Z</time></trkpt>
      <trkpt lat="37.971379" lon="23.724399"><time>2026-08-14T21:36:37.051Z</time></trkpt>
      <trkpt lat="37.971343" lon="23.724407"><time>2026-08-14T21:36:39.954Z</time></trkpt>
      <trkpt lat="37.971432" lon="23.72447"><time>2026-08-14T21:36:48.049Z</time></trkpt>
      <trkpt lat="37.971481" lon="23.724488"><time>2026-08-14T21:36:52.101Z</time></trkpt>
      <trkpt lat="37.971565" lon="23.724517"><time>2026-08-14T21:36:59.015Z</time></trkpt>
      <trkpt lat="37.97161" lon="23.724523"><time>2026-08-14T21:37:02.609Z</time></trkpt>
      <trkpt lat="37.971619" lon="23.72458"><time>2026-08-14T21:37:06.249Z</time></trkpt>
      <trkpt lat="37.971623" lon="23.724609"><time>2026-08-14T21:37:08.092Z</time></trkpt>
      <trkpt lat="37.971625" lon="23.724617"><time>2026-08-14T21:37:08.617Z</time></trkpt>
      <trkpt lat="37.971628" lon="23.724634"><time>2026-08-14T21:37:09.708Z</time></trkpt>
      <trkpt lat="37.971613" lon="23.724638"><time>2026-08-14T21:37:10.926Z</time></trkpt>
      <trkpt lat="37.971586" lon="23.724644"><time>2026-08-14T21:37:13.103Z</time></trkpt>
      <trkpt lat="37.97156" lon="23.724652"><time>2026-08-14T21:37:15.228Z</time></trkpt>
      <trkpt lat="37.971555" lon="23.72467"><time>2026-08-14T21:37:16.423Z</time></trkpt>
      <trkpt lat="37.971559" lon="23.724691"><time>2026-08-14T21:37:17.775Z</time></trkpt>
      <trkpt lat="37.971568" lon="23.724752"><time>2026-08-14T21:37:21.661Z</time></trkpt>
      <trkpt lat="37.9716" lon="23.724769"><time>2026-08-14T21:37:24.416Z</time></trkpt>
      <trkpt lat="37.971602" lon="23.724785"><time>2026-08-14T21:37:25.431Z</time></trkpt>
      <trkpt lat="37.971611" lon="23.72487"><time>2026-08-14T21:37:30.801Z</time></trkpt>
      <trkpt lat="37.971613" lon="23.724883"><time>2026-08-14T21:37:31.630Z</time></trkpt>
      <trkpt lat="37.971737" lon="23.724849"><time>2026-08-14T21:37:41.706Z</time></trkpt>
      <trkpt lat="37.971739" lon="23.724865"><time>2026-08-14T21:37:42.720Z</time></trkpt>
      <trkpt lat="37.971672999999996" lon="23.724912500000002"><time>2026-08-14T21:37:48.747Z</time></trkpt>
      <trkpt lat="37.971607" lon="23.72496"><time>2026-08-14T21:37:54.774Z</time></trkpt>
      <trkpt lat="37.971613" lon="23.724982"><time>2026-08-14T21:37:56.232Z</time></trkpt>
      <trkpt lat="37.971688" lon="23.724982"><time>2026-08-14T21:38:02.189Z</time></trkpt>
      <trkpt lat="37.971682" lon="23.724993"><time>2026-08-14T21:38:03.026Z</time></trkpt>
      <trkpt lat="37.971687" lon="23.725026"><time>2026-08-14T21:38:05.130Z</time></trkpt>
      <trkpt lat="37.971689" lon="23.725042"><time>2026-08-14T21:38:06.144Z</time></trkpt>
      <trkpt lat="37.971691" lon="23.725052"><time>2026-08-14T21:38:06.790Z</time></trkpt>
      <trkpt lat="37.971696" lon="23.725077"><time>2026-08-14T21:38:08.405Z</time></trkpt>
      <trkpt lat="37.971697" lon="23.725081"><time>2026-08-14T21:38:08.668Z</time></trkpt>
      <trkpt lat="37.971702" lon="23.725111"><time>2026-08-14T21:38:10.588Z</time></trkpt>
      <trkpt lat="37.971704" lon="23.725122"><time>2026-08-14T21:38:11.295Z</time></trkpt>
      <trkpt lat="37.971711" lon="23.725164"><time>2026-08-14T21:38:13.983Z</time></trkpt>
      <trkpt lat="37.971735" lon="23.725299"><time>2026-08-14T21:38:22.647Z</time></trkpt>
      <trkpt lat="37.97174" lon="23.725325"><time>2026-08-14T21:38:24.323Z</time></trkpt>
      <trkpt lat="37.971716" lon="23.725444"><time>2026-08-14T21:38:32.014Z</time></trkpt>
      <trkpt lat="37.971725" lon="23.725446"><time>2026-08-14T21:38:32.740Z</time></trkpt>
      <trkpt lat="37.971705" lon="23.725545"><time>2026-08-14T21:38:39.138Z</time></trkpt>
      <trkpt lat="37.971695" lon="23.725599"><time>2026-08-14T21:38:42.612Z</time></trkpt>
      <trkpt lat="37.971655" lon="23.725577"><time>2026-08-14T21:38:46.074Z</time></trkpt>
      <trkpt lat="37.971619" lon="23.725538"><time>2026-08-14T21:38:49.834Z</time></trkpt>
      <trkpt lat="37.971571" lon="23.7254745"><time>2026-08-14T21:38:55.343Z</time></trkpt>
      <trkpt lat="37.971523" lon="23.725411"><time>2026-08-14T21:39:00.851Z</time></trkpt>
      <trkpt lat="37.971466" lon="23.725375"><time>2026-08-14T21:39:05.908Z</time></trkpt>
      <trkpt lat="37.971441" lon="23.725378"><time>2026-08-14T21:39:07.903Z</time></trkpt>
      <trkpt lat="37.971426" lon="23.725404"><time>2026-08-14T21:39:09.920Z</time></trkpt>
      <trkpt lat="37.971391" lon="23.7255155"><time>2026-08-14T21:39:17.435Z</time></trkpt>
      <trkpt lat="37.971356" lon="23.725627"><time>2026-08-14T21:39:24.949Z</time></trkpt>
      <trkpt lat="37.971356" lon="23.725627"><time>2026-08-14T21:39:44.949Z</time></trkpt>
    </trkseg>
  </trk>
</gpx>
