<?xml version="1.0" encoding="UTF-8"?>
<gpx version="1.1" creator="CityPaths" xmlns="http://www.topografix.com/GPX/1/1">
  <trk>
    <name>National Garden Stroll - checkpoint suggestion demo (play at 1x)</name>
    <trkseg>
      <trkpt lat="37.974344" lon="23.736659"><time>2026-09-21T08:54:21.600Z</time></trkpt>
      <trkpt lat="37.974344" lon="23.736659"><time>2026-09-21T08:54:21.600Z</time></trkpt>
      <trkpt lat="37.974344" lon="23.736659"><time>2026-09-21T08:54:51.600Z</time></trkpt>
      <trkpt lat="37.974338" lon="23.736649"><time>2026-09-21T08:54:52.386Z</time></trkpt>
      <trkpt lat="37.974332" lon="23.736639"><time>2026-09-21T08:54:53.173Z</time></trkpt>
      <trkpt lat="37.974325" lon="23.73663"><time>2026-09-21T08:54:53.965Z</time></trkpt>
      <trkpt lat="37.974317" lon="23.73662"><time>2026-09-21T08:54:54.857Z</time></trkpt>
      <trkpt lat="37.974309" lon="23.73661"><time>2026-09-21T08:54:55.749Z</time></trkpt>
      <trkpt lat="37.974301" lon="23.7366"><time>2026-09-21T08:54:56.641Z</time></trkpt>
      <trkpt lat="37.974292" lon="23.73659"><time>2026-09-21T08:54:57.591Z</time></trkpt>
      <trkpt lat="37.974283" lon="23.73658"><time>2026-09-21T08:54:58.541Z</time></trkpt>
      <trkpt lat="37.974274" lon="23.73657"><time>2026-09-21T08:54:59.492Z</time></trkpt>
      <trkpt lat="37.974264" lon="23.73656"><time>2026-09-21T08:55:00.503Z</time></trkpt>
      <trkpt lat="37.974253" lon="23.73655"><time>2026-09-21T08:55:01.578Z</time></trkpt>
      <trkpt lat="37.974242" lon="23.73654"><time>2026-09-21T08:55:02.653Z</time></trkpt>
      <trkpt lat="37.974231" lon="23.736529"><time>2026-09-21T08:55:03.765Z</time></trkpt>
      <trkpt lat="37.974219" lon="23.736519"><time>2026-09-21T08:55:04.905Z</time></trkpt>
      <trkpt lat="37.974207" lon="23.736508"><time>2026-09-21T08:55:06.081Z</time></trkpt>
      <trkpt lat="37.974195" lon="23.736498"><time>2026-09-21T08:55:07.222Z</time></trkpt>
      <trkpt lat="37.974183" lon="23.736488"><time>2026-09-21T08:55:08.362Z</time></trkpt>
      <trkpt lat="37.974171" lon="23.736478"><time>2026-09-21T08:55:09.502Z</time></trkpt>
      <trkpt lat="37.974158" lon="23.736469"><time>2026-09-21T08:55:10.679Z</time></trkpt>
      <trkpt lat="37.974146" lon="23.736461"><time>2026-09-21T08:55:11.755Z</time></trkpt>
      <trkpt lat="37.974133" lon="23.736452"><time>2026-09-21T08:55:12.932Z</time></trkpt>
      <trkpt lat="37.974121" lon="23.736444"><time>2026-09-21T08:55:14.008Z</time></trkpt>
      <trkpt lat="37.974109" lon="23.736436"><time>2026-09-21T08:55:15.085Z</time></trkpt>
      <trkpt lat="37.974097" lon="23.736429"><time>2026-09-21T08:55:16.134Z</time></trkpt>
      <trkpt lat="37.974085" lon="23.736422"><time>2026-09-21T08:55:17.183Z</time></trkpt>
      <trkpt lat="37.974074" lon="23.736416"><time>2026-09-21T08:55:18.134Z</time></trkpt>
      <trkpt lat="37.974062" lon="23.736409"><time>2026-09-21T08:55:19.183Z</time></trkpt>
      <trkpt lat="37.974052" lon="23.736403"><time>2026-09-21T08:55:20.062Z</time></trkpt>
      <trkpt lat="37.974041" lon="23.736398"><time>2026-09-21T08:55:20.990Z</time></trkpt>
      <trkpt lat="37.974031" lon="23.736393"><time>2026-09-21T08:55:21.844Z</time></trkpt>
      <trkpt lat="37.974021" lon="23.736388"><time>2026-09-21T08:55:22.697Z</time></trkpt>
      <trkpt lat="37.974012" lon="23.736384"><time>2026-09-21T08:55:23.455Z</time></trkpt>
      <trkpt lat="37.974003" lon="23.73638"><time>2026-09-21T08:55:24.212Z</time></trkpt>
      <trkpt lat="37.973995" lon="23.736376"><time>2026-09-21T08:55:24.895Z</time></trkpt>
      <trkpt lat="37.973987" lon="23.736373"><time>2026-09-21T08:55:25.558Z</time></trkpt>
      <trkpt lat="37.973979" lon="23.736369"><time>2026-09-21T08:55:26.241Z</time></trkpt>
      <trkpt lat="37.973971" lon="23.736366"><time>2026-09-21T08:55:26.903Z</time></trkpt>
      <trkpt lat="37.973964" lon="23.736362"><time>2026-09-21T08:55:27.513Z</time></trkpt>
      <trkpt lat="37.973956" lon="23.736358"><time>2026-09-21T08:55:28.196Z</time></trkpt>
      <trkpt lat="37.973949" lon="23.736354"><time>2026-09-21T08:55:28.806Z</time></trkpt>
      <trkpt lat="37.973942" lon="23.73635"><time>2026-09-21T08:55:29.416Z</time></trkpt>
      <trkpt lat="37.973935" lon="23.736346"><time>2026-09-21T08:55:30.025Z</time></trkpt>
      <trkpt lat="37.973928" lon="23.736343"><time>2026-09-21T08:55:30.612Z</time></trkpt>
      <trkpt lat="37.973922" lon="23.736339"><time>2026-09-21T08:55:31.151Z</time></trkpt>
      <trkpt lat="37.973916" lon="23.736336"><time>2026-09-21T08:55:31.663Z</time></trkpt>
      <trkpt lat="37.97391" lon="23.736332"><time>2026-09-21T08:55:32.201Z</time></trkpt>
      <trkpt lat="37.973905" lon="23.73633"><time>2026-09-21T08:55:32.618Z</time></trkpt>
      <trkpt lat="37.973901" lon="23.736327"><time>2026-09-21T08:55:32.987Z</time></trkpt>
      <trkpt lat="37.973897" lon="23.736325"><time>2026-09-21T08:55:33.328Z</time></trkpt>
      <trkpt lat="37.973894" lon="23.736323"><time>2026-09-21T08:55:33.597Z</time></trkpt>
      <trkpt lat="37.973891" lon="23.736321"><time>2026-09-21T08:55:33.866Z</time></trkpt>
      <trkpt lat="37.973889" lon="23.73632"><time>2026-09-21T08:55:34.037Z</time></trkpt>
      <trkpt lat="37.973888" lon="23.736319"><time>2026-09-21T08:55:34.138Z</time></trkpt>
      <trkpt lat="37.9739045" lon="23.736178000000002"><time>2026-09-21T08:55:43.063Z</time></trkpt>
      <trkpt lat="37.973921" lon="23.736037"><time>2026-09-21T08:55:51.988Z</time></trkpt>
      <trkpt lat="37.973830799999995" lon="23.7359896"><time>2026-09-21T08:55:59.742Z</time></trkpt>
      <trkpt lat="37.9737406" lon="23.7359422"><time>2026-09-21T08:56:07.497Z</time></trkpt>
      <trkpt lat="37.9736504" lon="23.7358948"><time>2026-09-21T08:56:15.251Z</time></trkpt>
      <trkpt lat="37.9735602" lon="23.7358474"><time>2026-09-21T08:56:23.006Z</time></trkpt>
      <trkpt lat="37.97347" lon="23.7358"><time>2026-09-21T08:56:30.760Z</time></trkpt>
      <trkpt lat="37.97344" lon="23.735792"><time>2026-09-21T08:56:33.195Z</time></trkpt>
      <trkpt lat="37.973353499999995" lon="23.735745"><time>2026-09-21T08:56:40.669Z</time></trkpt>
      <trkpt lat="37.973267" lon="23.735698"><time>2026-09-21T08:56:48.143Z</time></trkpt>
      <trkpt lat="37.973267" lon="23.735698"><time>2026-09-21T08:58:03.143Z</time></trkpt>
      <trkpt lat="37.9731805" lon="23.735651"><time>2026-09-21T08:58:10.617Z</time></trkpt>
      <trkpt lat="37.973094" lon="23.735604"><time>2026-09-21T08:58:18.091Z</time></trkpt>
      <trkpt lat="37.9730075" lon="23.735557"><time>2026-09-21T08:58:25.565Z</time></trkpt>
      <trkpt lat="37.972921" lon="23.73551"><time>2026-09-21T08:58:33.039Z</time></trkpt>
      <trkpt lat="37.972834500000005" lon="23.735463"><time>2026-09-21T08:58:40.513Z</time></trkpt>
      <trkpt lat="37.972748" lon="23.735416"><time>2026-09-21T08:58:47.987Z</time></trkpt>
      <trkpt lat="37.972698" lon="23.735389"><time>2026-09-21T08:58:52.303Z</time></trkpt>
      <trkpt lat="37.972692" lon="23.735394"><time>2026-09-21T08:58:52.873Z</time></trkpt>
      <trkpt lat="37.972683" lon="23.735403"><time>2026-09-21T08:58:53.783Z</time></trkpt>
      <trkpt lat="37.972663" lon="23.73539"><time>2026-09-21T08:58:55.568Z</time></trkpt>
      <trkpt lat="37.972643" lon="23.735377"><time>2026-09-21T08:58:57.353Z</time></trkpt>
      <trkpt lat="37.972623" lon="23.735365"><time>2026-09-21T08:58:59.110Z</time></trkpt>
      <trkpt lat="37.972603" lon="23.735353"><time>2026-09-21T08:59:00.867Z</time></trkpt>
      <trkpt lat="37.972583" lon="23.735342"><time>2026-09-21T08:59:02.599Z</time></trkpt>
      <trkpt lat="37.972564" lon="23.735332"><time>2026-09-21T08:59:04.233Z</time></trkpt>
      <trkpt lat="37.972545" lon="23.735323"><time>2026-09-21T08:59:05.843Z</time></trkpt>
      <trkpt lat="37.972527" lon="23.735314"><time>2026-09-21T08:59:07.380Z</time></trkpt>
      <trkpt lat="37.97251" lon="23.735305"><time>2026-09-21T08:59:08.843Z</time></trkpt>
      <trkpt lat="37.972493" lon="23.735298"><time>2026-09-21T08:59:10.263Z</time></trkpt>
      <trkpt lat="37.972478" lon="23.735291"><time>2026-09-21T08:59:11.532Z</time></trkpt>
      <trkpt lat="37.972417" lon="23.73526"><time>2026-09-21T08:59:16.751Z</time></trkpt>
      <trkpt lat="37.9723455" lon="23.735235"><time>2026-09-21T08:59:22.642Z</time></trkpt>
      <trkpt lat="37.972274" lon="23.73521"><time>2026-09-21T08:59:28.533Z</time></trkpt>
      <trkpt lat="37.972292" lon="23.73528"><time>2026-09-21T08:59:33.143Z</time></trkpt>
      <trkpt lat="37.9723" lon="23.735309"><time>2026-09-21T08:59:35.067Z</time></trkpt>
      <trkpt lat="37.972303499999995" lon="23.7354035"><time>2026-09-21T08:59:40.990Z</time></trkpt>
      <trkpt lat="37.972307" lon="23.735498"><time>2026-09-21T08:59:46.913Z</time></trkpt>
      <trkpt lat="37.972304" lon="23.735667"><time>2026-09-21T08:59:57.497Z</time></trkpt>
      <trkpt lat="37.9722985" lon="23.7357555"><time>2026-09-21T09:00:03.055Z</time></trkpt>
      <trkpt lat="37.972293" lon="23.735844"><time>2026-09-21T09:00:08.614Z</time></trkpt>
      <trkpt lat="37.972280999999995" lon="23.735982"><time>2026-09-21T09:00:17.307Z</time></trkpt>
      <trkpt lat="37.972269" lon="23.73612"><time>2026-09-21T09:00:25.999Z</time></trkpt>
      <trkpt lat="37.972249" lon="23.736289"><time>2026-09-21T09:00:36.699Z</time></trkpt>
      <trkpt lat="37.9721725" lon="23.7362395"><time>2026-09-21T09:00:43.520Z</time></trkpt>
      <trkpt lat="37.972096" lon="23.73619"><time>2026-09-21T09:00:50.341Z</time></trkpt>
      <trkpt lat="37.97201475" lon="23.736137375000002"><time>2026-09-21T09:00:57.587Z</time></trkpt>
      <trkpt lat="37.9719335" lon="23.73608475"><time>2026-09-21T09:01:04.832Z</time></trkpt>
      <trkpt lat="37.97185225" lon="23.736032125"><time>2026-09-21T09:01:12.078Z</time></trkpt>
      <trkpt lat="37.971771000000004" lon="23.7359795"><time>2026-09-21T09:01:19.324Z</time></trkpt>
      <trkpt lat="37.97168975" lon="23.735926875"><time>2026-09-21T09:01:26.570Z</time></trkpt>
      <trkpt lat="37.9716085" lon="23.735874250000002"><time>2026-09-21T09:01:33.816Z</time></trkpt>
      <trkpt lat="37.97152725" lon="23.735821625"><time>2026-09-21T09:01:41.061Z</time></trkpt>
      <trkpt lat="37.971446" lon="23.735769"><time>2026-09-21T09:01:48.307Z</time></trkpt>
      <trkpt lat="37.97139" lon="23.735734"><time>2026-09-21T09:01:53.265Z</time></trkpt>
      <trkpt lat="37.971349" lon="23.73583657142857"><time>2026-09-21T09:02:00.466Z</time></trkpt>
      <trkpt lat="37.971308" lon="23.735939142857145"><time>2026-09-21T09:02:07.667Z</time></trkpt>
      <trkpt lat="37.971267" lon="23.736041714285715"><time>2026-09-21T09:02:14.867Z</time></trkpt>
      <trkpt lat="37.971226" lon="23.736144285714285"><time>2026-09-21T09:02:22.068Z</time></trkpt>
      <trkpt lat="37.971185" lon="23.736246857142856"><time>2026-09-21T09:02:29.269Z</time></trkpt>
      <trkpt lat="37.971144" lon="23.73634942857143"><time>2026-09-21T09:02:36.469Z</time></trkpt>
      <trkpt lat="37.971103" lon="23.736452"><time>2026-09-21T09:02:43.670Z</time></trkpt>
      <trkpt lat="37.971008999999995" lon="23.7363915"><time>2026-09-21T09:02:52.042Z</time></trkpt>
      <trkpt lat="37.970915" lon="23.736331"><time>2026-09-21T09:03:00.414Z</time></trkpt>
      <trkpt lat="37.970882" lon="23.736309"><time>2026-09-21T09:03:03.375Z</time></trkpt>
      <trkpt lat="37.970845" lon="23.736283"><time>2026-09-21T09:03:06.734Z</time></trkpt>
      <trkpt lat="37.970879999999994" lon="23.736196"><time>2026-09-21T09:03:12.850Z</time></trkpt>
      <trkpt lat="37.970915" lon="23.736109"><time>2026-09-21T09:03:18.966Z</time></trkpt>
      <trkpt lat="37.970915" lon="23.736109"><time>2026-09-21T09:03:48.966Z</time></trkpt>
      <trkpt lat="37.97095066666667" lon="23.736019666666667"><time>2026-09-21T09:03:55.235Z</time></trkpt>
      <trkpt lat="37.97098633333333" lon="23.735930333333332"><time>2026-09-21T09:04:01.505Z</time></trkpt>
      <trkpt lat="37.971022" lon="23.735841"><time>2026-09-21T09:04:07.775Z</time></trkpt>
      <trkpt lat="37.971042499999996" lon="23.7357375"><time>2026-09-21T09:04:14.457Z</time></trkpt>
      <trkpt lat="37.971063" lon="23.735634"><time>2026-09-21T09:04:21.139Z</time></trkpt>
      <trkpt lat="37.9710575" lon="23.7355405"><time>2026-09-21T09:04:27.009Z</time></trkpt>
      <trkpt lat="37.971052" lon="23.735447"><time>2026-09-21T09:04:32.880Z</time></trkpt>
      <trkpt lat="37.97101" lon="23.735359333333335"><time>2026-09-21T09:04:39.303Z</time></trkpt>
      <trkpt lat="37.970968" lon="23.735271666666666"><time>2026-09-21T09:04:45.726Z</time></trkpt>
      <trkpt lat="37.970926" lon="23.735184"><time>2026-09-21T09:04:52.149Z</time></trkpt>
      <trkpt lat="37.970874" lon="23.735193"><time>2026-09-21T09:04:56.318Z</time></trkpt>
      <trkpt lat="37.970788999999996" lon="23.735221"><time>2026-09-21T09:05:03.293Z</time></trkpt>
      <trkpt lat="37.970704" lon="23.735249"><time>2026-09-21T09:05:10.268Z</time></trkpt>
      <trkpt lat="37.9706295" lon="23.735274"><time>2026-09-21T09:05:16.388Z</time></trkpt>
      <trkpt lat="37.970555" lon="23.735299"><time>2026-09-21T09:05:22.509Z</time></trkpt>
      <trkpt lat="37.970557" lon="23.735302"><time>2026-09-21T09:05:22.755Z</time></trkpt>
      <trkpt lat="37.970562" lon="23.73531"><time>2026-09-21T09:05:23.394Z</time></trkpt>
      <trkpt lat="37.970567" lon="23.735319"><time>2026-09-21T09:05:24.084Z</time></trkpt>
      <trkpt lat="37.97057" lon="23.735327"><time>2026-09-21T09:05:24.638Z</time></trkpt>
      <trkpt lat="37.970574" lon="23.735335"><time>2026-09-21T09:05:25.232Z</time></trkpt>
      <trkpt lat="37.970576" lon="23.735344"><time>2026-09-21T09:05:25.817Z</time></trkpt>
      <trkpt lat="37.970578" lon="23.735352"><time>2026-09-21T09:05:26.343Z</time></trkpt>
      <trkpt lat="37.970579" lon="23.73536"><time>2026-09-21T09:05:26.850Z</time></trkpt>
      <trkpt lat="37.97058" lon="23.735368"><time>2026-09-21T09:05:27.357Z</time></trkpt>
      <trkpt lat="37.97058" lon="23.735376"><time>2026-09-21T09:05:27.858Z</time></trkpt>
      <trkpt lat="37.970579" lon="23.735383"><time>2026-09-21T09:05:28.303Z</time></trkpt>
      <trkpt lat="37.970577" lon="23.735391"><time>2026-09-21T09:05:28.829Z</time></trkpt>
      <trkpt lat="37.970575" lon="23.735397"><time>2026-09-21T09:05:29.237Z</time></trkpt>
      <trkpt lat="37.970572" lon="23.735404"><time>2026-09-21T09:05:29.735Z</time></trkpt>
      <trkpt lat="37.970568" lon="23.73541"><time>2026-09-21T09:05:30.227Z</time></trkpt>
      <trkpt lat="37.970564" lon="23.735416"><time>2026-09-21T09:05:30.719Z</time></trkpt>
      <trkpt lat="37.970559" lon="23.73542"><time>2026-09-21T09:05:31.189Z</time></trkpt>
      <trkpt lat="37.970554" lon="23.735424"><time>2026-09-21T09:05:31.658Z</time></trkpt>
      <trkpt lat="37.970548" lon="23.735428"><time>2026-09-21T09:05:32.197Z</time></trkpt>
      <trkpt lat="37.970541" lon="23.735431"><time>2026-09-21T09:05:32.784Z</time></trkpt>
      <trkpt lat="37.970535" lon="23.735433"><time>2026-09-21T09:05:33.276Z</time></trkpt>
      <trkpt lat="37.970527" lon="23.735435"><time>2026-09-21T09:05:33.924Z</time></trkpt>
      <trkpt lat="37.97052" lon="23.735436"><time>2026-09-21T09:05:34.483Z</time></trkpt>
      <trkpt lat="37.970512" lon="23.735436"><time>2026-09-21T09:05:35.119Z</time></trkpt>
      <trkpt lat="37.970504" lon="23.735436"><time>2026-09-21T09:05:35.754Z</time></trkpt>
      <trkpt lat="37.970496" lon="23.735435"><time>2026-09-21T09:05:36.393Z</time></trkpt>
      <trkpt lat="37.970493" lon="23.735435"><time>2026-09-21T09:05:36.631Z</time></trkpt>
      <trkpt lat="37.970487" lon="23.735434"><time>2026-09-21T09:05:37.112Z</time></trkpt>
      <trkpt lat="37.970478" lon="23.735432"><time>2026-09-21T09:05:37.837Z</time></trkpt>
      <trkpt lat="37.97047" lon="23.735429"><time>2026-09-21T09:05:38.500Z</time></trkpt>
      <trkpt lat="37.970461" lon="23.735426"><time>2026-09-21T09:05:39.239Z</time></trkpt>
      <trkpt lat="37.970452" lon="23.735421"><time>2026-09-21T09:05:40.019Z</time></trkpt>
      <trkpt lat="37.970443" lon="23.735417"><time>2026-09-21T09:05:40.777Z</time></trkpt>
      <trkpt lat="37.970434" lon="23.735411"><time>2026-09-21T09:05:41.584Z</time></trkpt>
      <trkpt lat="37.970425" lon="23.735405"><time>2026-09-21T09:05:42.392Z</time></trkpt>
      <trkpt lat="37.970416" lon="23.735399"><time>2026-09-21T09:05:43.199Z</time></trkpt>
      <trkpt lat="37.970408" lon="23.735392"><time>2026-09-21T09:05:43.971Z</time></trkpt>
      <trkpt lat="37.970401" lon="23.735385"><time>2026-09-21T09:05:44.679Z</time></trkpt>
      <trkpt lat="37.970394" lon="23.735378"><time>2026-09-21T09:05:45.387Z</time></trkpt>
      <trkpt lat="37.970387" lon="23.73537"><time>2026-09-21T09:05:46.136Z</time></trkpt>
      <trkpt lat="37.970381" lon="23.735362"><time>2026-09-21T09:05:46.827Z</time></trkpt>
      <trkpt lat="37.970378" lon="23.735358"><time>2026-09-21T09:05:47.173Z</time></trkpt>
      <trkpt lat="37.9703035" lon="23.735383"><time>2026-09-21T09:05:53.293Z</time></trkpt>
      <trkpt lat="37.970229" lon="23.735408"><time>2026-09-21T09:05:59.414Z</time></trkpt>
      <trkpt lat="37.970223" lon="23.735398"><time>2026-09-21T09:06:00.201Z</time></trkpt>
      <trkpt lat="37.970209" lon="23.735376"><time>2026-09-21T09:06:01.971Z</time></trkpt>
      <trkpt lat="37.970197" lon="23.735354"><time>2026-09-21T09:06:03.646Z</time></trkpt>
      <trkpt lat="37.970197" lon="23.735354"><time>2026-09-21T09:06:23.646Z</time></trkpt>
    </trkseg>
  </trk>
</gpx>
