<?xml version="1.0" encoding="UTF-8"?>
<gpx version="1.1" creator="CityPaths" xmlns="http://www.topografix.com/GPX/1/1">
  <trk>
    <name>Acropolis & Surroundings</name>
    <trkseg>
      <trkpt lat="37.971356" lon="23.725627"><time>2026-08-04T10:37:43.388Z</time></trkpt>
      <trkpt lat="37.971356" lon="23.725627"><time>2026-08-04T10:38:13.388Z</time></trkpt>
      <trkpt lat="37.971391" lon="23.7255155"><time>2026-08-04T10:38:20.902Z</time></trkpt>
      <trkpt lat="37.971426" lon="23.725404"><time>2026-08-04T10:38:28.416Z</time></trkpt>
      <trkpt lat="37.971441" lon="23.725378"><time>2026-08-04T10:38:30.434Z</time></trkpt>
      <trkpt lat="37.971466" lon="23.725375"><time>2026-08-04T10:38:32.428Z</time></trkpt>
      <trkpt lat="37.971523" lon="23.725411"><time>2026-08-04T10:38:37.485Z</time></trkpt>
      <trkpt lat="37.971571" lon="23.7254745"><time>2026-08-04T10:38:42.994Z</time></trkpt>
      <trkpt lat="37.971619" lon="23.725538"><time>2026-08-04T10:38:48.502Z</time></trkpt>
      <trkpt lat="37.971655" lon="23.725577"><time>2026-08-04T10:38:52.262Z</time></trkpt>
      <trkpt lat="37.971695" lon="23.725599"><time>2026-08-04T10:38:55.725Z</time></trkpt>
      <trkpt lat="37.971705" lon="23.725545"><time>2026-08-04T10:38:59.198Z</time></trkpt>
      <trkpt lat="37.971725" lon="23.725446"><time>2026-08-04T10:39:05.597Z</time></trkpt>
      <trkpt lat="37.971716" lon="23.725444"><time>2026-08-04T10:39:06.323Z</time></trkpt>
      <trkpt lat="37.97174" lon="23.725325"><time>2026-08-04T10:39:14.013Z</time></trkpt>
      <trkpt lat="37.971735" lon="23.725299"><time>2026-08-04T10:39:15.689Z</time></trkpt>
      <trkpt lat="37.971711" lon="23.725164"><time>2026-08-04T10:39:24.354Z</time></trkpt>
      <trkpt lat="37.971704" lon="23.725122"><time>2026-08-04T10:39:27.042Z</time></trkpt>
      <trkpt lat="37.971702" lon="23.725111"><time>2026-08-04T10:39:27.748Z</time></trkpt>
      <trkpt lat="37.971697" lon="23.725081"><time>2026-08-04T10:39:29.668Z</time></trkpt>
      <trkpt lat="37.971696" lon="23.725077"><time>2026-08-04T10:39:29.931Z</time></trkpt>
      <trkpt lat="37.971691" lon="23.725052"><time>2026-08-04T10:39:31.546Z</time></trkpt>
      <trkpt lat="37.971689" lon="23.725042"><time>2026-08-04T10:39:32.192Z</time></trkpt>
      <trkpt lat="37.971687" lon="23.725026"><time>2026-08-04T10:39:33.206Z</time></trkpt>
      <trkpt lat="37.971682" lon="23.724993"><time>2026-08-04T10:39:35.310Z</time></trkpt>
      <trkpt lat="37.971688" lon="23.724982"><time>2026-08-04T10:39:36.148Z</time></trkpt>
      <trkpt lat="37.971613" lon="23.724982"><time>2026-08-04T10:39:42.105Z</time></trkpt>
      <trkpt lat="37.971607" lon="23.72496"><time>2026-08-04T10:39:43.562Z</time></trkpt>
      <trkpt lat="37.971672999999996" lon="23.724912500000002"><time>2026-08-04T10:39:49.589Z</time></trkpt>
      <trkpt lat="37.971739" lon="23.724865"><time>2026-08-04T10:39:55.616Z</time></trkpt>
      <trkpt lat="37.971737" lon="23.724849"><time>2026-08-04T10:39:56.630Z</time></trkpt>
      <trkpt lat="37.971613" lon="23.724883"><time>2026-08-04T10:40:06.707Z</time></trkpt>
      <trkpt lat="37.971611" lon="23.72487"><time>2026-08-04T10:40:07.536Z</time></trkpt>
      <trkpt lat="37.971602" lon="23.724785"><time>2026-08-04T10:40:12.906Z</time></trkpt>
      <trkpt lat="37.9716" lon="23.724769"><time>2026-08-04T10:40:13.920Z</time></trkpt>
      <trkpt lat="37.971568" lon="23.724752"><time>2026-08-04T10:40:16.675Z</time></trkpt>
      <trkpt lat="37.971559" lon="23.724691"><time>2026-08-04T10:40:20.561Z</time></trkpt>
      <trkpt lat="37.971555" lon="23.72467"><time>2026-08-04T10:40:21.914Z</time></trkpt>
      <trkpt lat="37.97156" lon="23.724652"><time>2026-08-04T10:40:23.109Z</time></trkpt>
      <trkpt lat="37.971586" lon="23.724644"><time>2026-08-04T10:40:25.234Z</time></trkpt>
      <trkpt lat="37.971613" lon="23.724638"><time>2026-08-04T10:40:27.411Z</time></trkpt>
      <trkpt lat="37.971628" lon="23.724634"><time>2026-08-04T10:40:28.628Z</time></trkpt>
      <trkpt lat="37.971625" lon="23.724617"><time>2026-08-04T10:40:29.719Z</time></trkpt>
      <trkpt lat="37.971623" lon="23.724609"><time>2026-08-04T10:40:30.244Z</time></trkpt>
      <trkpt lat="37.971619" lon="23.72458"><time>2026-08-04T10:40:32.088Z</time></trkpt>
      <trkpt lat="37.97161" lon="23.724523"><time>2026-08-04T10:40:35.728Z</time></trkpt>
      <trkpt lat="37.971565" lon="23.724517"><time>2026-08-04T10:40:39.321Z</time></trkpt>
      <trkpt lat="37.971481" lon="23.724488"><time>2026-08-04T10:40:46.236Z</time></trkpt>
      <trkpt lat="37.971432" lon="23.72447"><time>2026-08-04T10:40:50.287Z</time></trkpt>
      <trkpt lat="37.971343" lon="23.724407"><time>2026-08-04T10:40:58.382Z</time></trkpt>
      <trkpt lat="37.971276" lon="23.724351"><time>2026-08-04T10:41:04.755Z</time></trkpt>
      <trkpt lat="37.971311" lon="23.724216"><time>2026-08-04T10:41:13.653Z</time></trkpt>
      <trkpt lat="37.971294" lon="23.72418"><time>2026-08-04T10:41:16.281Z</time></trkpt>
      <trkpt lat="37.971197" lon="23.724076"><time>2026-08-04T10:41:26.368Z</time></trkpt>
      <trkpt lat="37.971189" lon="23.724038"><time>2026-08-04T10:41:28.831Z</time></trkpt>
      <trkpt lat="37.971206" lon="23.723941"><time>2026-08-04T10:41:35.052Z</time></trkpt>
      <trkpt lat="37.971223" lon="23.723844"><time>2026-08-04T10:41:41.274Z</time></trkpt>
      <trkpt lat="37.971229" lon="23.723762"><time>2026-08-04T10:41:46.430Z</time></trkpt>
      <trkpt lat="37.971231" lon="23.72373"><time>2026-08-04T10:41:48.440Z</time></trkpt>
      <trkpt lat="37.971219" lon="23.723751"><time>2026-08-04T10:41:50.064Z</time></trkpt>
      <trkpt lat="37.971171" lon="23.723746"><time>2026-08-04T10:41:53.889Z</time></trkpt>
      <trkpt lat="37.971134" lon="23.723748"><time>2026-08-04T10:41:56.831Z</time></trkpt>
      <trkpt lat="37.971091" lon="23.723748"><time>2026-08-04T10:42:00.246Z</time></trkpt>
      <trkpt lat="37.97103" lon="23.723749"><time>2026-08-04T10:42:05.091Z</time></trkpt>
      <trkpt lat="37.970953" lon="23.72373"><time>2026-08-04T10:42:11.322Z</time></trkpt>
      <trkpt lat="37.970918" lon="23.723791"><time>2026-08-04T10:42:16.046Z</time></trkpt>
      <trkpt lat="37.970881" lon="23.723837"><time>2026-08-04T10:42:20.160Z</time></trkpt>
      <trkpt lat="37.970855" lon="23.723852"><time>2026-08-04T10:42:22.429Z</time></trkpt>
      <trkpt lat="37.970816" lon="23.723857"><time>2026-08-04T10:42:25.542Z</time></trkpt>
      <trkpt lat="37.970769" lon="23.723847"><time>2026-08-04T10:42:29.328Z</time></trkpt>
      <trkpt lat="37.970738" lon="23.723857"><time>2026-08-04T10:42:31.868Z</time></trkpt>
      <trkpt lat="37.970722" lon="23.723875"><time>2026-08-04T10:42:33.567Z</time></trkpt>
      <trkpt lat="37.970693" lon="23.723894"><time>2026-08-04T10:42:36.159Z</time></trkpt>
      <trkpt lat="37.970662" lon="23.723899"><time>2026-08-04T10:42:38.641Z</time></trkpt>
      <trkpt lat="37.9705885" lon="23.7238995"><time>2026-08-04T10:42:44.479Z</time></trkpt>
      <trkpt lat="37.970515" lon="23.7239"><time>2026-08-04T10:42:50.317Z</time></trkpt>
      <trkpt lat="37.97046" lon="23.723875"><time>2026-08-04T10:42:54.957Z</time></trkpt>
      <trkpt lat="37.970396" lon="23.723818"><time>2026-08-04T10:43:01.168Z</time></trkpt>
      <trkpt lat="37.970306" lon="23.723893"><time>2026-08-04T10:43:09.721Z</time></trkpt>
      <trkpt lat="37.970196" lon="23.723977"><time>2026-08-04T10:43:19.918Z</time></trkpt>
      <trkpt lat="37.9701175" lon="23.7239645"><time>2026-08-04T10:43:26.202Z</time></trkpt>
      <trkpt lat="37.970039" lon="23.723952"><time>2026-08-04T10:43:32.486Z</time></trkpt>
      <trkpt lat="37.970021" lon="23.724088"><time>2026-08-04T10:43:41.121Z</time></trkpt>
      <trkpt lat="37.970011" lon="23.724159"><time>2026-08-04T10:43:45.637Z</time></trkpt>
      <trkpt lat="37.96995733333333" lon="23.724077"><time>2026-08-04T10:43:52.310Z</time></trkpt>
      <trkpt lat="37.96990366666667" lon="23.723995"><time>2026-08-04T10:43:58.983Z</time></trkpt>
      <trkpt lat="37.96985" lon="23.723913"><time>2026-08-04T10:44:05.656Z</time></trkpt>
      <trkpt lat="37.969781499999996" lon="23.723850499999998"><time>2026-08-04T10:44:12.358Z</time></trkpt>
      <trkpt lat="37.969713" lon="23.723788"><time>2026-08-04T10:44:19.059Z</time></trkpt>
      <trkpt lat="37.969674" lon="23.723701"><time>2026-08-04T10:44:25.326Z</time></trkpt>
      <trkpt lat="37.969635" lon="23.723614"><time>2026-08-04T10:44:31.592Z</time></trkpt>
      <trkpt lat="37.969644" lon="23.723551"><time>2026-08-04T10:44:35.601Z</time></trkpt>
      <trkpt lat="37.969581" lon="23.72345"><time>2026-08-04T10:44:43.665Z</time></trkpt>
      <trkpt lat="37.969548" lon="23.723543499999998"><time>2026-08-04T10:44:50.080Z</time></trkpt>
      <trkpt lat="37.969515" lon="23.723637"><time>2026-08-04T10:44:56.494Z</time></trkpt>
      <trkpt lat="37.969445" lon="23.723597"><time>2026-08-04T10:45:02.592Z</time></trkpt>
      <trkpt lat="37.9694" lon="23.7236"><time>2026-08-04T10:45:06.171Z</time></trkpt>
      <trkpt lat="37.969324" lon="23.723606500000002"><time>2026-08-04T10:45:12.221Z</time></trkpt>
      <trkpt lat="37.969248" lon="23.723613"><time>2026-08-04T10:45:18.271Z</time></trkpt>
      <trkpt lat="37.969169" lon="23.723623"><time>2026-08-04T10:45:24.577Z</time></trkpt>
      <trkpt lat="37.96909" lon="23.723633"><time>2026-08-04T10:45:30.882Z</time></trkpt>
      <trkpt lat="37.96900183333334" lon="23.723641166666667"><time>2026-08-04T10:45:37.904Z</time></trkpt>
      <trkpt lat="37.968913666666666" lon="23.723649333333334"><time>2026-08-04T10:45:44.925Z</time></trkpt>
      <trkpt lat="37.9688255" lon="23.7236575"><time>2026-08-04T10:45:51.946Z</time></trkpt>
      <trkpt lat="37.96873733333334" lon="23.723665666666665"><time>2026-08-04T10:45:58.968Z</time></trkpt>
      <trkpt lat="37.968649166666665" lon="23.723673833333333"><time>2026-08-04T10:46:05.989Z</time></trkpt>
      <trkpt lat="37.968561" lon="23.723682"><time>2026-08-04T10:46:13.010Z</time></trkpt>
      <trkpt lat="37.968568" lon="23.723852"><time>2026-08-04T10:46:23.669Z</time></trkpt>
      <trkpt lat="37.968526" lon="23.723899"><time>2026-08-04T10:46:28.117Z</time></trkpt>
      <trkpt lat="37.968472" lon="23.72396"><time>2026-08-04T10:46:33.861Z</time></trkpt>
      <trkpt lat="37.968472" lon="23.72396"><time>2026-08-04T10:47:03.861Z</time></trkpt>
      <trkpt lat="37.968526" lon="23.723899"><time>2026-08-04T10:47:09.604Z</time></trkpt>
      <trkpt lat="37.968568" lon="23.723852"><time>2026-08-04T10:47:14.052Z</time></trkpt>
      <trkpt lat="37.968561" lon="23.723682"><time>2026-08-04T10:47:24.711Z</time></trkpt>
      <trkpt lat="37.968649166666665" lon="23.723673833333333"><time>2026-08-04T10:47:31.732Z</time></trkpt>
      <trkpt lat="37.96873733333334" lon="23.723665666666665"><time>2026-08-04T10:47:38.754Z</time></trkpt>
      <trkpt lat="37.9688255" lon="23.7236575"><time>2026-08-04T10:47:45.775Z</time></trkpt>
      <trkpt lat="37.968913666666666" lon="23.723649333333334"><time>2026-08-04T10:47:52.796Z</time></trkpt>
      <trkpt lat="37.96900183333334" lon="23.723641166666667"><time>2026-08-04T10:47:59.818Z</time></trkpt>
      <trkpt lat="37.96909" lon="23.723633"><time>2026-08-04T10:48:06.839Z</time></trkpt>
      <trkpt lat="37.969169" lon="23.723623"><time>2026-08-04T10:48:13.145Z</time></trkpt>
      <trkpt lat="37.969248" lon="23.723613"><time>2026-08-04T10:48:19.450Z</time></trkpt>
      <trkpt lat="37.969324" lon="23.723606500000002"><time>2026-08-04T10:48:25.500Z</time></trkpt>
      <trkpt lat="37.9694" lon="23.7236"><time>2026-08-04T10:48:31.550Z</time></trkpt>
      <trkpt lat="37.969445" lon="23.723597"><time>2026-08-04T10:48:35.129Z</time></trkpt>
      <trkpt lat="37.969515" lon="23.723637"><time>2026-08-04T10:48:41.227Z</time></trkpt>
      <trkpt lat="37.969548" lon="23.723543499999998"><time>2026-08-04T10:48:47.641Z</time></trkpt>
      <trkpt lat="37.969581" lon="23.72345"><time>2026-08-04T10:48:54.056Z</time></trkpt>
      <trkpt lat="37.969644" lon="23.723551"><time>2026-08-04T10:49:02.120Z</time></trkpt>
      <trkpt lat="37.969635" lon="23.723614"><time>2026-08-04T10:49:06.129Z</time></trkpt>
      <trkpt lat="37.969674" lon="23.723701"><time>2026-08-04T10:49:12.395Z</time></trkpt>
      <trkpt lat="37.969713" lon="23.723788"><time>2026-08-04T10:49:18.662Z</time></trkpt>
      <trkpt lat="37.969781499999996" lon="23.723850499999998"><time>2026-08-04T10:49:25.364Z</time></trkpt>
      <trkpt lat="37.96985" lon="23.723913"><time>2026-08-04T10:49:32.065Z</time></trkpt>
      <trkpt lat="37.96990366666667" lon="23.723995"><time>2026-08-04T10:49:38.739Z</time></trkpt>
      <trkpt lat="37.96995733333333" lon="23.724077"><time>2026-08-04T10:49:45.412Z</time></trkpt>
      <trkpt lat="37.970011" lon="23.724159"><time>2026-08-04T10:49:52.085Z</time></trkpt>
      <trkpt lat="37.970021" lon="23.724088"><time>2026-08-04T10:49:56.601Z</time></trkpt>
      <trkpt lat="37.970039" lon="23.723952"><time>2026-08-04T10:50:05.235Z</time></trkpt>
      <trkpt lat="37.970052333333335" lon="23.723856"><time>2026-08-04T10:50:11.339Z</time></trkpt>
      <trkpt lat="37.97006566666666" lon="23.72376"><time>2026-08-04T10:50:17.442Z</time></trkpt>
      <trkpt lat="37.970079" lon="23.723664"><time>2026-08-04T10:50:23.546Z</time></trkpt>
      <trkpt lat="37.970099" lon="23.723523"><time>2026-08-04T10:50:32.516Z</time></trkpt>
      <trkpt lat="37.970099" lon="23.723523"><time>2026-08-04T10:51:02.516Z</time></trkpt>
    </trkseg>
  </trk>
</gpx>
