<?xml version="1.0" encoding="UTF-8"?>
<gpx version="1.1" creator="CityPaths" xmlns="http://www.topografix.com/GPX/1/1">
  <trk>
    <name>National Garden Stroll</name>
    <trkseg>
      <trkpt lat="37.974344" lon="23.736659"><time>2026-08-04T10:37:43.218Z</time></trkpt>
      <trkpt lat="37.974344" lon="23.736659"><time>2026-08-04T10:37:43.218Z</time></trkpt>
      <trkpt lat="37.974338" lon="23.736649"><time>2026-08-04T10:37:44.004Z</time></trkpt>
      <trkpt lat="37.974338" lon="23.736649"><time>2026-08-04T10:38:14.004Z</time></trkpt>
      <trkpt lat="37.974332" lon="23.736639"><time>2026-08-04T10:38:14.791Z</time></trkpt>
      <trkpt lat="37.974325" lon="23.73663"><time>2026-08-04T10:38:15.583Z</time></trkpt>
      <trkpt lat="37.974317" lon="23.73662"><time>2026-08-04T10:38:16.475Z</time></trkpt>
      <trkpt lat="37.974309" lon="23.73661"><time>2026-08-04T10:38:17.367Z</time></trkpt>
      <trkpt lat="37.974301" lon="23.7366"><time>2026-08-04T10:38:18.259Z</time></trkpt>
      <trkpt lat="37.974292" lon="23.73659"><time>2026-08-04T10:38:19.209Z</time></trkpt>
      <trkpt lat="37.974283" lon="23.73658"><time>2026-08-04T10:38:20.159Z</time></trkpt>
      <trkpt lat="37.974274" lon="23.73657"><time>2026-08-04T10:38:21.110Z</time></trkpt>
      <trkpt lat="37.974264" lon="23.73656"><time>2026-08-04T10:38:22.121Z</time></trkpt>
      <trkpt lat="37.974253" lon="23.73655"><time>2026-08-04T10:38:23.196Z</time></trkpt>
      <trkpt lat="37.974242" lon="23.73654"><time>2026-08-04T10:38:24.271Z</time></trkpt>
      <trkpt lat="37.974231" lon="23.736529"><time>2026-08-04T10:38:25.383Z</time></trkpt>
      <trkpt lat="37.974219" lon="23.736519"><time>2026-08-04T10:38:26.523Z</time></trkpt>
      <trkpt lat="37.974207" lon="23.736508"><time>2026-08-04T10:38:27.699Z</time></trkpt>
      <trkpt lat="37.974195" lon="23.736498"><time>2026-08-04T10:38:28.840Z</time></trkpt>
      <trkpt lat="37.974183" lon="23.736488"><time>2026-08-04T10:38:29.980Z</time></trkpt>
      <trkpt lat="37.974171" lon="23.736478"><time>2026-08-04T10:38:31.120Z</time></trkpt>
      <trkpt lat="37.974158" lon="23.736469"><time>2026-08-04T10:38:32.297Z</time></trkpt>
      <trkpt lat="37.974146" lon="23.736461"><time>2026-08-04T10:38:33.373Z</time></trkpt>
      <trkpt lat="37.974133" lon="23.736452"><time>2026-08-04T10:38:34.550Z</time></trkpt>
      <trkpt lat="37.974121" lon="23.736444"><time>2026-08-04T10:38:35.626Z</time></trkpt>
      <trkpt lat="37.974109" lon="23.736436"><time>2026-08-04T10:38:36.703Z</time></trkpt>
      <trkpt lat="37.974097" lon="23.736429"><time>2026-08-04T10:38:37.752Z</time></trkpt>
      <trkpt lat="37.974085" lon="23.736422"><time>2026-08-04T10:38:38.801Z</time></trkpt>
      <trkpt lat="37.974074" lon="23.736416"><time>2026-08-04T10:38:39.752Z</time></trkpt>
      <trkpt lat="37.974062" lon="23.736409"><time>2026-08-04T10:38:40.801Z</time></trkpt>
      <trkpt lat="37.974052" lon="23.736403"><time>2026-08-04T10:38:41.680Z</time></trkpt>
      <trkpt lat="37.974041" lon="23.736398"><time>2026-08-04T10:38:42.608Z</time></trkpt>
      <trkpt lat="37.974031" lon="23.736393"><time>2026-08-04T10:38:43.462Z</time></trkpt>
      <trkpt lat="37.974021" lon="23.736388"><time>2026-08-04T10:38:44.315Z</time></trkpt>
      <trkpt lat="37.974012" lon="23.736384"><time>2026-08-04T10:38:45.073Z</time></trkpt>
      <trkpt lat="37.974003" lon="23.73638"><time>2026-08-04T10:38:45.830Z</time></trkpt>
      <trkpt lat="37.973995" lon="23.736376"><time>2026-08-04T10:38:46.513Z</time></trkpt>
      <trkpt lat="37.973987" lon="23.736373"><time>2026-08-04T10:38:47.176Z</time></trkpt>
      <trkpt lat="37.973979" lon="23.736369"><time>2026-08-04T10:38:47.859Z</time></trkpt>
      <trkpt lat="37.973971" lon="23.736366"><time>2026-08-04T10:38:48.521Z</time></trkpt>
      <trkpt lat="37.973964" lon="23.736362"><time>2026-08-04T10:38:49.131Z</time></trkpt>
      <trkpt lat="37.973956" lon="23.736358"><time>2026-08-04T10:38:49.814Z</time></trkpt>
      <trkpt lat="37.973949" lon="23.736354"><time>2026-08-04T10:38:50.424Z</time></trkpt>
      <trkpt lat="37.973942" lon="23.73635"><time>2026-08-04T10:38:51.034Z</time></trkpt>
      <trkpt lat="37.973935" lon="23.736346"><time>2026-08-04T10:38:51.643Z</time></trkpt>
      <trkpt lat="37.973928" lon="23.736343"><time>2026-08-04T10:38:52.230Z</time></trkpt>
      <trkpt lat="37.973922" lon="23.736339"><time>2026-08-04T10:38:52.769Z</time></trkpt>
      <trkpt lat="37.973916" lon="23.736336"><time>2026-08-04T10:38:53.281Z</time></trkpt>
      <trkpt lat="37.97391" lon="23.736332"><time>2026-08-04T10:38:53.819Z</time></trkpt>
      <trkpt lat="37.973905" lon="23.73633"><time>2026-08-04T10:38:54.236Z</time></trkpt>
      <trkpt lat="37.973901" lon="23.736327"><time>2026-08-04T10:38:54.605Z</time></trkpt>
      <trkpt lat="37.973897" lon="23.736325"><time>2026-08-04T10:38:54.946Z</time></trkpt>
      <trkpt lat="37.973894" lon="23.736323"><time>2026-08-04T10:38:55.215Z</time></trkpt>
      <trkpt lat="37.973891" lon="23.736321"><time>2026-08-04T10:38:55.484Z</time></trkpt>
      <trkpt lat="37.973889" lon="23.73632"><time>2026-08-04T10:38:55.655Z</time></trkpt>
      <trkpt lat="37.973888" lon="23.736319"><time>2026-08-04T10:38:55.756Z</time></trkpt>
      <trkpt lat="37.9739045" lon="23.736178000000002"><time>2026-08-04T10:39:04.681Z</time></trkpt>
      <trkpt lat="37.973921" lon="23.736037"><time>2026-08-04T10:39:13.606Z</time></trkpt>
      <trkpt lat="37.973830799999995" lon="23.7359896"><time>2026-08-04T10:39:21.360Z</time></trkpt>
      <trkpt lat="37.9737406" lon="23.7359422"><time>2026-08-04T10:39:29.115Z</time></trkpt>
      <trkpt lat="37.9736504" lon="23.7358948"><time>2026-08-04T10:39:36.869Z</time></trkpt>
      <trkpt lat="37.9735602" lon="23.7358474"><time>2026-08-04T10:39:44.624Z</time></trkpt>
      <trkpt lat="37.97347" lon="23.7358"><time>2026-08-04T10:39:52.378Z</time></trkpt>
      <trkpt lat="37.97344" lon="23.735792"><time>2026-08-04T10:39:54.813Z</time></trkpt>
      <trkpt lat="37.973353499999995" lon="23.735745"><time>2026-08-04T10:40:02.287Z</time></trkpt>
      <trkpt lat="37.973267" lon="23.735698"><time>2026-08-04T10:40:09.761Z</time></trkpt>
      <trkpt lat="37.9731805" lon="23.735651"><time>2026-08-04T10:40:17.235Z</time></trkpt>
      <trkpt lat="37.973094" lon="23.735604000000002"><time>2026-08-04T10:40:24.709Z</time></trkpt>
      <trkpt lat="37.9730075" lon="23.735557"><time>2026-08-04T10:40:32.183Z</time></trkpt>
      <trkpt lat="37.972921" lon="23.73551"><time>2026-08-04T10:40:39.657Z</time></trkpt>
      <trkpt lat="37.972834500000005" lon="23.735463"><time>2026-08-04T10:40:47.131Z</time></trkpt>
      <trkpt lat="37.972748" lon="23.735416"><time>2026-08-04T10:40:54.605Z</time></trkpt>
      <trkpt lat="37.972698" lon="23.735389"><time>2026-08-04T10:40:58.921Z</time></trkpt>
      <trkpt lat="37.972692" lon="23.735394"><time>2026-08-04T10:40:59.491Z</time></trkpt>
      <trkpt lat="37.972683" lon="23.735403"><time>2026-08-04T10:41:00.401Z</time></trkpt>
      <trkpt lat="37.972663" lon="23.73539"><time>2026-08-04T10:41:02.186Z</time></trkpt>
      <trkpt lat="37.972643" lon="23.735377"><time>2026-08-04T10:41:03.971Z</time></trkpt>
      <trkpt lat="37.972623" lon="23.735365"><time>2026-08-04T10:41:05.728Z</time></trkpt>
      <trkpt lat="37.972603" lon="23.735353"><time>2026-08-04T10:41:07.485Z</time></trkpt>
      <trkpt lat="37.972583" lon="23.735342"><time>2026-08-04T10:41:09.217Z</time></trkpt>
      <trkpt lat="37.972564" lon="23.735332"><time>2026-08-04T10:41:10.851Z</time></trkpt>
      <trkpt lat="37.972545" lon="23.735323"><time>2026-08-04T10:41:12.461Z</time></trkpt>
      <trkpt lat="37.972527" lon="23.735314"><time>2026-08-04T10:41:13.998Z</time></trkpt>
      <trkpt lat="37.97251" lon="23.735305"><time>2026-08-04T10:41:15.461Z</time></trkpt>
      <trkpt lat="37.972493" lon="23.735298"><time>2026-08-04T10:41:16.881Z</time></trkpt>
      <trkpt lat="37.972478" lon="23.735291"><time>2026-08-04T10:41:18.150Z</time></trkpt>
      <trkpt lat="37.972417" lon="23.73526"><time>2026-08-04T10:41:23.369Z</time></trkpt>
      <trkpt lat="37.9723455" lon="23.735235"><time>2026-08-04T10:41:29.260Z</time></trkpt>
      <trkpt lat="37.972274" lon="23.73521"><time>2026-08-04T10:41:35.151Z</time></trkpt>
      <trkpt lat="37.972272" lon="23.735109"><time>2026-08-04T10:41:41.477Z</time></trkpt>
      <trkpt lat="37.972249" lon="23.735009"><time>2026-08-04T10:41:47.999Z</time></trkpt>
      <trkpt lat="37.972209" lon="23.734851"><time>2026-08-04T10:41:58.389Z</time></trkpt>
      <trkpt lat="37.972177" lon="23.734764499999997"><time>2026-08-04T10:42:04.372Z</time></trkpt>
      <trkpt lat="37.972145" lon="23.734678"><time>2026-08-04T10:42:10.354Z</time></trkpt>
      <trkpt lat="37.9720965" lon="23.734578499999998"><time>2026-08-04T10:42:17.679Z</time></trkpt>
      <trkpt lat="37.972048" lon="23.734479"><time>2026-08-04T10:42:25.003Z</time></trkpt>
      <trkpt lat="37.971994" lon="23.734378"><time>2026-08-04T10:42:32.644Z</time></trkpt>
      <trkpt lat="37.97194533333334" lon="23.734466666666666"><time>2026-08-04T10:42:39.409Z</time></trkpt>
      <trkpt lat="37.971896666666666" lon="23.734555333333333"><time>2026-08-04T10:42:46.174Z</time></trkpt>
      <trkpt lat="37.971848" lon="23.734644"><time>2026-08-04T10:42:52.938Z</time></trkpt>
      <trkpt lat="37.971759500000005" lon="23.7346665"><time>2026-08-04T10:43:00.107Z</time></trkpt>
      <trkpt lat="37.971671" lon="23.734689"><time>2026-08-04T10:43:07.276Z</time></trkpt>
      <trkpt lat="37.971578" lon="23.734703"><time>2026-08-04T10:43:14.715Z</time></trkpt>
      <trkpt lat="37.971491" lon="23.734749"><time>2026-08-04T10:43:22.201Z</time></trkpt>
      <trkpt lat="37.971404" lon="23.734795"><time>2026-08-04T10:43:29.687Z</time></trkpt>
      <trkpt lat="37.971317" lon="23.734841"><time>2026-08-04T10:43:37.173Z</time></trkpt>
      <trkpt lat="37.9712485" lon="23.7348715"><time>2026-08-04T10:43:42.939Z</time></trkpt>
      <trkpt lat="37.97118" lon="23.734902"><time>2026-08-04T10:43:48.705Z</time></trkpt>
      <trkpt lat="37.971093999999994" lon="23.7349505"><time>2026-08-04T10:43:56.180Z</time></trkpt>
      <trkpt lat="37.971008" lon="23.734999"><time>2026-08-04T10:44:03.655Z</time></trkpt>
      <trkpt lat="37.970968" lon="23.735042"><time>2026-08-04T10:44:07.820Z</time></trkpt>
      <trkpt lat="37.970948" lon="23.735078"><time>2026-08-04T10:44:10.577Z</time></trkpt>
      <trkpt lat="37.970925" lon="23.735119"><time>2026-08-04T10:44:13.728Z</time></trkpt>
      <trkpt lat="37.970926" lon="23.735184"><time>2026-08-04T10:44:17.799Z</time></trkpt>
      <trkpt lat="37.970874" lon="23.735193"><time>2026-08-04T10:44:21.967Z</time></trkpt>
      <trkpt lat="37.970788999999996" lon="23.735221"><time>2026-08-04T10:44:28.942Z</time></trkpt>
      <trkpt lat="37.970704" lon="23.735249"><time>2026-08-04T10:44:35.917Z</time></trkpt>
      <trkpt lat="37.970696" lon="23.735237"><time>2026-08-04T10:44:36.901Z</time></trkpt>
      <trkpt lat="37.970679" lon="23.735216"><time>2026-08-04T10:44:38.786Z</time></trkpt>
      <trkpt lat="37.970662" lon="23.735195"><time>2026-08-04T10:44:40.670Z</time></trkpt>
      <trkpt lat="37.970643" lon="23.735176"><time>2026-08-04T10:44:42.592Z</time></trkpt>
      <trkpt lat="37.970623" lon="23.735156"><time>2026-08-04T10:44:44.615Z</time></trkpt>
      <trkpt lat="37.970601" lon="23.735138"><time>2026-08-04T10:44:46.694Z</time></trkpt>
      <trkpt lat="37.970579" lon="23.735121"><time>2026-08-04T10:44:48.740Z</time></trkpt>
      <trkpt lat="37.970555" lon="23.735105"><time>2026-08-04T10:44:50.894Z</time></trkpt>
      <trkpt lat="37.970531" lon="23.735091"><time>2026-08-04T10:44:52.992Z</time></trkpt>
      <trkpt lat="37.970507" lon="23.735078"><time>2026-08-04T10:44:55.064Z</time></trkpt>
      <trkpt lat="37.970482" lon="23.735067"><time>2026-08-04T10:44:57.166Z</time></trkpt>
      <trkpt lat="37.970458" lon="23.735058"><time>2026-08-04T10:44:59.154Z</time></trkpt>
      <trkpt lat="37.970434" lon="23.73505"><time>2026-08-04T10:45:01.125Z</time></trkpt>
      <trkpt lat="37.970411" lon="23.735044"><time>2026-08-04T10:45:02.990Z</time></trkpt>
      <trkpt lat="37.970394" lon="23.735041"><time>2026-08-04T10:45:04.353Z</time></trkpt>
      <trkpt lat="37.970388" lon="23.73504"><time>2026-08-04T10:45:04.834Z</time></trkpt>
      <trkpt lat="37.970366" lon="23.735038"><time>2026-08-04T10:45:06.585Z</time></trkpt>
      <trkpt lat="37.970344" lon="23.735037"><time>2026-08-04T10:45:08.334Z</time></trkpt>
      <trkpt lat="37.970323" lon="23.735039"><time>2026-08-04T10:45:10.006Z</time></trkpt>
      <trkpt lat="37.970302" lon="23.735041"><time>2026-08-04T10:45:11.679Z</time></trkpt>
      <trkpt lat="37.970283" lon="23.735046"><time>2026-08-04T10:45:13.220Z</time></trkpt>
      <trkpt lat="37.970265" lon="23.735052"><time>2026-08-04T10:45:14.698Z</time></trkpt>
      <trkpt lat="37.970248" lon="23.73506"><time>2026-08-04T10:45:16.139Z</time></trkpt>
      <trkpt lat="37.970232" lon="23.73507"><time>2026-08-04T10:45:17.555Z</time></trkpt>
      <trkpt lat="37.970217" lon="23.735081"><time>2026-08-04T10:45:18.931Z</time></trkpt>
      <trkpt lat="37.970204" lon="23.735094"><time>2026-08-04T10:45:20.246Z</time></trkpt>
      <trkpt lat="37.970193" lon="23.735108"><time>2026-08-04T10:45:21.484Z</time></trkpt>
      <trkpt lat="37.970183" lon="23.735124"><time>2026-08-04T10:45:22.762Z</time></trkpt>
      <trkpt lat="37.970175" lon="23.735142"><time>2026-08-04T10:45:24.056Z</time></trkpt>
      <trkpt lat="37.970168" lon="23.735161"><time>2026-08-04T10:45:25.369Z</time></trkpt>
      <trkpt lat="37.970164" lon="23.73518"><time>2026-08-04T10:45:26.601Z</time></trkpt>
      <trkpt lat="37.970162" lon="23.735201"><time>2026-08-04T10:45:27.925Z</time></trkpt>
      <trkpt lat="37.970161" lon="23.735222"><time>2026-08-04T10:45:29.242Z</time></trkpt>
      <trkpt lat="37.970163" lon="23.735243"><time>2026-08-04T10:45:30.567Z</time></trkpt>
      <trkpt lat="37.970166" lon="23.735265"><time>2026-08-04T10:45:31.965Z</time></trkpt>
      <trkpt lat="37.970172" lon="23.735287"><time>2026-08-04T10:45:33.422Z</time></trkpt>
      <trkpt lat="37.970179" lon="23.735309"><time>2026-08-04T10:45:34.908Z</time></trkpt>
      <trkpt lat="37.970187" lon="23.735332"><time>2026-08-04T10:45:36.482Z</time></trkpt>
      <trkpt lat="37.970197" lon="23.735354"><time>2026-08-04T10:45:38.072Z</time></trkpt>
      <trkpt lat="37.970197" lon="23.735354"><time>2026-08-04T10:46:08.072Z</time></trkpt>
      <trkpt lat="37.970197" lon="23.735354"><time>2026-08-04T10:46:08.072Z</time></trkpt>
    </trkseg>
  </trk>
</gpx>
