<?xml version="1.0" encoding="UTF-8"?>
<gpx version="1.1" creator="CityPaths" xmlns="http://www.topografix.com/GPX/1/1">
  <trk>
    <name>Thissio to Kerameikos</name>
    <trkseg>
      <trkpt lat="37.976962" lon="23.719988"><time>2026-08-04T10:37:43.479Z</time></trkpt>
      <trkpt lat="37.976962" lon="23.719988"><time>2026-08-04T10:38:13.479Z</time></trkpt>
      <trkpt lat="37.976961" lon="23.719992"><time>2026-08-04T10:38:13.741Z</time></trkpt>
      <trkpt lat="37.976958" lon="23.720003"><time>2026-08-04T10:38:14.470Z</time></trkpt>
      <trkpt lat="37.976956" lon="23.720011"><time>2026-08-04T10:38:14.995Z</time></trkpt>
      <trkpt lat="37.976922800000004" lon="23.7201228"><time>2026-08-04T10:38:22.475Z</time></trkpt>
      <trkpt lat="37.9768896" lon="23.720234599999998"><time>2026-08-04T10:38:29.955Z</time></trkpt>
      <trkpt lat="37.9768564" lon="23.7203464"><time>2026-08-04T10:38:37.435Z</time></trkpt>
      <trkpt lat="37.9768232" lon="23.7204582"><time>2026-08-04T10:38:44.914Z</time></trkpt>
      <trkpt lat="37.97679" lon="23.72057"><time>2026-08-04T10:38:52.394Z</time></trkpt>
      <trkpt lat="37.976781" lon="23.720612"><time>2026-08-04T10:38:55.119Z</time></trkpt>
      <trkpt lat="37.976771" lon="23.720604"><time>2026-08-04T10:38:56.058Z</time></trkpt>
      <trkpt lat="37.976766" lon="23.7206"><time>2026-08-04T10:38:56.528Z</time></trkpt>
      <trkpt lat="37.976682" lon="23.720585"><time>2026-08-04T10:39:03.265Z</time></trkpt>
      <trkpt lat="37.976664" lon="23.720581"><time>2026-08-04T10:39:04.716Z</time></trkpt>
      <trkpt lat="37.976617" lon="23.720574"><time>2026-08-04T10:39:08.475Z</time></trkpt>
      <trkpt lat="37.976611" lon="23.720573"><time>2026-08-04T10:39:08.956Z</time></trkpt>
      <trkpt lat="37.976575" lon="23.720567"><time>2026-08-04T10:39:11.840Z</time></trkpt>
      <trkpt lat="37.976528" lon="23.720559"><time>2026-08-04T10:39:15.606Z</time></trkpt>
      <trkpt lat="37.976518" lon="23.720558"><time>2026-08-04T10:39:16.403Z</time></trkpt>
      <trkpt lat="37.976507" lon="23.720556"><time>2026-08-04T10:39:17.285Z</time></trkpt>
      <trkpt lat="37.976466" lon="23.720548"><time>2026-08-04T10:39:20.580Z</time></trkpt>
      <trkpt lat="37.976462" lon="23.720547"><time>2026-08-04T10:39:20.904Z</time></trkpt>
      <trkpt lat="37.976458" lon="23.720545"><time>2026-08-04T10:39:21.245Z</time></trkpt>
      <trkpt lat="37.976455" lon="23.720543"><time>2026-08-04T10:39:21.514Z</time></trkpt>
      <trkpt lat="37.976448" lon="23.720538"><time>2026-08-04T10:39:22.152Z</time></trkpt>
      <trkpt lat="37.976433" lon="23.720526"><time>2026-08-04T10:39:23.561Z</time></trkpt>
      <trkpt lat="37.976483" lon="23.720477"><time>2026-08-04T10:39:28.579Z</time></trkpt>
      <trkpt lat="37.976512" lon="23.720451"><time>2026-08-04T10:39:31.400Z</time></trkpt>
      <trkpt lat="37.976532" lon="23.720427"><time>2026-08-04T10:39:33.586Z</time></trkpt>
      <trkpt lat="37.976546" lon="23.720401"><time>2026-08-04T10:39:35.558Z</time></trkpt>
      <trkpt lat="37.976584333333335" lon="23.720286333333334"><time>2026-08-04T10:39:43.355Z</time></trkpt>
      <trkpt lat="37.976622666666664" lon="23.720171666666666"><time>2026-08-04T10:39:51.153Z</time></trkpt>
      <trkpt lat="37.976661" lon="23.720057"><time>2026-08-04T10:39:58.951Z</time></trkpt>
      <trkpt lat="37.9767025" lon="23.719925500000002"><time>2026-08-04T10:40:07.820Z</time></trkpt>
      <trkpt lat="37.976744" lon="23.719794"><time>2026-08-04T10:40:16.688Z</time></trkpt>
      <trkpt lat="37.976777" lon="23.719697"><time>2026-08-04T10:40:23.302Z</time></trkpt>
      <trkpt lat="37.976817499999996" lon="23.71958"><time>2026-08-04T10:40:31.302Z</time></trkpt>
      <trkpt lat="37.976858" lon="23.719463"><time>2026-08-04T10:40:39.303Z</time></trkpt>
      <trkpt lat="37.976884" lon="23.719384"><time>2026-08-04T10:40:44.662Z</time></trkpt>
      <trkpt lat="37.976901" lon="23.719324"><time>2026-08-04T10:40:48.654Z</time></trkpt>
      <trkpt lat="37.976908" lon="23.719294"><time>2026-08-04T10:40:50.613Z</time></trkpt>
      <trkpt lat="37.976911" lon="23.71926"><time>2026-08-04T10:40:52.755Z</time></trkpt>
      <trkpt lat="37.976907" lon="23.719221"><time>2026-08-04T10:40:55.217Z</time></trkpt>
      <trkpt lat="37.976896" lon="23.71915"><time>2026-08-04T10:40:59.747Z</time></trkpt>
      <trkpt lat="37.976882" lon="23.719094"><time>2026-08-04T10:41:03.425Z</time></trkpt>
      <trkpt lat="37.976866" lon="23.719039"><time>2026-08-04T10:41:07.096Z</time></trkpt>
      <trkpt lat="37.976853" lon="23.719002"><time>2026-08-04T10:41:09.632Z</time></trkpt>
      <trkpt lat="37.976848" lon="23.718987"><time>2026-08-04T10:41:10.652Z</time></trkpt>
      <trkpt lat="37.97683" lon="23.718924"><time>2026-08-04T10:41:14.847Z</time></trkpt>
      <trkpt lat="37.976833" lon="23.718881"><time>2026-08-04T10:41:17.550Z</time></trkpt>
      <trkpt lat="37.976839" lon="23.718822"><time>2026-08-04T10:41:21.274Z</time></trkpt>
      <trkpt lat="37.976856" lon="23.718726"><time>2026-08-04T10:41:27.434Z</time></trkpt>
      <trkpt lat="37.9768751" lon="23.7186202"><time>2026-08-04T10:41:34.230Z</time></trkpt>
      <trkpt lat="37.9768942" lon="23.7185144"><time>2026-08-04T10:41:41.025Z</time></trkpt>
      <trkpt lat="37.9769133" lon="23.7184086"><time>2026-08-04T10:41:47.820Z</time></trkpt>
      <trkpt lat="37.976932399999995" lon="23.7183028"><time>2026-08-04T10:41:54.616Z</time></trkpt>
      <trkpt lat="37.9769515" lon="23.718197"><time>2026-08-04T10:42:01.411Z</time></trkpt>
      <trkpt lat="37.9769706" lon="23.7180912"><time>2026-08-04T10:42:08.206Z</time></trkpt>
      <trkpt lat="37.9769897" lon="23.7179854"><time>2026-08-04T10:42:15.002Z</time></trkpt>
      <trkpt lat="37.9770088" lon="23.7178796"><time>2026-08-04T10:42:21.797Z</time></trkpt>
      <trkpt lat="37.977027899999996" lon="23.7177738"><time>2026-08-04T10:42:28.593Z</time></trkpt>
      <trkpt lat="37.977047" lon="23.717668"><time>2026-08-04T10:42:35.388Z</time></trkpt>
      <trkpt lat="37.977079" lon="23.717527"><time>2026-08-04T10:42:44.574Z</time></trkpt>
      <trkpt lat="37.977117" lon="23.717455"><time>2026-08-04T10:42:49.999Z</time></trkpt>
      <trkpt lat="37.97714" lon="23.71741"><time>2026-08-04T10:42:53.357Z</time></trkpt>
      <trkpt lat="37.977154" lon="23.717371"><time>2026-08-04T10:42:56.040Z</time></trkpt>
      <trkpt lat="37.977163" lon="23.71733"><time>2026-08-04T10:42:58.704Z</time></trkpt>
      <trkpt lat="37.977167" lon="23.717253"><time>2026-08-04T10:43:03.535Z</time></trkpt>
      <trkpt lat="37.977168" lon="23.717174"><time>2026-08-04T10:43:08.482Z</time></trkpt>
      <trkpt lat="37.9771655" lon="23.7170385"><time>2026-08-04T10:43:16.968Z</time></trkpt>
      <trkpt lat="37.977163" lon="23.716903"><time>2026-08-04T10:43:25.453Z</time></trkpt>
      <trkpt lat="37.97715633333333" lon="23.716789666666667"><time>2026-08-04T10:43:32.568Z</time></trkpt>
      <trkpt lat="37.97714966666666" lon="23.716676333333332"><time>2026-08-04T10:43:39.684Z</time></trkpt>
      <trkpt lat="37.977143" lon="23.716563"><time>2026-08-04T10:43:46.799Z</time></trkpt>
      <trkpt lat="37.977131" lon="23.716461"><time>2026-08-04T10:43:53.255Z</time></trkpt>
      <trkpt lat="37.97711" lon="23.716336"><time>2026-08-04T10:44:01.257Z</time></trkpt>
      <trkpt lat="37.977079" lon="23.716211"><time>2026-08-04T10:44:09.461Z</time></trkpt>
      <trkpt lat="37.977047" lon="23.716106"><time>2026-08-04T10:44:16.509Z</time></trkpt>
      <trkpt lat="37.97701266666667" lon="23.7159965"><time>2026-08-04T10:44:23.887Z</time></trkpt>
      <trkpt lat="37.976978333333335" lon="23.715887"><time>2026-08-04T10:44:31.265Z</time></trkpt>
      <trkpt lat="37.976944" lon="23.7157775"><time>2026-08-04T10:44:38.643Z</time></trkpt>
      <trkpt lat="37.976909666666664" lon="23.715668"><time>2026-08-04T10:44:46.021Z</time></trkpt>
      <trkpt lat="37.97687533333333" lon="23.7155585"><time>2026-08-04T10:44:53.399Z</time></trkpt>
      <trkpt lat="37.976841" lon="23.715449"><time>2026-08-04T10:45:00.777Z</time></trkpt>
      <trkpt lat="37.976829" lon="23.715408"><time>2026-08-04T10:45:03.515Z</time></trkpt>
      <trkpt lat="37.9767455" lon="23.7153825"><time>2026-08-04T10:45:10.337Z</time></trkpt>
      <trkpt lat="37.976662" lon="23.715357"><time>2026-08-04T10:45:17.158Z</time></trkpt>
      <trkpt lat="37.976568666666665" lon="23.7153345"><time>2026-08-04T10:45:24.704Z</time></trkpt>
      <trkpt lat="37.97647533333333" lon="23.715312"><time>2026-08-04T10:45:32.249Z</time></trkpt>
      <trkpt lat="37.976382" lon="23.7152895"><time>2026-08-04T10:45:39.795Z</time></trkpt>
      <trkpt lat="37.97628866666666" lon="23.715267"><time>2026-08-04T10:45:47.341Z</time></trkpt>
      <trkpt lat="37.97619533333333" lon="23.7152445"><time>2026-08-04T10:45:54.886Z</time></trkpt>
      <trkpt lat="37.976102" lon="23.715222"><time>2026-08-04T10:46:02.432Z</time></trkpt>
      <trkpt lat="37.976022" lon="23.715203"><time>2026-08-04T10:46:08.896Z</time></trkpt>
      <trkpt lat="37.976023" lon="23.715172"><time>2026-08-04T10:46:10.839Z</time></trkpt>
      <trkpt lat="37.97592783333333" lon="23.715149333333333"><time>2026-08-04T10:46:18.529Z</time></trkpt>
      <trkpt lat="37.97583266666666" lon="23.715126666666666"><time>2026-08-04T10:46:26.220Z</time></trkpt>
      <trkpt lat="37.975737499999994" lon="23.715104"><time>2026-08-04T10:46:33.911Z</time></trkpt>
      <trkpt lat="37.97564233333333" lon="23.715081333333334"><time>2026-08-04T10:46:41.601Z</time></trkpt>
      <trkpt lat="37.975547166666665" lon="23.715058666666668"><time>2026-08-04T10:46:49.292Z</time></trkpt>
      <trkpt lat="37.975452" lon="23.715036"><time>2026-08-04T10:46:56.983Z</time></trkpt>
      <trkpt lat="37.975467" lon="23.714985"><time>2026-08-04T10:47:00.391Z</time></trkpt>
      <trkpt lat="37.975467" lon="23.714985"><time>2026-08-04T10:47:30.391Z</time></trkpt>
      <trkpt lat="37.975467" lon="23.714985"><time>2026-08-04T10:47:30.391Z</time></trkpt>
    </trkseg>
  </trk>
</gpx>
