<?xml version="1.0" encoding="UTF-8"?>
<gpx version="1.1" creator="CityPaths" xmlns="http://www.topografix.com/GPX/1/1">
  <trk>
    <name>Historic Center Walk</name>
    <trkseg>
      <trkpt lat="37.975509" lon="23.734802"><time>2026-08-04T10:37:43.124Z</time></trkpt>
      <trkpt lat="37.975509" lon="23.734802"><time>2026-08-04T10:38:13.124Z</time></trkpt>
      <trkpt lat="37.975499" lon="23.734877"><time>2026-08-04T10:38:17.886Z</time></trkpt>
      <trkpt lat="37.97541725" lon="23.734862"><time>2026-08-04T10:38:24.446Z</time></trkpt>
      <trkpt lat="37.9753355" lon="23.734847000000002"><time>2026-08-04T10:38:31.007Z</time></trkpt>
      <trkpt lat="37.97525375" lon="23.734832"><time>2026-08-04T10:38:37.568Z</time></trkpt>
      <trkpt lat="37.975172" lon="23.734817"><time>2026-08-04T10:38:44.128Z</time></trkpt>
      <trkpt lat="37.975187500000004" lon="23.734704999999998"><time>2026-08-04T10:38:51.248Z</time></trkpt>
      <trkpt lat="37.975203" lon="23.734593"><time>2026-08-04T10:38:58.367Z</time></trkpt>
      <trkpt lat="37.9752185" lon="23.734481000000002"><time>2026-08-04T10:39:05.486Z</time></trkpt>
      <trkpt lat="37.975234" lon="23.734369"><time>2026-08-04T10:39:12.606Z</time></trkpt>
      <trkpt lat="37.975128" lon="23.734344"><time>2026-08-04T10:39:21.169Z</time></trkpt>
      <trkpt lat="37.975138" lon="23.734265"><time>2026-08-04T10:39:26.179Z</time></trkpt>
      <trkpt lat="37.975072" lon="23.734251"><time>2026-08-04T10:39:31.493Z</time></trkpt>
      <trkpt lat="37.97503" lon="23.734245"><time>2026-08-04T10:39:34.850Z</time></trkpt>
      <trkpt lat="37.97498" lon="23.734232"><time>2026-08-04T10:39:38.904Z</time></trkpt>
      <trkpt lat="37.974997" lon="23.734104"><time>2026-08-04T10:39:47.031Z</time></trkpt>
      <trkpt lat="37.97501" lon="23.734011"><time>2026-08-04T10:39:52.945Z</time></trkpt>
      <trkpt lat="37.974921875" lon="23.733994875"><time>2026-08-04T10:40:00.016Z</time></trkpt>
      <trkpt lat="37.97483375" lon="23.73397875"><time>2026-08-04T10:40:07.088Z</time></trkpt>
      <trkpt lat="37.974745625" lon="23.733962625"><time>2026-08-04T10:40:14.160Z</time></trkpt>
      <trkpt lat="37.9746575" lon="23.733946500000002"><time>2026-08-04T10:40:21.232Z</time></trkpt>
      <trkpt lat="37.974569375" lon="23.733930375"><time>2026-08-04T10:40:28.303Z</time></trkpt>
      <trkpt lat="37.97448125" lon="23.73391425"><time>2026-08-04T10:40:35.375Z</time></trkpt>
      <trkpt lat="37.974393125" lon="23.733898125"><time>2026-08-04T10:40:42.447Z</time></trkpt>
      <trkpt lat="37.974305" lon="23.733882"><time>2026-08-04T10:40:49.519Z</time></trkpt>
      <trkpt lat="37.974289" lon="23.733853"><time>2026-08-04T10:40:51.735Z</time></trkpt>
      <trkpt lat="37.974218" lon="23.733838"><time>2026-08-04T10:40:57.452Z</time></trkpt>
      <trkpt lat="37.974213" lon="23.733839"><time>2026-08-04T10:40:57.854Z</time></trkpt>
      <trkpt lat="37.974203" lon="23.733844"><time>2026-08-04T10:40:58.707Z</time></trkpt>
      <trkpt lat="37.9741155" lon="23.733825500000002"><time>2026-08-04T10:41:05.753Z</time></trkpt>
      <trkpt lat="37.974028000000004" lon="23.733807"><time>2026-08-04T10:41:12.799Z</time></trkpt>
      <trkpt lat="37.973940500000005" lon="23.7337885"><time>2026-08-04T10:41:19.844Z</time></trkpt>
      <trkpt lat="37.973853000000005" lon="23.73377"><time>2026-08-04T10:41:26.890Z</time></trkpt>
      <trkpt lat="37.9737655" lon="23.7337515"><time>2026-08-04T10:41:33.935Z</time></trkpt>
      <trkpt lat="37.973678" lon="23.733733"><time>2026-08-04T10:41:40.981Z</time></trkpt>
      <trkpt lat="37.9735905" lon="23.733714499999998"><time>2026-08-04T10:41:48.026Z</time></trkpt>
      <trkpt lat="37.973503" lon="23.733696"><time>2026-08-04T10:41:55.072Z</time></trkpt>
      <trkpt lat="37.973492" lon="23.733694"><time>2026-08-04T10:41:55.954Z</time></trkpt>
      <trkpt lat="37.973473" lon="23.733691"><time>2026-08-04T10:41:57.475Z</time></trkpt>
      <trkpt lat="37.973477" lon="23.733657"><time>2026-08-04T10:41:59.627Z</time></trkpt>
      <trkpt lat="37.97349225" lon="23.73354975"><time>2026-08-04T10:42:06.451Z</time></trkpt>
      <trkpt lat="37.9735075" lon="23.733442500000002"><time>2026-08-04T10:42:13.274Z</time></trkpt>
      <trkpt lat="37.97352275" lon="23.73333525"><time>2026-08-04T10:42:20.097Z</time></trkpt>
      <trkpt lat="37.973538" lon="23.733228"><time>2026-08-04T10:42:26.921Z</time></trkpt>
      <trkpt lat="37.97355133333333" lon="23.733128666666666"><time>2026-08-04T10:42:33.230Z</time></trkpt>
      <trkpt lat="37.97356466666667" lon="23.733029333333334"><time>2026-08-04T10:42:39.538Z</time></trkpt>
      <trkpt lat="37.973578" lon="23.73293"><time>2026-08-04T10:42:45.847Z</time></trkpt>
      <trkpt lat="37.973584" lon="23.732891"><time>2026-08-04T10:42:48.335Z</time></trkpt>
      <trkpt lat="37.9735535" lon="23.732774"><time>2026-08-04T10:42:56.051Z</time></trkpt>
      <trkpt lat="37.973523" lon="23.732657"><time>2026-08-04T10:43:03.766Z</time></trkpt>
      <trkpt lat="37.973519" lon="23.732645"><time>2026-08-04T10:43:04.582Z</time></trkpt>
      <trkpt lat="37.973517" lon="23.732635"><time>2026-08-04T10:43:05.228Z</time></trkpt>
      <trkpt lat="37.973502" lon="23.7325324"><time>2026-08-04T10:43:11.761Z</time></trkpt>
      <trkpt lat="37.973487" lon="23.7324298"><time>2026-08-04T10:43:18.295Z</time></trkpt>
      <trkpt lat="37.973472" lon="23.7323272"><time>2026-08-04T10:43:24.828Z</time></trkpt>
      <trkpt lat="37.973456999999996" lon="23.7322246"><time>2026-08-04T10:43:31.361Z</time></trkpt>
      <trkpt lat="37.973442" lon="23.732122"><time>2026-08-04T10:43:37.895Z</time></trkpt>
      <trkpt lat="37.97341333333333" lon="23.732028333333332"><time>2026-08-04T10:43:44.186Z</time></trkpt>
      <trkpt lat="37.97338466666667" lon="23.731934666666668"><time>2026-08-04T10:43:50.477Z</time></trkpt>
      <trkpt lat="37.973356" lon="23.731841"><time>2026-08-04T10:43:56.768Z</time></trkpt>
      <trkpt lat="37.973332" lon="23.731786"><time>2026-08-04T10:44:00.704Z</time></trkpt>
      <trkpt lat="37.973279" lon="23.731701"><time>2026-08-04T10:44:07.489Z</time></trkpt>
      <trkpt lat="37.973226" lon="23.731616"><time>2026-08-04T10:44:14.274Z</time></trkpt>
      <trkpt lat="37.973212" lon="23.731608"><time>2026-08-04T10:44:15.494Z</time></trkpt>
      <trkpt lat="37.97316549999999" lon="23.731526000000002"><time>2026-08-04T10:44:21.818Z</time></trkpt>
      <trkpt lat="37.973119" lon="23.731444"><time>2026-08-04T10:44:28.143Z</time></trkpt>
      <trkpt lat="37.9730875" lon="23.7313135"><time>2026-08-04T10:44:36.688Z</time></trkpt>
      <trkpt lat="37.973056" lon="23.731183"><time>2026-08-04T10:44:45.233Z</time></trkpt>
      <trkpt lat="37.9730365" lon="23.731097"><time>2026-08-04T10:44:50.836Z</time></trkpt>
      <trkpt lat="37.973017" lon="23.731011"><time>2026-08-04T10:44:56.439Z</time></trkpt>
      <trkpt lat="37.973004" lon="23.73097"><time>2026-08-04T10:44:59.206Z</time></trkpt>
      <trkpt lat="37.972995" lon="23.730945"><time>2026-08-04T10:45:00.927Z</time></trkpt>
      <trkpt lat="37.972977" lon="23.730896"><time>2026-08-04T10:45:04.311Z</time></trkpt>
      <trkpt lat="37.972916" lon="23.730796"><time>2026-08-04T10:45:12.228Z</time></trkpt>
      <trkpt lat="37.97291" lon="23.730795"><time>2026-08-04T10:45:12.709Z</time></trkpt>
      <trkpt lat="37.972857" lon="23.730726"><time>2026-08-04T10:45:18.741Z</time></trkpt>
      <trkpt lat="37.972802" lon="23.7306655"><time>2026-08-04T10:45:24.523Z</time></trkpt>
      <trkpt lat="37.972747" lon="23.730605"><time>2026-08-04T10:45:30.305Z</time></trkpt>
      <trkpt lat="37.972709" lon="23.730556"><time>2026-08-04T10:45:34.608Z</time></trkpt>
      <trkpt lat="37.972646" lon="23.730456"><time>2026-08-04T10:45:42.623Z</time></trkpt>
      <trkpt lat="37.972619" lon="23.73039"><time>2026-08-04T10:45:47.279Z</time></trkpt>
      <trkpt lat="37.972602" lon="23.730362"><time>2026-08-04T10:45:49.492Z</time></trkpt>
      <trkpt lat="37.97258" lon="23.730366"><time>2026-08-04T10:45:51.257Z</time></trkpt>
      <trkpt lat="37.97256975" lon="23.730245"><time>2026-08-04T10:45:58.876Z</time></trkpt>
      <trkpt lat="37.9725595" lon="23.730124"><time>2026-08-04T10:46:06.496Z</time></trkpt>
      <trkpt lat="37.97254925" lon="23.730003"><time>2026-08-04T10:46:14.115Z</time></trkpt>
      <trkpt lat="37.972539" lon="23.729882"><time>2026-08-04T10:46:21.735Z</time></trkpt>
      <trkpt lat="37.97261" lon="23.729850499999998"><time>2026-08-04T10:46:27.709Z</time></trkpt>
      <trkpt lat="37.972681" lon="23.729819"><time>2026-08-04T10:46:33.683Z</time></trkpt>
      <trkpt lat="37.97271" lon="23.729797"><time>2026-08-04T10:46:36.367Z</time></trkpt>
      <trkpt lat="37.972729" lon="23.729757"><time>2026-08-04T10:46:39.291Z</time></trkpt>
      <trkpt lat="37.97275" lon="23.729744"><time>2026-08-04T10:46:41.147Z</time></trkpt>
      <trkpt lat="37.97270625" lon="23.729661"><time>2026-08-04T10:46:47.398Z</time></trkpt>
      <trkpt lat="37.9726625" lon="23.729578"><time>2026-08-04T10:46:53.650Z</time></trkpt>
      <trkpt lat="37.972618749999995" lon="23.729495"><time>2026-08-04T10:46:59.901Z</time></trkpt>
      <trkpt lat="37.972575" lon="23.729412"><time>2026-08-04T10:47:06.153Z</time></trkpt>
      <trkpt lat="37.972547" lon="23.729436"><time>2026-08-04T10:47:08.837Z</time></trkpt>
      <trkpt lat="37.9725" lon="23.729487"><time>2026-08-04T10:47:13.749Z</time></trkpt>
      <trkpt lat="37.972496" lon="23.729483"><time>2026-08-04T10:47:14.154Z</time></trkpt>
      <trkpt lat="37.972417" lon="23.729406"><time>2026-08-04T10:47:22.066Z</time></trkpt>
      <trkpt lat="37.972397" lon="23.729388"><time>2026-08-04T10:47:24.014Z</time></trkpt>
      <trkpt lat="37.972337" lon="23.729328"><time>2026-08-04T10:47:30.082Z</time></trkpt>
      <trkpt lat="37.972316" lon="23.72931"><time>2026-08-04T10:47:32.095Z</time></trkpt>
      <trkpt lat="37.972261" lon="23.729198"><time>2026-08-04T10:47:40.357Z</time></trkpt>
      <trkpt lat="37.972193" lon="23.729056"><time>2026-08-04T10:47:50.760Z</time></trkpt>
      <trkpt lat="37.972141" lon="23.728941"><time>2026-08-04T10:47:59.060Z</time></trkpt>
      <trkpt lat="37.972055" lon="23.728921"><time>2026-08-04T10:48:06.005Z</time></trkpt>
      <trkpt lat="37.971951" lon="23.728965"><time>2026-08-04T10:48:14.712Z</time></trkpt>
      <trkpt lat="37.971902" lon="23.728847"><time>2026-08-04T10:48:23.063Z</time></trkpt>
      <trkpt lat="37.971965" lon="23.728804"><time>2026-08-04T10:48:28.745Z</time></trkpt>
      <trkpt lat="37.972027" lon="23.728757"><time>2026-08-04T10:48:34.482Z</time></trkpt>
      <trkpt lat="37.971988" lon="23.728695"><time>2026-08-04T10:48:39.448Z</time></trkpt>
      <trkpt lat="37.971961" lon="23.728654"><time>2026-08-04T10:48:42.793Z</time></trkpt>
      <trkpt lat="37.971954" lon="23.728609"><time>2026-08-04T10:48:45.665Z</time></trkpt>
      <trkpt lat="37.971952" lon="23.728606"><time>2026-08-04T10:48:45.911Z</time></trkpt>
      <trkpt lat="37.971962" lon="23.728555"><time>2026-08-04T10:48:49.201Z</time></trkpt>
      <trkpt lat="37.972005" lon="23.728523"><time>2026-08-04T10:48:53.161Z</time></trkpt>
      <trkpt lat="37.972007" lon="23.728522"><time>2026-08-04T10:48:53.331Z</time></trkpt>
      <trkpt lat="37.972007" lon="23.728522"><time>2026-08-04T10:49:23.331Z</time></trkpt>
      <trkpt lat="37.97203" lon="23.72851"><time>2026-08-04T10:49:25.307Z</time></trkpt>
      <trkpt lat="37.972038" lon="23.728504"><time>2026-08-04T10:49:26.045Z</time></trkpt>
      <trkpt lat="37.972017" lon="23.728455"><time>2026-08-04T10:49:29.537Z</time></trkpt>
      <trkpt lat="37.972014" lon="23.728448"><time>2026-08-04T10:49:30.036Z</time></trkpt>
      <trkpt lat="37.972023" lon="23.728441"><time>2026-08-04T10:49:30.874Z</time></trkpt>
      <trkpt lat="37.97201" lon="23.728413"><time>2026-08-04T10:49:32.909Z</time></trkpt>
      <trkpt lat="37.971997" lon="23.728383"><time>2026-08-04T10:49:35.052Z</time></trkpt>
      <trkpt lat="37.971992" lon="23.728375"><time>2026-08-04T10:49:35.692Z</time></trkpt>
      <trkpt lat="37.972016" lon="23.728342"><time>2026-08-04T10:49:38.503Z</time></trkpt>
      <trkpt lat="37.972005" lon="23.72833"><time>2026-08-04T10:49:39.655Z</time></trkpt>
      <trkpt lat="37.97205" lon="23.728259"><time>2026-08-04T10:49:45.359Z</time></trkpt>
      <trkpt lat="37.972096" lon="23.728198"><time>2026-08-04T10:49:50.644Z</time></trkpt>
      <trkpt lat="37.972117" lon="23.728183"><time>2026-08-04T10:49:52.559Z</time></trkpt>
      <trkpt lat="37.972129" lon="23.728174"><time>2026-08-04T10:49:53.666Z</time></trkpt>
      <trkpt lat="37.972164" lon="23.728115"><time>2026-08-04T10:49:58.289Z</time></trkpt>
      <trkpt lat="37.972166" lon="23.728099"><time>2026-08-04T10:49:59.303Z</time></trkpt>
      <trkpt lat="37.972169" lon="23.728092"><time>2026-08-04T10:49:59.802Z</time></trkpt>
      <trkpt lat="37.972141" lon="23.728066"><time>2026-08-04T10:50:02.558Z</time></trkpt>
      <trkpt lat="37.972174" lon="23.728013"><time>2026-08-04T10:50:06.787Z</time></trkpt>
      <trkpt lat="37.972192" lon="23.727993"><time>2026-08-04T10:50:08.687Z</time></trkpt>
      <trkpt lat="37.972215" lon="23.727949"><time>2026-08-04T10:50:11.993Z</time></trkpt>
      <trkpt lat="37.972231" lon="23.727931"><time>2026-08-04T10:50:13.692Z</time></trkpt>
      <trkpt lat="37.972239" lon="23.727928"><time>2026-08-04T10:50:14.354Z</time></trkpt>
      <trkpt lat="37.972273" lon="23.727888"><time>2026-08-04T10:50:18.037Z</time></trkpt>
      <trkpt lat="37.972282" lon="23.727884"><time>2026-08-04T10:50:18.795Z</time></trkpt>
      <trkpt lat="37.972311" lon="23.727853"><time>2026-08-04T10:50:21.807Z</time></trkpt>
      <trkpt lat="37.972365" lon="23.727801"><time>2026-08-04T10:50:27.191Z</time></trkpt>
      <trkpt lat="37.972368" lon="23.727799"><time>2026-08-04T10:50:27.461Z</time></trkpt>
      <trkpt lat="37.972417" lon="23.727764"><time>2026-08-04T10:50:31.927Z</time></trkpt>
      <trkpt lat="37.972421" lon="23.727759"><time>2026-08-04T10:50:32.373Z</time></trkpt>
      <trkpt lat="37.972446500000004" lon="23.7276755"><time>2026-08-04T10:50:37.980Z</time></trkpt>
      <trkpt lat="37.972472" lon="23.727592"><time>2026-08-04T10:50:43.586Z</time></trkpt>
      <trkpt lat="37.972474" lon="23.727589"><time>2026-08-04T10:50:43.832Z</time></trkpt>
      <trkpt lat="37.972512" lon="23.727532"><time>2026-08-04T10:50:48.506Z</time></trkpt>
      <trkpt lat="37.972513" lon="23.72753"><time>2026-08-04T10:50:48.654Z</time></trkpt>
      <trkpt lat="37.972517" lon="23.727523"><time>2026-08-04T10:50:49.196Z</time></trkpt>
      <trkpt lat="37.972555" lon="23.727463"><time>2026-08-04T10:50:54.015Z</time></trkpt>
      <trkpt lat="37.972565" lon="23.727446"><time>2026-08-04T10:50:55.343Z</time></trkpt>
      <trkpt lat="37.972572" lon="23.727434"><time>2026-08-04T10:50:56.277Z</time></trkpt>
      <trkpt lat="37.972623" lon="23.727395"><time>2026-08-04T10:51:01.007Z</time></trkpt>
      <trkpt lat="37.972639" lon="23.727383"><time>2026-08-04T10:51:02.483Z</time></trkpt>
      <trkpt lat="37.972663" lon="23.727364"><time>2026-08-04T10:51:04.730Z</time></trkpt>
      <trkpt lat="37.972707" lon="23.727309"><time>2026-08-04T10:51:09.637Z</time></trkpt>
      <trkpt lat="37.972763666666665" lon="23.727225"><time>2026-08-04T10:51:16.559Z</time></trkpt>
      <trkpt lat="37.97282033333333" lon="23.727141"><time>2026-08-04T10:51:23.481Z</time></trkpt>
      <trkpt lat="37.972877" lon="23.727057"><time>2026-08-04T10:51:30.403Z</time></trkpt>
      <trkpt lat="37.972933" lon="23.727046"><time>2026-08-04T10:51:34.904Z</time></trkpt>
      <trkpt lat="37.972954" lon="23.726920333333336"><time>2026-08-04T10:51:42.947Z</time></trkpt>
      <trkpt lat="37.972975" lon="23.726794666666667"><time>2026-08-04T10:51:50.990Z</time></trkpt>
      <trkpt lat="37.972996" lon="23.726669"><time>2026-08-04T10:51:59.033Z</time></trkpt>
      <trkpt lat="37.9729835" lon="23.7265665"><time>2026-08-04T10:52:05.527Z</time></trkpt>
      <trkpt lat="37.972971" lon="23.726464"><time>2026-08-04T10:52:12.021Z</time></trkpt>
      <trkpt lat="37.97296" lon="23.726441"><time>2026-08-04T10:52:13.705Z</time></trkpt>
      <trkpt lat="37.972918" lon="23.726405"><time>2026-08-04T10:52:17.731Z</time></trkpt>
      <trkpt lat="37.972901" lon="23.72637"><time>2026-08-04T10:52:20.305Z</time></trkpt>
      <trkpt lat="37.972875" lon="23.726289"><time>2026-08-04T10:52:25.781Z</time></trkpt>
      <trkpt lat="37.972849" lon="23.726208"><time>2026-08-04T10:52:31.257Z</time></trkpt>
      <trkpt lat="37.972828" lon="23.726061"><time>2026-08-04T10:52:40.610Z</time></trkpt>
      <trkpt lat="37.972819" lon="23.7259495"><time>2026-08-04T10:52:47.628Z</time></trkpt>
      <trkpt lat="37.97281" lon="23.725838"><time>2026-08-04T10:52:54.646Z</time></trkpt>
      <trkpt lat="37.97282233333333" lon="23.725741666666668"><time>2026-08-04T10:53:00.756Z</time></trkpt>
      <trkpt lat="37.97283466666667" lon="23.725645333333333"><time>2026-08-04T10:53:06.867Z</time></trkpt>
      <trkpt lat="37.972847" lon="23.725549"><time>2026-08-04T10:53:12.977Z</time></trkpt>
      <trkpt lat="37.972823500000004" lon="23.7254495"><time>2026-08-04T10:53:19.481Z</time></trkpt>
      <trkpt lat="37.9728" lon="23.72535"><time>2026-08-04T10:53:25.984Z</time></trkpt>
      <trkpt lat="37.972783" lon="23.725264"><time>2026-08-04T10:53:31.535Z</time></trkpt>
      <trkpt lat="37.972746666666666" lon="23.725143666666668"><time>2026-08-04T10:53:39.603Z</time></trkpt>
      <trkpt lat="37.97271033333333" lon="23.725023333333333"><time>2026-08-04T10:53:47.671Z</time></trkpt>
      <trkpt lat="37.972674" lon="23.724903"><time>2026-08-04T10:53:55.739Z</time></trkpt>
      <trkpt lat="37.97264" lon="23.724811333333335"><time>2026-08-04T10:54:02.082Z</time></trkpt>
      <trkpt lat="37.972606" lon="23.724719666666665"><time>2026-08-04T10:54:08.425Z</time></trkpt>
      <trkpt lat="37.972572" lon="23.724628"><time>2026-08-04T10:54:14.768Z</time></trkpt>
      <trkpt lat="37.972534" lon="23.724525"><time>2026-08-04T10:54:21.888Z</time></trkpt>
      <trkpt lat="37.972486" lon="23.724411666666665"><time>2026-08-04T10:54:29.943Z</time></trkpt>
      <trkpt lat="37.972438" lon="23.724298333333333"><time>2026-08-04T10:54:37.998Z</time></trkpt>
      <trkpt lat="37.97239" lon="23.724185"><time>2026-08-04T10:54:46.054Z</time></trkpt>
      <trkpt lat="37.972350999999996" lon="23.724101333333333"><time>2026-08-04T10:54:52.139Z</time></trkpt>
      <trkpt lat="37.972312" lon="23.724017666666665"><time>2026-08-04T10:54:58.225Z</time></trkpt>
      <trkpt lat="37.972273" lon="23.723934"><time>2026-08-04T10:55:04.311Z</time></trkpt>
      <trkpt lat="37.972210000000004" lon="23.7238245"><time>2026-08-04T10:55:12.799Z</time></trkpt>
      <trkpt lat="37.972147" lon="23.723715"><time>2026-08-04T10:55:21.287Z</time></trkpt>
      <trkpt lat="37.972057" lon="23.723617"><time>2026-08-04T10:55:30.707Z</time></trkpt>
      <trkpt lat="37.971985" lon="23.723547"><time>2026-08-04T10:55:37.912Z</time></trkpt>
      <trkpt lat="37.971936" lon="23.723497"><time>2026-08-04T10:55:42.907Z</time></trkpt>
      <trkpt lat="37.971865" lon="23.723432"><time>2026-08-04T10:55:49.861Z</time></trkpt>
      <trkpt lat="37.971773" lon="23.723347"><time>2026-08-04T10:55:58.901Z</time></trkpt>
      <trkpt lat="37.971767" lon="23.723341"><time>2026-08-04T10:55:59.508Z</time></trkpt>
      <trkpt lat="37.971694" lon="23.72341"><time>2026-08-04T10:56:06.738Z</time></trkpt>
      <trkpt lat="37.971608" lon="23.723453"><time>2026-08-04T10:56:14.080Z</time></trkpt>
      <trkpt lat="37.971539" lon="23.723439"><time>2026-08-04T10:56:19.630Z</time></trkpt>
      <trkpt lat="37.97147" lon="23.723425"><time>2026-08-04T10:56:25.180Z</time></trkpt>
      <trkpt lat="37.971465" lon="23.723509"><time>2026-08-04T10:56:30.455Z</time></trkpt>
      <trkpt lat="37.9714515" lon="23.7236015"><time>2026-08-04T10:56:36.345Z</time></trkpt>
      <trkpt lat="37.971438" lon="23.723694"><time>2026-08-04T10:56:42.235Z</time></trkpt>
      <trkpt lat="37.971414" lon="23.723774"><time>2026-08-04T10:56:47.594Z</time></trkpt>
      <trkpt lat="37.971414" lon="23.723794"><time>2026-08-04T10:56:48.846Z</time></trkpt>
      <trkpt lat="37.971416" lon="23.723841"><time>2026-08-04T10:56:51.793Z</time></trkpt>
      <trkpt lat="37.971416" lon="23.723854"><time>2026-08-04T10:56:52.607Z</time></trkpt>
      <trkpt lat="37.971429" lon="23.723879"><time>2026-08-04T10:56:54.483Z</time></trkpt>
      <trkpt lat="37.971449" lon="23.723878"><time>2026-08-04T10:56:56.072Z</time></trkpt>
      <trkpt lat="37.97147" lon="23.7239745"><time>2026-08-04T10:57:02.340Z</time></trkpt>
      <trkpt lat="37.971491" lon="23.724071000000002"><time>2026-08-04T10:57:08.608Z</time></trkpt>
      <trkpt lat="37.971512000000004" lon="23.7241675"><time>2026-08-04T10:57:14.876Z</time></trkpt>
      <trkpt lat="37.971533" lon="23.724264"><time>2026-08-04T10:57:21.144Z</time></trkpt>
      <trkpt lat="37.97153" lon="23.724284"><time>2026-08-04T10:57:22.419Z</time></trkpt>
      <trkpt lat="37.971515" lon="23.724301"><time>2026-08-04T10:57:24.017Z</time></trkpt>
      <trkpt lat="37.971467" lon="23.724323"><time>2026-08-04T10:57:28.070Z</time></trkpt>
      <trkpt lat="37.971425" lon="23.724352"><time>2026-08-04T10:57:31.868Z</time></trkpt>
      <trkpt lat="37.971379" lon="23.724399"><time>2026-08-04T10:57:36.560Z</time></trkpt>
      <trkpt lat="37.971343" lon="23.724407"><time>2026-08-04T10:57:39.463Z</time></trkpt>
      <trkpt lat="37.971432" lon="23.72447"><time>2026-08-04T10:57:47.557Z</time></trkpt>
      <trkpt lat="37.971481" lon="23.724488"><time>2026-08-04T10:57:51.609Z</time></trkpt>
      <trkpt lat="37.971565" lon="23.724517"><time>2026-08-04T10:57:58.524Z</time></trkpt>
      <trkpt lat="37.97161" lon="23.724523"><time>2026-08-04T10:58:02.117Z</time></trkpt>
      <trkpt lat="37.971619" lon="23.72458"><time>2026-08-04T10:58:05.757Z</time></trkpt>
      <trkpt lat="37.971623" lon="23.724609"><time>2026-08-04T10:58:07.600Z</time></trkpt>
      <trkpt lat="37.971625" lon="23.724617"><time>2026-08-04T10:58:08.126Z</time></trkpt>
      <trkpt lat="37.971628" lon="23.724634"><time>2026-08-04T10:58:09.217Z</time></trkpt>
      <trkpt lat="37.971613" lon="23.724638"><time>2026-08-04T10:58:10.434Z</time></trkpt>
      <trkpt lat="37.971586" lon="23.724644"><time>2026-08-04T10:58:12.611Z</time></trkpt>
      <trkpt lat="37.97156" lon="23.724652"><time>2026-08-04T10:58:14.736Z</time></trkpt>
      <trkpt lat="37.971555" lon="23.72467"><time>2026-08-04T10:58:15.931Z</time></trkpt>
      <trkpt lat="37.971559" lon="23.724691"><time>2026-08-04T10:58:17.284Z</time></trkpt>
      <trkpt lat="37.971568" lon="23.724752"><time>2026-08-04T10:58:21.169Z</time></trkpt>
      <trkpt lat="37.9716" lon="23.724769"><time>2026-08-04T10:58:23.925Z</time></trkpt>
      <trkpt lat="37.971602" lon="23.724785"><time>2026-08-04T10:58:24.939Z</time></trkpt>
      <trkpt lat="37.971611" lon="23.72487"><time>2026-08-04T10:58:30.309Z</time></trkpt>
      <trkpt lat="37.971613" lon="23.724883"><time>2026-08-04T10:58:31.138Z</time></trkpt>
      <trkpt lat="37.971737" lon="23.724849"><time>2026-08-04T10:58:41.214Z</time></trkpt>
      <trkpt lat="37.971739" lon="23.724865"><time>2026-08-04T10:58:42.229Z</time></trkpt>
      <trkpt lat="37.971672999999996" lon="23.724912500000002"><time>2026-08-04T10:58:48.256Z</time></trkpt>
      <trkpt lat="37.971607" lon="23.72496"><time>2026-08-04T10:58:54.283Z</time></trkpt>
      <trkpt lat="37.971613" lon="23.724982"><time>2026-08-04T10:58:55.740Z</time></trkpt>
      <trkpt lat="37.971688" lon="23.724982"><time>2026-08-04T10:59:01.697Z</time></trkpt>
      <trkpt lat="37.971682" lon="23.724993"><time>2026-08-04T10:59:02.535Z</time></trkpt>
      <trkpt lat="37.971687" lon="23.725026"><time>2026-08-04T10:59:04.639Z</time></trkpt>
      <trkpt lat="37.971689" lon="23.725042"><time>2026-08-04T10:59:05.653Z</time></trkpt>
      <trkpt lat="37.971691" lon="23.725052"><time>2026-08-04T10:59:06.299Z</time></trkpt>
      <trkpt lat="37.971696" lon="23.725077"><time>2026-08-04T10:59:07.914Z</time></trkpt>
      <trkpt lat="37.971697" lon="23.725081"><time>2026-08-04T10:59:08.177Z</time></trkpt>
      <trkpt lat="37.971702" lon="23.725111"><time>2026-08-04T10:59:10.096Z</time></trkpt>
      <trkpt lat="37.971704" lon="23.725122"><time>2026-08-04T10:59:10.803Z</time></trkpt>
      <trkpt lat="37.971711" lon="23.725164"><time>2026-08-04T10:59:13.491Z</time></trkpt>
      <trkpt lat="37.971735" lon="23.725299"><time>2026-08-04T10:59:22.156Z</time></trkpt>
      <trkpt lat="37.97174" lon="23.725325"><time>2026-08-04T10:59:23.832Z</time></trkpt>
      <trkpt lat="37.971716" lon="23.725444"><time>2026-08-04T10:59:31.522Z</time></trkpt>
      <trkpt lat="37.971725" lon="23.725446"><time>2026-08-04T10:59:32.248Z</time></trkpt>
      <trkpt lat="37.971705" lon="23.725545"><time>2026-08-04T10:59:38.647Z</time></trkpt>
      <trkpt lat="37.971695" lon="23.725599"><time>2026-08-04T10:59:42.120Z</time></trkpt>
      <trkpt lat="37.971655" lon="23.725577"><time>2026-08-04T10:59:45.583Z</time></trkpt>
      <trkpt lat="37.971619" lon="23.725538"><time>2026-08-04T10:59:49.343Z</time></trkpt>
      <trkpt lat="37.971571" lon="23.7254745"><time>2026-08-04T10:59:54.851Z</time></trkpt>
      <trkpt lat="37.971523" lon="23.725411"><time>2026-08-04T11:00:00.360Z</time></trkpt>
      <trkpt lat="37.971466" lon="23.725375"><time>2026-08-04T11:00:05.417Z</time></trkpt>
      <trkpt lat="37.971441" lon="23.725378"><time>2026-08-04T11:00:07.411Z</time></trkpt>
      <trkpt lat="37.971426" lon="23.725404"><time>2026-08-04T11:00:09.429Z</time></trkpt>
      <trkpt lat="37.971391" lon="23.7255155"><time>2026-08-04T11:00:16.943Z</time></trkpt>
      <trkpt lat="37.971356" lon="23.725627"><time>2026-08-04T11:00:24.457Z</time></trkpt>
      <trkpt lat="37.971356" lon="23.725627"><time>2026-08-04T11:00:54.457Z</time></trkpt>
    </trkseg>
  </trk>
</gpx>
