<?xml version="1.0" encoding="UTF-8"?>
<gpx version="1.1" creator="CityPaths" xmlns="http://www.topografix.com/GPX/1/1">
  <trk>
    <name>Monastiraki & Psyrri</name>
    <trkseg>
      <trkpt lat="37.97624" lon="23.725467"><time>2026-08-04T10:37:43.293Z</time></trkpt>
      <trkpt lat="37.97624" lon="23.725467"><time>2026-08-04T10:38:13.293Z</time></trkpt>
      <trkpt lat="37.976254" lon="23.725634"><time>2026-08-04T10:38:23.807Z</time></trkpt>
      <trkpt lat="37.976258" lon="23.725689"><time>2026-08-04T10:38:27.265Z</time></trkpt>
      <trkpt lat="37.9763255" lon="23.725775"><time>2026-08-04T10:38:34.863Z</time></trkpt>
      <trkpt lat="37.976393" lon="23.725861"><time>2026-08-04T10:38:42.461Z</time></trkpt>
      <trkpt lat="37.97631166666667" lon="23.725829666666666"><time>2026-08-04T10:38:49.213Z</time></trkpt>
      <trkpt lat="37.97623033333333" lon="23.725798333333334"><time>2026-08-04T10:38:55.964Z</time></trkpt>
      <trkpt lat="37.976149" lon="23.725767"><time>2026-08-04T10:39:02.715Z</time></trkpt>
      <trkpt lat="37.9760865" lon="23.725826"><time>2026-08-04T10:39:08.903Z</time></trkpt>
      <trkpt lat="37.976024" lon="23.725885"><time>2026-08-04T10:39:15.090Z</time></trkpt>
      <trkpt lat="37.975997" lon="23.725872"><time>2026-08-04T10:39:17.384Z</time></trkpt>
      <trkpt lat="37.975989" lon="23.725869"><time>2026-08-04T10:39:18.047Z</time></trkpt>
      <trkpt lat="37.975910999999996" lon="23.725838666666665"><time>2026-08-04T10:39:24.526Z</time></trkpt>
      <trkpt lat="37.975833" lon="23.725808333333333"><time>2026-08-04T10:39:31.006Z</time></trkpt>
      <trkpt lat="37.975755" lon="23.725778"><time>2026-08-04T10:39:37.486Z</time></trkpt>
      <trkpt lat="37.9756795" lon="23.7257485"><time>2026-08-04T10:39:43.760Z</time></trkpt>
      <trkpt lat="37.975604" lon="23.725719"><time>2026-08-04T10:39:50.035Z</time></trkpt>
      <trkpt lat="37.975526333333335" lon="23.72567366666667"><time>2026-08-04T10:39:56.825Z</time></trkpt>
      <trkpt lat="37.975448666666665" lon="23.725628333333333"><time>2026-08-04T10:40:03.615Z</time></trkpt>
      <trkpt lat="37.975370999999996" lon="23.725583"><time>2026-08-04T10:40:10.406Z</time></trkpt>
      <trkpt lat="37.97529333333333" lon="23.725537666666668"><time>2026-08-04T10:40:17.196Z</time></trkpt>
      <trkpt lat="37.97521566666667" lon="23.72549233333333"><time>2026-08-04T10:40:23.986Z</time></trkpt>
      <trkpt lat="37.975138" lon="23.725447"><time>2026-08-04T10:40:30.777Z</time></trkpt>
      <trkpt lat="37.975042" lon="23.725384"><time>2026-08-04T10:40:39.361Z</time></trkpt>
      <trkpt lat="37.974951000000004" lon="23.7253394"><time>2026-08-04T10:40:47.110Z</time></trkpt>
      <trkpt lat="37.97486" lon="23.7252948"><time>2026-08-04T10:40:54.858Z</time></trkpt>
      <trkpt lat="37.974769" lon="23.725250199999998"><time>2026-08-04T10:41:02.606Z</time></trkpt>
      <trkpt lat="37.974678" lon="23.7252056"><time>2026-08-04T10:41:10.355Z</time></trkpt>
      <trkpt lat="37.974587" lon="23.725161"><time>2026-08-04T10:41:18.103Z</time></trkpt>
      <trkpt lat="37.974575" lon="23.725292500000002"><time>2026-08-04T10:41:26.391Z</time></trkpt>
      <trkpt lat="37.974563" lon="23.725424"><time>2026-08-04T10:41:34.679Z</time></trkpt>
      <trkpt lat="37.974486" lon="23.725391"><time>2026-08-04T10:41:41.134Z</time></trkpt>
      <trkpt lat="37.974473" lon="23.725388"><time>2026-08-04T10:41:42.184Z</time></trkpt>
      <trkpt lat="37.974465" lon="23.725387"><time>2026-08-04T10:41:42.822Z</time></trkpt>
      <trkpt lat="37.974459" lon="23.725389"><time>2026-08-04T10:41:43.315Z</time></trkpt>
      <trkpt lat="37.974448" lon="23.725395"><time>2026-08-04T10:41:44.266Z</time></trkpt>
      <trkpt lat="37.974437" lon="23.725404"><time>2026-08-04T10:41:45.306Z</time></trkpt>
      <trkpt lat="37.974429" lon="23.725414"><time>2026-08-04T10:41:46.198Z</time></trkpt>
      <trkpt lat="37.974415" lon="23.725435"><time>2026-08-04T10:41:47.920Z</time></trkpt>
      <trkpt lat="37.974407" lon="23.725443"><time>2026-08-04T10:41:48.729Z</time></trkpt>
      <trkpt lat="37.974394" lon="23.725449"><time>2026-08-04T10:41:49.828Z</time></trkpt>
      <trkpt lat="37.974381" lon="23.725453"><time>2026-08-04T10:41:50.890Z</time></trkpt>
      <trkpt lat="37.97437" lon="23.725453"><time>2026-08-04T10:41:51.764Z</time></trkpt>
      <trkpt lat="37.974359" lon="23.72545"><time>2026-08-04T10:41:52.657Z</time></trkpt>
      <trkpt lat="37.974341" lon="23.725443"><time>2026-08-04T10:41:54.153Z</time></trkpt>
      <trkpt lat="37.9742685" lon="23.725408"><time>2026-08-04T10:42:00.314Z</time></trkpt>
      <trkpt lat="37.974196" lon="23.725373"><time>2026-08-04T10:42:06.475Z</time></trkpt>
      <trkpt lat="37.97411266666666" lon="23.725356333333334"><time>2026-08-04T10:42:13.175Z</time></trkpt>
      <trkpt lat="37.974029333333334" lon="23.725339666666667"><time>2026-08-04T10:42:19.876Z</time></trkpt>
      <trkpt lat="37.973946" lon="23.725323"><time>2026-08-04T10:42:26.576Z</time></trkpt>
      <trkpt lat="37.973862999999994" lon="23.72530725"><time>2026-08-04T10:42:33.242Z</time></trkpt>
      <trkpt lat="37.97378" lon="23.725291499999997"><time>2026-08-04T10:42:39.908Z</time></trkpt>
      <trkpt lat="37.973697" lon="23.725275749999998"><time>2026-08-04T10:42:46.573Z</time></trkpt>
      <trkpt lat="37.973614" lon="23.72526"><time>2026-08-04T10:42:53.239Z</time></trkpt>
      <trkpt lat="37.973544" lon="23.725226"><time>2026-08-04T10:42:59.192Z</time></trkpt>
      <trkpt lat="37.973489" lon="23.725178"><time>2026-08-04T10:43:04.495Z</time></trkpt>
      <trkpt lat="37.973491" lon="23.725125"><time>2026-08-04T10:43:07.817Z</time></trkpt>
      <trkpt lat="37.9734235" lon="23.7251215"><time>2026-08-04T10:43:13.182Z</time></trkpt>
      <trkpt lat="37.973356" lon="23.725118"><time>2026-08-04T10:43:18.548Z</time></trkpt>
      <trkpt lat="37.973353" lon="23.725254"><time>2026-08-04T10:43:27.066Z</time></trkpt>
      <trkpt lat="37.9732695" lon="23.72524925"><time>2026-08-04T10:43:33.705Z</time></trkpt>
      <trkpt lat="37.973186" lon="23.725244500000002"><time>2026-08-04T10:43:40.344Z</time></trkpt>
      <trkpt lat="37.9731025" lon="23.72523975"><time>2026-08-04T10:43:46.982Z</time></trkpt>
      <trkpt lat="37.973019" lon="23.725235"><time>2026-08-04T10:43:53.621Z</time></trkpt>
      <trkpt lat="37.972942" lon="23.725232000000002"><time>2026-08-04T10:43:59.740Z</time></trkpt>
      <trkpt lat="37.972865" lon="23.725229"><time>2026-08-04T10:44:05.858Z</time></trkpt>
      <trkpt lat="37.972788" lon="23.725226"><time>2026-08-04T10:44:11.977Z</time></trkpt>
      <trkpt lat="37.972795" lon="23.725263"><time>2026-08-04T10:44:14.359Z</time></trkpt>
      <trkpt lat="37.972783" lon="23.725264"><time>2026-08-04T10:44:15.314Z</time></trkpt>
      <trkpt lat="37.972746666666666" lon="23.725143666666668"><time>2026-08-04T10:44:23.382Z</time></trkpt>
      <trkpt lat="37.97271033333333" lon="23.725023333333333"><time>2026-08-04T10:44:31.450Z</time></trkpt>
      <trkpt lat="37.972674" lon="23.724903"><time>2026-08-04T10:44:39.518Z</time></trkpt>
      <trkpt lat="37.97264" lon="23.724811333333335"><time>2026-08-04T10:44:45.861Z</time></trkpt>
      <trkpt lat="37.972606" lon="23.724719666666665"><time>2026-08-04T10:44:52.204Z</time></trkpt>
      <trkpt lat="37.972572" lon="23.724628"><time>2026-08-04T10:44:58.547Z</time></trkpt>
      <trkpt lat="37.972534" lon="23.724525"><time>2026-08-04T10:45:05.667Z</time></trkpt>
      <trkpt lat="37.972486" lon="23.724411666666665"><time>2026-08-04T10:45:13.722Z</time></trkpt>
      <trkpt lat="37.972438" lon="23.724298333333333"><time>2026-08-04T10:45:21.778Z</time></trkpt>
      <trkpt lat="37.97239" lon="23.724185"><time>2026-08-04T10:45:29.833Z</time></trkpt>
      <trkpt lat="37.972350999999996" lon="23.724101333333333"><time>2026-08-04T10:45:35.919Z</time></trkpt>
      <trkpt lat="37.972312" lon="23.724017666666665"><time>2026-08-04T10:45:42.004Z</time></trkpt>
      <trkpt lat="37.972273" lon="23.723934"><time>2026-08-04T10:45:48.090Z</time></trkpt>
      <trkpt lat="37.972210000000004" lon="23.7238245"><time>2026-08-04T10:45:56.578Z</time></trkpt>
      <trkpt lat="37.972147" lon="23.723715"><time>2026-08-04T10:46:05.066Z</time></trkpt>
      <trkpt lat="37.972057" lon="23.723617"><time>2026-08-04T10:46:14.486Z</time></trkpt>
      <trkpt lat="37.971985" lon="23.723547"><time>2026-08-04T10:46:21.691Z</time></trkpt>
      <trkpt lat="37.971936" lon="23.723497"><time>2026-08-04T10:46:26.686Z</time></trkpt>
      <trkpt lat="37.971865" lon="23.723432"><time>2026-08-04T10:46:33.640Z</time></trkpt>
      <trkpt lat="37.971773" lon="23.723347"><time>2026-08-04T10:46:42.680Z</time></trkpt>
      <trkpt lat="37.971767" lon="23.723341"><time>2026-08-04T10:46:43.287Z</time></trkpt>
      <trkpt lat="37.971694" lon="23.72341"><time>2026-08-04T10:46:50.517Z</time></trkpt>
      <trkpt lat="37.971608" lon="23.723453"><time>2026-08-04T10:46:57.859Z</time></trkpt>
      <trkpt lat="37.971539" lon="23.723439"><time>2026-08-04T10:47:03.409Z</time></trkpt>
      <trkpt lat="37.97147" lon="23.723425"><time>2026-08-04T10:47:08.959Z</time></trkpt>
      <trkpt lat="37.971349" lon="23.723395"><time>2026-08-04T10:47:18.752Z</time></trkpt>
      <trkpt lat="37.971345" lon="23.723395"><time>2026-08-04T10:47:19.069Z</time></trkpt>
      <trkpt lat="37.971316" lon="23.723388"><time>2026-08-04T10:47:21.414Z</time></trkpt>
      <trkpt lat="37.971293" lon="23.723382"><time>2026-08-04T10:47:23.279Z</time></trkpt>
      <trkpt lat="37.9712845" lon="23.723516"><time>2026-08-04T10:47:31.696Z</time></trkpt>
      <trkpt lat="37.971276" lon="23.72365"><time>2026-08-04T10:47:40.113Z</time></trkpt>
      <trkpt lat="37.971231" lon="23.72373"><time>2026-08-04T10:47:46.267Z</time></trkpt>
      <trkpt lat="37.971219" lon="23.723751"><time>2026-08-04T10:47:47.891Z</time></trkpt>
      <trkpt lat="37.971171" lon="23.723746"><time>2026-08-04T10:47:51.716Z</time></trkpt>
      <trkpt lat="37.971134" lon="23.723748"><time>2026-08-04T10:47:54.657Z</time></trkpt>
      <trkpt lat="37.971091" lon="23.723748"><time>2026-08-04T10:47:58.073Z</time></trkpt>
      <trkpt lat="37.97103" lon="23.723749"><time>2026-08-04T10:48:02.918Z</time></trkpt>
      <trkpt lat="37.970953" lon="23.72373"><time>2026-08-04T10:48:09.148Z</time></trkpt>
      <trkpt lat="37.970918" lon="23.723791"><time>2026-08-04T10:48:13.872Z</time></trkpt>
      <trkpt lat="37.970881" lon="23.723837"><time>2026-08-04T10:48:17.987Z</time></trkpt>
      <trkpt lat="37.970855" lon="23.723852"><time>2026-08-04T10:48:20.256Z</time></trkpt>
      <trkpt lat="37.970816" lon="23.723857"><time>2026-08-04T10:48:23.369Z</time></trkpt>
      <trkpt lat="37.970769" lon="23.723847"><time>2026-08-04T10:48:27.154Z</time></trkpt>
      <trkpt lat="37.970738" lon="23.723857"><time>2026-08-04T10:48:29.695Z</time></trkpt>
      <trkpt lat="37.970722" lon="23.723875"><time>2026-08-04T10:48:31.393Z</time></trkpt>
      <trkpt lat="37.970693" lon="23.723894"><time>2026-08-04T10:48:33.985Z</time></trkpt>
      <trkpt lat="37.970662" lon="23.723899"><time>2026-08-04T10:48:36.467Z</time></trkpt>
      <trkpt lat="37.9705885" lon="23.7238995"><time>2026-08-04T10:48:42.305Z</time></trkpt>
      <trkpt lat="37.970515" lon="23.7239"><time>2026-08-04T10:48:48.143Z</time></trkpt>
      <trkpt lat="37.97046" lon="23.723875"><time>2026-08-04T10:48:52.783Z</time></trkpt>
      <trkpt lat="37.970396" lon="23.723818"><time>2026-08-04T10:48:58.994Z</time></trkpt>
      <trkpt lat="37.970318" lon="23.723718"><time>2026-08-04T10:49:07.803Z</time></trkpt>
      <trkpt lat="37.970244" lon="23.723703"><time>2026-08-04T10:49:13.755Z</time></trkpt>
      <trkpt lat="37.97017" lon="23.723688"><time>2026-08-04T10:49:19.707Z</time></trkpt>
      <trkpt lat="37.970079" lon="23.723664"><time>2026-08-04T10:49:27.089Z</time></trkpt>
      <trkpt lat="37.970099" lon="23.723523"><time>2026-08-04T10:49:36.059Z</time></trkpt>
      <trkpt lat="37.970099" lon="23.723523"><time>2026-08-04T10:50:06.059Z</time></trkpt>
    </trkseg>
  </trk>
</gpx>
